{"type":"Topology","objects":{"Ukraine":{"type":"GeometryCollection","geometries":[{"type":"Polygon","arcs":[[0,1,2,3]],"id":"7100000000", "properties":{"@id":"relation/91278","admin_level":"4","boundary":"administrative","iso3166-2":"UA-71","id":"7100000000","name":"Черкаська область","name:ar":"محافظة تشيركاسي","name:be":"Чаркаская вобласць","name:be-x-old":"Чаркаская вобласьць","name:bg":"Черкаска област","name:ca":"Província de Txerkassy","name:crh":"Çerkası vilâyeti","name:cs":"Čerkaská oblast","name:de":"Oblast Tscherkassy","name:en":"Cherkasy Oblast","name:eo":"Ĉerkasa provinco","name:es":"Óblast de Cherkasy","name:et":"Tšerkassõ oblast","name:eu":"Txerkasyko oblasta","name:fa":"استان چرکاسی","name:fi":"Tšerkasyn alue","name:fr":"Oblast de Tcherkassy","name:ga":"Cúige Cherkasy","name:hr":"Čerkaška oblast","name:hu":"Cserkaszi terület","name:hy":"Չերկասիի մարզ","name:id":"Oblast Cherkasy","name:it":"Oblast' di Čerkasy","name:ja":"チェルカースィ州","name:ka":"ჩერკასის ოლქი","name:ko":"체르카시 주","name:lt":"Čerkasų sritis","name:lv":"Čerkasu apgabals","name:mk":"Черкаска област","name:mr":"चेर्कासी ओब्लास्त","name:ms":"Oblast Cherkasy","name:nl":"Oblast Tsjerkasy","name:nn":"Tsjerkasy oblast","name:no":"Tsjerkasy oblast","name:pl":"Obwód czerkaski","name:pnb":"چرکیسی اوبلاست","name:pt":"Oblast de Tcherkássi","name:ro":"Regiunea Cerkasî","name:ru":"Черкасская область","name:rue":"Черкаска область","name:sco":"Cherkasy Oblast","name:sh":"Čerkaška oblast","name:sk":"Čerkaská oblasť","name:sr":"Черкашка област","name:sv":"Tjerkasy oblast","name:szl":"Czerkaski uobwůd","name:tr":"Çerkası Oblastı","name:uk":"Черкаська область","name:vi":"Cherkasy (tỉnh)","name:war":"Cherkasy Oblast","name:xmf":"ჩერკასიშ ოლქი","name:zh":"切爾卡瑟州","name:zh-min-nan":"Cherkasy séng","type":"boundary","wikipedia":"uk:Черкаська_область"}},
{"type":"Polygon","arcs":[[4,5,6,7]], "id":"7400000000", "properties":{"admin_level":"4","boundary":"administrative","iso3166-2":"UA-74","id":"7400000000","name":"Чернігівська область","name:ar":"تشرنيهيف أوبلاست","name:be":"Чарнігаўская вобласць","name:be-x-old":"Чарнігаўская вобласьць","name:bg":"Черниговска област","name:ca":"Província de Txerníhiv","name:crh":"Çernigiv vilâyeti","name:cs":"Černihovská oblast","name:de":"Oblast Tschernihiw","name:en":"Chernihiv Oblast","name:eo":"Ĉernihiva provinco","name:es":"Óblast de Chernihiv","name:et":"Tšernigivi oblast","name:eu":"Txernihiveko oblasta","name:fa":"استان چرنیهیو","name:fi":"Tšernihivin alue","name:fr":"Oblast de Tchernihiv","name:hr":"Černigivska oblast","name:hu":"Csernyihivi terület","name:hy":"Չեռնիգովի մարզ","name:id":"Oblast Chernihiv","name:it":"Oblast' di Černihiv","name:ja":"チェルニーヒウ州","name:ka":"ჩერნიგოვის ოლქი","name:ko":"체르니히우 주","name:lt":"Černigovo sritis","name:lv":"Čerņigovas apgabals","name:mk":"Черниговска област","name:mr":"चेर्निहिव्ह ओब्लास्त","name:nl":"Oblast Tsjernihiv","name:nn":"Tsjernihiv oblast","name:no":"Tsjernihiv oblast","name:pl":"Obwód czernihowski","name:pnb":"چرنیہیف اوبلاست","name:pt":"Oblast de Chernigov","name:ro":"Regiunea Cernigău","name:ru":"Черниговская область","name:rue":"Чернїгівска область","name:sco":"Chernihiv Oblast","name:sh":"Černigivska oblast","name:sk":"Černihivská oblasť","name:sv":"Tjernihiv oblast","name:szl":"Czerńihowski uobwůd","name:tr":"Çernigov Oblastı","name:uk":"Чернігівська область","name:vi":"Chernihiv (tỉnh)","name:war":"Chernihiv Oblast","name:xmf":"ჩერნიგოვიშ ოლქი","name:zh":"切爾尼戈夫州","name:zh-min-nan":"Chernigiv séng","type":"boundary","wikipedia":"uk:Чернігівська_область","flag":"http://upload.wikimedia.org/wikipedia/commons/f/f7/Flag_of_Chernihiv_Oblast.svg","name:he":"מחוז צ'רניהיב","name:os":"Черниговы облæст"}},
{"type":"Polygon","arcs":[[8,9,10,11,12]], "id":"7300000000", "properties":{"admin_level":"4","boundary":"administrative","iso3166-2":"UA-77","id":"7300000000","name":"Чернівецька область","name:ar":"تشيرنيفتسي أوبلاست","name:be":"Чарнавіцкая вобласць","name:be-x-old":"Чарнавіцкая вобласьць","name:bg":"Черновицка област","name:ca":"Província de Txernivtsí","name:crh":"Çernivtsi vilâyeti","name:cs":"Černovická oblast","name:de":"Oblast Tscherniwzi","name:en":"Chernivtsi Oblast","name:eo":"Ĉernivca provinco","name:es":"Óblast de Chernivtsi","name:et":"Tšernivtsi oblast","name:eu":"Txernivtsiko oblasta","name:fa":"استان چرنیوتسی","name:fi":"Tšernivtsin alue","name:fr":"Oblast de Tchernivtsi","name:hr":"Černivecka oblast","name:hu":"Csernyivci terület","name:hy":"Չեռնովցիի մարզ","name:id":"Oblast Chernivtsi","name:it":"Oblast' di Černivci","name:ja":"チェルニウツィー州","name:ka":"ჩერნოვცის ოლქი","name:ko":"체르니우치 주","name:lt":"Černivcių sritis","name:lv":"Černivcu apgabals","name:mk":"Черновечка област","name:mr":"चेर्निव्हत्सी ओब्लास्त","name:ms":"Oblast Chernivtsi","name:nl":"Oblast Tsjernivtsi","name:nn":"Tsjernivtsi oblast","name:no":"Tsjernivtsi oblast","name:pl":"Obwód czerniowiecki","name:pnb":"چرنیوتسی اوبلاست","name:pt":"Oblast de Chernivtsi","name:ro":"Regiunea Cernăuți","name:ru":"Черновицкая область","name:rue":"Чернівецька область","name:sco":"Chernivtsi Oblast","name:sh":"Černivecka oblast","name:sk":"Černovická oblasť","name:sr":"Чернивачка област","name:sv":"Tjernivtsi oblast","name:szl":"Czerńowjecki uobwůd","name:tr":"Çernovtsi Oblastı","name:uk":"Чернівецька область","name:vi":"Chernivtsi (tỉnh)","name:war":"Chernivtsi Oblast","name:zh":"切爾諾夫策州","name:zh-min-nan":"Chernivci séng","type":"boundary","wikipedia":"uk:Чернівецька_область","name:os":"Черновцыйы облæст"}},
{"type":"Polygon","arcs":[[13,14]],"id":"0100000000", "properties":{"admin_level":"4","boundary":"administrative","iso3166-2":"UA-43","id":"0100000000","name":"Автономна Республіка Крим","name:be":"Аўтаномная Рэспубліка Крым","name:be-x-old":"Аўтаномная Рэспубліка Крым","name:crh":"Qırım Muhtar Cumhuriyeti","name:cs":"Autonomní republika Krym","name:de":"Autonome Republik Krim","name:en":"Autonomous Republic of Crimea","name:eo":"Aŭtonoma Respubliko Krimeo","name:fi":"Krimin autonominen tasavalta","name:hu":"Krími Autonóm Köztársaság","name:hy":"Ղրիմի Ինքնավար Հանրապետություն","name:ja":"クリミア自治共和国","name:ko":"크림 반도","name:lt":"Krymo autonominė respublika","name:mk":"Автономна Република Крим","name:nl":"Krimrepubliek","name:pl":"Autonomiczna Republika Krymu","name:pt":"República Autônoma da Crimeia","name:ru":"Автономная Республика Крым","name:tr":"Kırım Özerk Cumhuriyeti","name:uk":"Автономна Республіка Крим","type":"boundary","wikipedia":"uk:Автономна_Республіка_Крим","flag":"http://upload.wikimedia.org/wikipedia/commons/a/aa/Flag_of_Crimea.svg","name:os":"Хъырымы Автономон Республикæ","name:az":"Krım Muxtar Respublikası","name:ba":"Ҡырым Автономиялы Республикаһы","name:cu":"Кꙑрꙑмьска Аѵтономьна Димократїꙗ","name:el":"Αυτόνομη Δημοκρατία της Κριμαίας","name:tt":"Кырым Автономияле Җөмһүрияте"}},
{"type":"Polygon","arcs":[[15,16,17,18,19,20,21]],"id":"1200000000", "properties":{"admin_level":"4","boundary":"administrative","iso3166-2":"UA-12","id":"1200000000","name":"Дніпропетровська область","name:ar":"دنيبروبتروفسك أوبلاست","name:be":"Днепрапятроўская вобласць","name:be-x-old":"Днепрапятроўская вобласьць","name:bg":"Днепропетровска област","name:ca":"Província de Dnipropetrovsk","name:crh":"Dnipropetrovsk vilâyeti","name:cs":"Dněpropetrovská oblast","name:de":"Oblast Dnipropetrowsk","name:en":"Dnipropetrovsk Oblast","name:eo":"Dnipropetrovska provinco","name:es":"Óblast de Dnipropetrovsk","name:et":"Dnipropetrovski oblast","name:eu":"Dnipropetrovskeko oblasta","name:fa":"استان دنیپروپتروفسک","name:fi":"Dnepropetrovskin alue","name:fr":"Oblast de Dnipropetrovsk","name:hr":"Dnjipropetrovska oblast","name:hu":"Dnyipropetrovszki terület","name:hy":"Դնեպրոպետրովսկի մարզ","name:id":"Oblast Dnipropetrovsk","name:it":"Oblast' di Dnipropetrovs'k","name:ja":"ドニプロペトロウシク州","name:ka":"დნეპროპეტროვსკის ოლქი","name:ko":"드니프로페트로우시크 주","name:lt":"Dniepropetrovsko sritis","name:lv":"Dņepropetrovskas apgabals","name:mk":"Днепропетровска област","name:mr":"द्नेप्रोपेत्रोव्स्क ओब्लास्त","name:nl":"Oblast Dnjepropetrovsk","name:nn":"Dnipropetrovsk oblast","name:no":"Dnipropetrovsk oblast","name:pl":"Obwód dniepropetrowski","name:pnb":"دنیپروپترووسک اوبلاست","name:pt":"Oblast de Dnipropetrovsk","name:ro":"Regiunea Dniepropetrovsk","name:ru":"Днепропетровская область","name:rue":"Днїпропетровска область","name:sco":"Dnipropetrovsk Oblast","name:sh":"Dnjipropetrovska oblast","name:sk":"Dnepropetrovská oblasť","name:sr":"Дњепропетровска област","name:sv":"Dnipropetrovsk oblast","name:szl":"Dńepropetrowski uobwůd","name:tr":"Dnipropetrovsk Oblastı","name:uk":"Дніпропетровська область","name:vi":"Dnipropetrovsk (tỉnh)","name:war":"Dnipropetrovsk Oblast","name:xmf":"დნეპროპეტროვსკიშ ოლქი","name:zh":"第聂伯罗彼得罗夫斯克州","name:zh-min-nan":"Dnipropetrovsk séng","type":"boundary","wikipedia":"uk:Дніпропетровська_область","flag":"http://upload.wikimedia.org/wikipedia/commons/c/cf/Flag_of_Dnipropetrovsk_Oblast.svg","name:az":"Dnepropetrovsk vilayəti","name:cv":"Днепропетровск облаçĕ"}},
{"type":"Polygon","arcs":[[22,23,-17,24,25]],"id":"1400000000", "properties":{"admin_level":"4","boundary":"administrative","iso3166-2":"UA-14","id":"1400000000","name":"Донецька область","name:ar":"دونيتسك أوبلاست","name:be":"Данецкая вобласць","name:be-x-old":"Данецкая вобласьць","name:bg":"Донецка област","name:ca":"Província de Donetsk","name:crh":"Donetsk vilâyeti","name:cs":"Doněcká oblast","name:de":"Oblast Donezk","name:en":"Donetsk Oblast","name:eo":"Donecka provinco","name:es":"Óblast de Donetsk","name:et":"Donetski oblast","name:eu":"Donetskeko oblasta","name:fa":"استان دونتسک","name:fi":"Donetskin alue","name:fr":"Oblast de Donetsk","name:hr":"Donečka oblast","name:hu":"Donecki terület","name:hy":"Դոնեցկի մարզ","name:id":"Oblast Donetsk","name:it":"Oblast' di Donec'k","name:ja":"ドネツィク州","name:ka":"დონეცკის ოლქი","name:ko":"도네츠크 주","name:lt":"Donecko sritis","name:lv":"Doņeckas apgabals","name:mk":"Донечка област","name:mr":"दोनेत्स्क ओब्लास्त","name:nl":"Oblast Donetsk","name:nn":"Donetsk oblast","name:no":"Donetsk oblast","name:pl":"Obwód doniecki","name:pnb":"دونیتسک اوبلاست","name:pt":"Oblast de Donetsk","name:ro":"Regiunea Donețk","name:ru":"Донецкая область","name:rue":"Донецька область","name:sco":"Donetsk Oblast","name:sh":"Donečka oblast","name:sk":"Donecká oblasť","name:sr":"Доњечка област","name:sv":"Donetsk oblast","name:szl":"Důńecki uobwůd","name:tr":"Donetsk Oblastı","name:uk":"Донецька область","name:vi":"Donetsk (tỉnh)","name:war":"Donetsk Oblast","name:zh":"顿涅茨克州","name:zh-min-nan":"Doneczk séng","type":"boundary","wikipedia":"uk:Донецька_область","flag":"http://upload.wikimedia.org/wikipedia/commons/5/5d/Flag_of_Donetsk_Oblast.svg","name:os":"Донецчы облæст","name:az":"Donetsk Oblastı","name:tt":"Донецк өлкәсе"}},
{"type":"Polygon","arcs":[[26,-12,27,28,29]],"id":"2600000000", "properties":{"admin_level":"4","boundary":"administrative","iso3166-2":"UA-26","id":"2600000000","name":"Івано-Франківська область","name:ar":"إيفانو فرانكيفسك أوبلاست","name:be":"Івана-Франкоўская вобласць","name:be-x-old":"Івана-Франкоўская вобласьць","name:bg":"Ивано-Франковска област","name:ca":"Província d'Ivano-Frankivsk","name:crh":"İvano-Frankivsk vilâyeti","name:cs":"Ivanofrankivská oblast","name:de":"Oblast Iwano-Frankiwsk","name:en":"Ivano-Frankivsk Oblast","name:eo":"Ivano-Frankivska provinco","name:es":"Óblast de Ivano-Frankivsk","name:et":"Ivano-Frankivski oblast","name:eu":"Ivano-Frankivskeko oblasta","name:fa":"استان ایوانو فرانکیسوک","name:fi":"Ivano-Frankivskin alue","name:fr":"Oblast d'Ivano-Frankivsk","name:hr":"Ivano-Frankivska oblast","name:hu":"Ivano-frankivszki terület","name:hy":"Իվանո-Ֆրանկովսկի մարզ","name:id":"Oblast Ivano-Frankivsk","name:it":"Oblast' di Ivano-Frankivs'k","name:ja":"イヴァーノ＝フランキーウシク州","name:ka":"ივანო-ფრანკოვსკის ოლქი","name:ko":"이바노프란키우시크 주","name:lt":"Ivano Frankivsko sritis","name:lv":"Ivanofrankivskas apgabals","name:mk":"Ивано-Франковска област","name:mr":"इव्हानो-फ्रांकिव्ह्स्क ओब्लास्त","name:nl":"Oblast Ivano-Frankivsk","name:nn":"Ivano-Frankivsk oblast","name:no":"Ivano-Frankivsk oblast","name:pl":"Obwód iwanofrankiwski","name:pnb":"ایوانو فرانکیوسک اوبلاست","name:pt":"Oblast de Ivano-Frankivsk","name:ro":"Regiunea Ivano-Frankivsk","name:ru":"Ивано-Франковская область","name:rue":"Івано-Франківска область","name:sco":"Ivano-Frankivsk Oblast","name:sh":"Ivano-Frankivska oblast","name:sk":"Ivanofrankivská oblasť","name:sv":"Ivano-Frankivsk oblast","name:szl":"Iwanofrankiwski uobwůd","name:tr":"İvano-Frankivsk Oblastı","name:uk":"Івано-Франківська область","name:vi":"Ivano-Frankivsk (tỉnh)","name:war":"Ivano-Frankivsk Oblast","name:zh":"伊万诺-弗兰科夫斯克州","name:zh-min-nan":"Ivano-Frankivsk séng","type":"boundary","wikipedia":"uk:Івано-Франківська_область","flag":"http://upload.wikimedia.org/wikipedia/commons/a/a2/Flag_of_Ivano-Frankivsk_Oblast.svg"}},
{"type":"Polygon","arcs":[[30,-25,-16,31,32,33]],"id":"6300000000", "properties":{"@id":"relation/71254","admin_level":"4","boundary":"administrative","iso3166-2":"UA-63","id":"6300000000","name":"Харківська область","name:ar":"خاركيف أوبلاست","name:be":"Харкаўская вобласць","name:be-x-old":"Харкаўская вобласьць","name:bg":"Харковска област","name:ca":"Província de Khàrkiv","name:crh":"Harkiv vilâyeti","name:cs":"Charkovská oblast","name:de":"Oblast Charkiw","name:en":"Kharkiv Oblast","name:eo":"Ĥarkiva provinco","name:es":"Óblast de Járkov","name:et":"Harkivi oblast","name:eu":"Kharkiveko oblasta","name:fa":"استان خارکف","name:fi":"Harkovan alue","name:fr":"Oblast de Kharkiv","name:hr":"Harkivska oblast","name:hu":"Harkivi terület","name:hy":"Խարկովի մարզ","name:id":"Oblast Kharkiv","name:it":"Oblast' di Charkiv","name:ja":"ハルキウ州","name:ka":"ხარკოვის ოლქი","name:ko":"하르키우 주","name:lt":"Charkovo sritis","name:lv":"Harkovas apgabals","name:mk":"Харковска област","name:mr":"खार्कीव्ह ओब्लास्त","name:nl":"Oblast Charkov","name:nn":"Kharkiv oblast","name:no":"Kharkiv oblast","name:pl":"Obwód charkowski","name:pnb":"خارکیف اوبلاست","name:pt":"Oblast de Kharkiv","name:ro":"Regiunea Harkov","name:ru":"Харьковская область","name:rue":"Харківска область","name:sco":"Kharkiv Oblast","name:sh":"Harkivska oblast","name:sk":"Charkovská oblasť","name:sr":"Харковска област","name:sv":"Charkiv oblast","name:szl":"Charkowski uobwůd","name:tr":"Harkiv Oblastı","name:uk":"Харківська область","name:vi":"Kharkiv (tỉnh)","name:war":"Kharkiv Oblast","name:xmf":"ხარკოვიშ ოლქი","name:zh":"哈爾科夫州","name:zh-min-nan":"Xarkiv séng","type":"boundary","wikipedia":"uk:Харківська_область","flag":"http://upload.wikimedia.org/wikipedia/commons/4/41/Flag_of_Kharkiv_Oblast.svg","name:os":"Харьковы облæст"}},
{"type":"Polygon","arcs":[[34],[35,36],[37],[38,39,-15,40,41,42,43,-19]], "id":"6500000000", "properties":{"admin_level":"4","boundary":"administrative","iso3166-2":"UA-65","id":"6500000000","name":"Херсонська область","name:ar":"خيرسون أوبلاست","name:be":"Херсонская вобласць","name:be-x-old":"Хэрсонская вобласьць","name:bg":"Херсонска област","name:ca":"Província de Kherson","name:crh":"Herson vilâyeti","name:cs":"Chersonská oblast","name:de":"Oblast Cherson","name:en":"Kherson Oblast","name:eo":"Ĥersona provinco","name:es":"Óblast de Jersón","name:et":"Hersoni oblast","name:eu":"Khersongo oblasta","name:fa":"استان خرسون","name:fi":"Hersonin alue","name:fr":"Oblast de Kherson","name:ga":"Cúige Kherson","name:hr":"Hersonska oblast","name:hu":"Herszoni terület","name:hy":"Խերսոնի մարզ","name:id":"Oblast Kherson","name:it":"Oblast' di Cherson","name:ja":"ヘルソン州","name:ka":"ხერსონის ოლქი","name:ko":"헤르손 주","name:lt":"Chersono sritis","name:lv":"Hersonas apgabals","name:mk":"Херсонска област","name:mr":"खेर्सन ओब्लास्त","name:ms":"Oblast Kherson","name:nl":"Oblast Cherson","name:nn":"Kherson oblast","name:no":"Kherson oblast","name:pl":"Obwód chersoński","name:pnb":"خیرسون اوبلاست","name:pt":"Oblast de Kherson","name:ro":"Regiunea Herson","name:ru":"Херсонская область","name:rue":"Херсоньска область","name:sco":"Kherson Oblast","name:sh":"Hersonska oblast","name:sk":"Chersonská oblasť","name:sr":"Херсонска област","name:sv":"Cherson oblast","name:szl":"Chersůński uobwůd","name:tr":"Herson Oblastı","name:uk":"Херсонська область","name:vi":"Kherson (tỉnh)","name:war":"Kherson Oblast","name:zh":"赫尔松州","name:zh-min-nan":"Xerson séng","type":"boundary","wikipedia":"uk:Херсонська_область","name:os":"Херсоны облæст","name:az":"Xerson vilayəti","name:diq":"Xerson"}},
{"type":"Polygon","arcs":[[44,45,-9,46,47]], "id":"6800000000", "properties":{"@id":"relation/90742","admin_level":"4","boundary":"administrative","iso3166-2":"UA-68","id":"6800000000","name":"Хмельницька область","name:ar":"خملنيتسكي أوبلاست","name:be":"Хмяльніцкая вобласць","name:be-x-old":"Хмяльніцкая вобласьць","name:bg":"Хмелницка област","name:ca":"Província de Khmelnytskyi","name:crh":"Hmelnıtskıy vilâyeti","name:cs":"Chmelnycká oblast","name:de":"Oblast Chmelnyzkyj","name:en":"Khmelnytskyi Oblast","name:eo":"Ĥmelnicka provinco","name:es":"Óblast de Jmelnitski","name:et":"Hmelnõtskõi oblast","name:eu":"Khmelnytskyko oblasta","name:fa":"استان خملنیتسکی","name:fi":"Hmelnitskyin alue","name:fr":"Oblast de Khmelnitski","name:hr":"Hmeljnička oblast","name:hu":"Hmelnickiji terület","name:hy":"Խմելնիցկու մարզ","name:id":"Oblast Khmelnytskyi","name:it":"Oblast' di Chmel'nyc'kyj","name:ja":"フメリヌィーツィクィイ州","name:ka":"ხმელნიცკის ოლქი","name:ko":"흐멜니츠키 주","name:lt":"Chmelnyckio sritis","name:lv":"Hmeļņickas apgabals","name:mk":"Хмелничка област","name:mr":"ख्मेल्नित्स्की ओब्लास्त","name:nl":"Oblast Chmelnitski","name:nn":"Khmelnytskyj oblast","name:no":"Khmelnytskyj oblast","name:pl":"Obwód chmielnicki","name:pnb":"خمیلنیتسکی اوبلاست","name:pt":"Oblast de Khmelnitski","name:ro":"Regiunea Hmelnițki","name:ru":"Хмельницкая область","name:rue":"Хмельницька область","name:sco":"Khmelnytskyi Oblast","name:sh":"Hmeljnička oblast","name:sk":"Chmeľnycká oblasť","name:sr":"Хмељничка област","name:sv":"Chmelnytskyj oblast","name:szl":"Chmjylńicki uobwůd","name:tr":"Hmelnitski Oblastı","name:uk":"Хмельницька область","name:vi":"Khmelnytskyi (tỉnh)","name:war":"Khmelnytskyi Oblast","name:zh":"赫梅利尼茨基州","name:zh-min-nan":"Xmelnyczkyj séng","type":"boundary","wikipedia":"uk:Хмельницька_область"}},
{"type":"Polygon","arcs":[[-7,48,-4,49,50,51]], "id":"3200000000", "properties":{"admin_level":"4","boundary":"administrative","iso3166-2":"UA-32","id":"3200000000","name":"Київська область","name:ar":"كييف أوبلاست","name:be":"Кіеўская вобласць","name:be-x-old":"Кіеўская вобласьць","name:bg":"Киевска област","name:ca":"Província de Kíev","name:crh":"Kiyev vilâyeti","name:cs":"Kyjevská oblast","name:de":"Oblast Kiew","name:en":"Kiev Oblast","name:eo":"Kieva provinco","name:es":"Óblast de Kiev","name:et":"Kiievi oblast","name:eu":"Kieveko oblasta","name:fa":"استان کیف","name:fi":"Kiovan alue","name:fr":"Oblast de Kiev","name:hr":"Kijevska oblast","name:hy":"Կիևի մարզ","name:id":"Oblast Kiev","name:it":"Oblast' di Kiev","name:ja":"キエフ州","name:ka":"კიევის ოლქი","name:ko":"키예프 주","name:lt":"Kijevo sritis","name:lv":"Kijevas apgabals","name:mk":"Киевска област","name:mr":"क्यीव ओब्लास्त","name:ms":"Oblast Kiev","name:nl":"Oblast Kiev","name:nn":"Kiev oblast","name:no":"Kiev oblast","name:pl":"Obwód kijowski","name:pnb":"کیف اوبلاست","name:pt":"Oblast de Kiev","name:ro":"Regiunea Kiev","name:ru":"Киевская область","name:rue":"Київска область","name:sco":"Kiev Oblast","name:sh":"Kijevska oblast","name:sk":"Kyjevská oblasť","name:sr":"Кијевска област","name:sv":"Kiev oblast","name:tr":"Kiev Oblastı","name:uk":"Київська область","name:vi":"Kiev (tỉnh)","name:war":"Kiev Oblast","name:xmf":"კიევიშ ოლქი","name:zh":"基辅州","name:zh-min-nan":"Kyyiv séng","type":"boundary","wikipedia":"uk:Київська_область","flag":"http://upload.wikimedia.org/wikipedia/commons/b/be/Flag_of_Kiev_Oblast.svg","name:os":"Киевы облæст","name:cv":"Кейӳ облаçĕ","name:bs":"Kijevska oblast"}},
{"type":"Polygon","arcs":[[-21,52,53,54,-2,55]],"id":"3500000000", "properties":{"admin_level":"4","boundary":"administrative","iso3166-2":"UA-35","id":"3500000000","name":"Кіровоградська область","name:ar":"كيروفوهراد أوبلاست","name:be":"Кіраваградская вобласць","name:be-x-old":"Кіраваградзкая вобласьць","name:bg":"Кировоградска област","name:ca":"Província de Kirovohrad","name:crh":"Kirovograd vilâyeti","name:cs":"Kirovohradská oblast","name:de":"Oblast Kirowohrad","name:en":"Kirovohrad Oblast","name:eo":"Kirovohrada provinco","name:es":"Óblast de Kirovogrado","name:et":"Kirovogradi oblast","name:eu":"Kirovohradeko oblasta","name:fa":"استان کیرووهراد","name:fi":"Kirovohradin alue","name:fr":"Oblast de Kirovohrad","name:hr":"Kirovogradska oblast","name:hu":"Kirovohradi terület","name:hy":"Կիրովոգրադի մարզ","name:id":"Oblast Kirovohrad","name:it":"Oblast' di Kirovohrad","name:ja":"キロヴォフラード州","name:ka":"კიროვოგრადის ოლქი","name:ko":"키로보흐라드 주","name:lt":"Kirovohrado sritis","name:lv":"Kirovogradas apgabals","name:mk":"Кировоградска област","name:mr":"किरोव्होराद ओब्लास्त","name:nl":"Oblast Kirovohrad","name:nn":"Kirovohrad oblast","name:no":"Kirovohrad oblast","name:pl":"Obwód kirowohradzki","name:pnb":"کیرووہراد اوبلاست","name:pt":"Oblast de Kirovogrado","name:ro":"Regiunea Kirovohrad","name:ru":"Кировоградская область","name:rue":"Кіровоградьска область","name:sco":"Kirovohrad Oblast","name:sh":"Kirovogradska oblast","name:sk":"Kirovohradská oblasť","name:sr":"Кировоградска област","name:sv":"Kirovohrad oblast","name:tr":"Kirovograd Oblastı","name:uk":"Кіровоградська область","name:vi":"Kirovohrad (tỉnh)","name:war":"Kirovohrad Oblast","name:zh":"基洛夫格勒州","name:zh-min-nan":"Kirovograd séng","type":"boundary","wikipedia":"uk:Кіровоградська_область","flag":"http://upload.wikimedia.org/wikipedia/commons/0/09/Flag_of_Kirovohrad_Oblast.svg"}},
{"type":"Polygon","arcs":[[-26,-31,56]],"id":"4400000000", "properties":{"@id":"relation/71971","admin_level":"4","boundary":"administrative","iso3166-2":"UA-09","id":"4400000000","name":"Луганська область","name:ar":"لوهانسك أوبلاست","name:be":"Луганская вобласць","name:be-x-old":"Луганская вобласьць","name:bg":"Луганска област","name:ca":"Província de Luhansk","name:crh":"Lugansk vilâyeti","name:cs":"Luhanská oblast","name:de":"Oblast Luhansk","name:en":"Luhansk Oblast","name:eo":"Luhanska provinco","name:es":"Óblast de Lugansk","name:et":"Luganski oblast","name:eu":"Luhanskeko oblasta","name:fa":"استان لوهانسک","name:fi":"Luhanskin alue","name:fr":"Oblast de Louhansk","name:ga":"Cúige Luhansk","name:hr":"Luhanska oblast","name:hu":"Luhanszki terület","name:hy":"Լուգանսկի մարզ","name:id":"Oblast Luhansk","name:it":"Oblast' di Luhans'k","name:ja":"ルハーンシク州","name:ka":"ლუგანსკის ოლქი","name:ko":"루한시크 주","name:lt":"Luhansko sritis","name:lv":"Luhanskas apgabals","name:mk":"Луганска област","name:mr":"लुहान्स्क ओब्लास्त","name:nl":"Oblast Loehansk","name:nn":"Luhansk oblast","name:no":"Luhansk oblast","name:pl":"Obwód ługański","name:pnb":"لوہانسک اوبلاست","name:pt":"Oblast de Lugansk","name:ro":"Regiunea Luhansk","name:ru":"Луганская область","name:rue":"Луганьска область","name:sco":"Luhansk Oblast","name:sh":"Luganska oblast","name:sk":"Luhanská oblasť","name:sr":"Луганска област","name:sv":"Luhansk oblast","name:tr":"Luhansk Oblastı","name:uk":"Луганська область","name:vi":"Luhansk (tỉnh)","name:war":"Luhansk Oblast","name:xmf":"ლუგანსკიშ ოლქი","name:zh":"盧甘斯克州","name:zh-min-nan":"Lugansk séng","type":"boundary","wikipedia":"uk:Луганська_область","name:os":"Лугансчы облæст"}},
{"type":"Polygon","arcs":[[57,58,-30,59,60,61]],"id":"4600000000", "properties":{"@id":"relation/72380","admin_level":"4","boundary":"administrative","iso3166-2":"UA-46","id":"4600000000","name":"Львівська область","name:ar":"لفيف أوبلاست","name:be":"Львоўская вобласць","name:be-x-old":"Львоўская вобласьць","name:bg":"Лвовска област","name:ca":"Província de Lviv","name:crh":"İlbav vilâyeti","name:cs":"Lvovská oblast","name:de":"Oblast Lwiw","name:en":"Lviv Oblast","name:eo":"Lviva provinco","name:es":"Óblast de Leópolis","name:et":"Lvivi oblast","name:eu":"Lviveko oblasta","name:fa":"استان لووف","name:fi":"Lvivin alue","name:fr":"Oblast de Lviv","name:hr":"Ljvivska oblast","name:hu":"Lvivi terület","name:hy":"Լվովի մարզ","name:id":"Oblast Lviv","name:it":"Oblast' di Leopoli","name:ja":"リヴィウ州","name:ka":"ლვოვის ოლქი","name:ko":"리비우 주","name:lt":"Lvovo sritis","name:lv":"Ļvovas apgabals","name:mk":"Лавовска област","name:mr":"लिव्हिव ओब्लास्त","name:ms":"Oblast Lviv","name:nl":"Oblast Lviv","name:nn":"Lviv oblast","name:no":"Lviv oblast","name:pl":"Obwód lwowski","name:pnb":"لویو اوبلاست","name:pt":"Oblast de Lviv","name:ro":"Regiunea Liov","name:ru":"Львовская область","name:rue":"Львівска область","name:sco":"Lviv Oblast","name:sh":"Lavovska oblast","name:sk":"Ľvovská oblasť","name:sr":"Лавовска област","name:sv":"Lviv oblast","name:szl":"Lwowski uobwůd","name:tr":"Lviv Oblastı","name:uk":"Львівська область","name:vi":"Lviv (tỉnh)","name:war":"Lviv Oblast","name:zh":"利沃夫州","name:zh-min-nan":"Lviv séng","type":"boundary","wikipedia":"uk:Львівська_область","name:he":"מחוז לבוב","name:os":"Львовы облæст","name:az":"Lvov vilayəti","name:cv":"Львов облаçĕ"}},
{"type":"Polygon","arcs":[[-42,62],[-20,-44,63,64,-53]], "id":"4800000000", "properties":{"@id":"relation/72635","admin_level":"4","boundary":"administrative","iso3166-2":"UA-48","id":"4800000000","name":"Миколаївська область","name:ar":"ميكولايف أوبلاست","name:be":"Мікалаеўская вобласць","name:be-x-old":"Мікалаеўская вобласьць","name:bg":"Николаевска област","name:ca":"Província de Mykolàïv","name:crh":"Mıkolayiv vilâyeti","name:cs":"Mykolajivská oblast","name:de":"Oblast Mykolajiw","name:en":"Mykolaiv Oblast","name:eo":"Mikolajeva provinco","name:es":"Óblast de Mykolaiv","name:et":"Mõkolajivi oblast","name:eu":"Mykolaiveko oblasta","name:fa":"استان میکولائیف","name:fi":"Mykolajivin alue","name:fr":"Oblast de Mykolaïv","name:hr":"Mikolajivska oblast","name:hu":"Mikolajivi terület","name:hy":"Նիկոլաևի մարզ","name:id":"Oblast Mykolaiv","name:it":"Oblast' di Mykolaïv","name:ja":"ムィコラーイウ州","name:ka":"ნიკოლაევის ოლქი","name:ko":"미콜라이우 주","name:lt":"Mykolajivo sritis","name:lv":"Nikolajevas apgabals","name:mk":"Николаевска област","name:mr":"मिकोलाइव्ह ओब्लास्त","name:nl":"Oblast Mykolajiv","name:nn":"Mykolajiv oblast","name:no":"Mykolajiv oblast","name:pl":"Obwód mikołajowski","name:pnb":"میکولائیف اوبلاست","name:pt":"Oblast de Mikolaiv","name:ro":"Regiunea Mîkolaiv","name:ru":"Николаевская область","name:rue":"Миколаївска область","name:sco":"Mykolaiv Oblast","name:sh":"Mikolajivska oblast","name:sk":"Mykolajivská oblasť","name:sr":"Миколајивска област","name:sv":"Mykolajiv oblast","name:tr":"Mıkolayiv Oblastı","name:uk":"Миколаївська область","name:vi":"Mykolaiv (tỉnh)","name:war":"Mykolaiv Oblast","name:zh":"尼古拉耶夫州","name:zh-min-nan":"Mykolayiv séng","type":"boundary","wikipedia":"uk:Миколаївська_область","flag":"http://upload.wikimedia.org/wikipedia/commons/e/e1/Flag_of_Mykolaiv_Oblast.svg"}},
{"type":"Polygon","arcs":[[65],[-65,66,67,-54]],"id":"5100000000", "properties":{"@id":"relation/72634","admin_level":"4","boundary":"administrative","iso3166-2":"UA-51","id":"5100000000","name":"Одеська область","name:ar":"أوديسا أوبلاست","name:be":"Адэская вобласць","name:be-x-old":"Адэская вобласьць","name:bg":"Одеска област","name:ca":"Província d'Odessa","name:crh":"Ades vilâyeti","name:cs":"Oděská oblast","name:de":"Oblast Odessa","name:en":"Odessa Oblast","name:eo":"Odesa provinco","name:es":"Óblast de Odesa","name:et":"Odessa oblast","name:eu":"Odesako oblasta","name:fa":"استان اودسا","name:fi":"Odessan alue","name:fr":"Oblast d'Odessa","name:hr":"Odeška oblast","name:hu":"Odesszai terület","name:hy":"Օդեսայի մարզ","name:id":"Oblast Odessa","name:it":"Oblast' di Odessa","name:ja":"オデッサ州","name:ka":"ოდესის ოლქი","name:ko":"오데사 주","name:lt":"Odesos sritis","name:lv":"Odesas apgabals","name:mk":"Одеска област","name:mr":"ओदेसा ओब्लास्त","name:nl":"Oblast Odessa","name:nn":"Odessa oblast","name:no":"Odessa oblast","name:pl":"Obwód odeski","name:pnb":"اودیسا اوبلاست","name:pt":"Oblast de Odesa","name:ro":"Regiunea Odesa","name:ru":"Одесская область","name:rue":"Одеска область","name:sco":"Odessa Oblast","name:sh":"Odeška oblast","name:sk":"Odeská oblasť","name:sr":"Одешка област","name:sv":"Odessa oblast","name:tr":"Odessa Oblastı","name:uk":"Одеська область","name:vi":"Odessa (tỉnh)","name:war":"Odessa Oblast","name:xmf":"ოდესაშ ოლქი","name:zh":"敖德萨州","name:zh-min-nan":"Odesa séng","type":"boundary","wikipedia":"uk:Одеська_область","name:os":"Одессæйы облæст","name:az":"Odessa vilayəti","name:ur":"اودیسا اوبلاست"}},
{"type":"Polygon","arcs":[[-32,-22,-56,-1,68,-49,-6,69]],"id":"5300000000", "properties":{"admin_level":"4","boundary":"administrative","iso3166-2":"UA-53","id":"5300000000","name":"Полтавська область","name:ar":"بولتافا أوبلاست","name:be":"Палтаўская вобласць","name:be-x-old":"Палтаўская вобласьць","name:bg":"Полтавска област","name:ca":"Província de Poltava","name:crh":"Poltava vilâyeti","name:cs":"Poltavská oblast","name:de":"Oblast Poltawa","name:en":"Poltava Oblast","name:eo":"Poltava provinco","name:es":"Óblast de Poltava","name:et":"Poltava oblast","name:eu":"Poltavako oblasta","name:fa":"استان پولتاوا","name:fi":"Pultavan alue","name:fr":"Oblast de Poltava","name:hr":"Poltavska oblast","name:hu":"Poltavai terület","name:hy":"Պոլտավայի մարզ","name:id":"Oblast Poltava","name:it":"Oblast' di Poltava","name:ja":"ポルタヴァ州","name:ka":"პოლტავის ოლქი","name:ko":"폴타바 주","name:lt":"Poltavos sritis","name:lv":"Poltavas apgabals","name:mk":"Полтавска област","name:mr":"पोल्ताव्हा ओब्लास्त","name:nl":"Oblast Poltava","name:nn":"Poltava oblast","name:no":"Poltava oblast","name:pl":"Obwód połtawski","name:pnb":"پولتاوا اوبلاست","name:pt":"Oblast de Poltava","name:ro":"Regiunea Poltava","name:ru":"Полтавская область","name:rue":"Полтавска область","name:sco":"Poltava Oblast","name:sh":"Poltavska oblast","name:sk":"Poltavská oblasť","name:sr":"Полтавска област","name:sv":"Poltava oblast","name:tr":"Poltava Oblastı","name:uk":"Полтавська область","name:vi":"Poltava (tỉnh)","name:war":"Poltava Oblast","name:xmf":"პოლტავაშ ოლქი","name:zh":"波尔塔瓦州","name:zh-min-nan":"Poltava séng","type":"boundary","wikipedia":"uk:Полтавська_область","flag":"http://upload.wikimedia.org/wikipedia/commons/d/d3/Flag_of_Poltava_Oblast.svg","name:az":"Poltava vilayəti","name:cv":"Полтава облаçĕ","name:gl":"Oblast de Poltava"}},
{"type":"Polygon","arcs":[[70,-48,71,-58,72,73]],"id":"5600000000", "properties":{"admin_level":"4","boundary":"administrative","iso3166-2":"UA-56","id":"5600000000","name":"Рівненська область","name:ar":"ريفنا أوبلاست","name:be":"Ровенская вобласць","name:be-x-old":"Ровенская вобласьць","name:bg":"Ровненска област","name:ca":"Província de Rivne","name:crh":"Rivne vilâyeti","name:cs":"Rovenská oblast","name:de":"Oblast Riwne","name:en":"Rivne Oblast","name:eo":"Rivna provinco","name:es":"Óblast de Rivne","name:et":"Rivne oblast","name:eu":"Rivneko oblasta","name:fa":"استان ریونه","name:fi":"Rivnen alue","name:fr":"Oblast de Rivne","name:hr":"Rivnenska oblast","name:hy":"Ռովնոյի մարզ","name:id":"Oblast Rivne","name:it":"Oblast' di Rivne","name:ja":"リウネ州","name:ka":"როვნოს ოლქი","name:ko":"리우네 주","name:lt":"Rivnės sritis","name:lv":"Rivnes apgabals","name:mk":"Ровненска област","name:mr":"रिव्ह्ने ओब्लास्त","name:ms":"Oblast Rivne","name:nl":"Oblast Rivne","name:nn":"Rivne oblast","name:no":"Rivne oblast","name:pl":"Obwód rówieński","name:pnb":"ریون اوبلاست","name:pt":"Oblast de Rivne","name:ro":"Regiunea Rivne","name:ru":"Ровненская область","name:rue":"Рівненьска область","name:sco":"Rivne Oblast","name:sh":"Rivnenska oblast","name:sk":"Rivnenská oblasť","name:sr":"Ривањска област","name:sv":"Rivne oblast","name:tr":"Rivne Oblastı","name:uk":"Рівненська область","name:vi":"Rivne (tỉnh)","name:war":"Rivne Oblast","name:zh":"羅夫諾州","name:zh-min-nan":"Rivne séng","type":"boundary","wikipedia":"uk:Рівненська_область","flag":"http://upload.wikimedia.org/wikipedia/commons/3/3c/Flag_of_Rivne_Oblast.svg","addr:country":"UA","is_in:country":"Ukraine"}},
{"type":"Polygon","arcs":[[-33,-70,-5,74]],"id":"5900000000", "properties":{"@id":"relation/71250","admin_level":"4","boundary":"administrative","iso3166-2":"UA-59","id":"5900000000","name":"Сумська область","name:ar":"سومي أوبلاست","name:be":"Сумская вобласць","name:be-x-old":"Сумская вобласьць","name:bg":"Сумска област","name:ca":"Província de Sumy","name:crh":"Sumı vilâyeti","name:cs":"Sumská oblast","name:de":"Oblast Sumy","name:en":"Sumy Oblast","name:eo":"Sumia provinco","name:es":"Óblast de Sumy","name:et":"Sumõ oblast","name:eu":"Sumyko oblasta","name:fa":"استان سومی","name:fi":"Sumyn alue","name:fr":"Oblast de Soumy","name:ga":"Cúige Shumy","name:hr":"Sumska oblast","name:hu":"Szumi terület","name:hy":"Սումիի մարզ","name:id":"Oblast Sumy","name:it":"Oblast' di Sumy","name:ja":"スームィ州","name:ka":"სუმის ოლქი","name:ko":"수미 주","name:lt":"Sumų sritis","name:lv":"Sumu apgabals","name:mk":"Сумска област","name:mr":"सुमी ओब्लास्त","name:nl":"Oblast Soemy","name:nn":"Sumy oblast","name:no":"Sumy oblast","name:pl":"Obwód sumski","name:pnb":"سومی اوبلاست","name:pt":"Oblast de Sumi","name:ro":"Regiunea Sumî","name:ru":"Сумская область","name:rue":"Сумска область","name:sco":"Sumy Oblast","name:sh":"Sumska oblast","name:sk":"Sumská oblasť","name:sr":"Сумска област","name:sv":"Sumy oblast","name:tr":"Sumi Oblastı","name:uk":"Сумська область","name:vi":"Sumi (tỉnh)","name:war":"Sumy Oblast","name:xmf":"სუმაშ ოლქი","name:zh":"蘇梅州","name:zh-min-nan":"Sumy séng","type":"boundary","wikipedia":"uk:Сумська_область","name:os":"Сумыйы облæст"}},
{"type":"Polygon","arcs":[[-47,-13,-27,-59,-72]],"id":"6100000000", "properties":{"admin_level":"4","boundary":"administrative","iso3166-2":"UA-61","id":"6100000000","name":"Тернопільська область","name:ar":"تيرنوبل أوبلاست","name:be":"Цярнопальская вобласць","name:be-x-old":"Тэрнопальская вобласьць","name:bg":"Тернополска област","name:ca":"Província de Ternópill","name:crh":"Ternopil vilâyeti","name:cs":"Ternopilská oblast","name:de":"Oblast Ternopil","name:en":"Ternopil Oblast","name:eo":"Ternopila provinco","name:es":"Óblast de Ternópil","name:et":"Ternopili oblast","name:eu":"Ternopilgo oblasta","name:fa":"استان ترنوپیل","name:fi":"Ternopilin alue","name:fr":"Oblast de Ternopil","name:hr":"Ternopiljska oblast","name:hu":"Ternopili terület","name:hy":"Տերնոպոլի մարզ","name:id":"Oblast Ternopil","name:it":"Oblast' di Ternopil'","name:ja":"テルノーピリ州","name:ka":"ტერნოპოლის ოლქი","name:ko":"테르노필 주","name:lt":"Ternopilio sritis","name:lv":"Ternopiļas apgabals","name:mk":"Тернополска област","name:mr":"तेर्नोपिल ओब्लास्त","name:nl":"Oblast Ternopil","name:nn":"Ternopil oblast","name:no":"Ternopil oblast","name:pl":"Obwód tarnopolski","name:pnb":"ترنوپل اوبلاست","name:pt":"Oblast de Ternopil","name:ro":"Regiunea Ternopil","name:ru":"Тернопольская область","name:rue":"Тернопільска область","name:sco":"Ternopil Oblast","name:sh":"Ternopiljska oblast","name:sk":"Ternopiľská oblasť","name:sr":"Тернопољска област","name:sv":"Ternopil oblast","name:szl":"Tarnopolski uobwůd","name:tr":"Ternopil Oblastı","name:uk":"Тернопільська область","name:vi":"Ternopil (tỉnh)","name:war":"Ternopil Oblast","name:zh":"捷爾諾波爾州","name:zh-min-nan":"Ternopil séng","type":"boundary","wikipedia":"uk:Тернопільська_область","flag":"http://upload.wikimedia.org/wikipedia/commons/d/dc/Flag_of_Ternopil_Oblast.svg","name:he":"מחוז טרנופול"}},
{"type":"Polygon","arcs":[[-50,-3,-55,-68,75,-10,-46,76]],"id":"0500000000", "properties":{"admin_level":"4","boundary":"administrative","iso3166-2":"UA-05","id":"0500000000","name":"Вінницька область","name:ar":"فينيتسا أوبلاست","name:be":"Вінніцкая вобласць","name:be-x-old":"Віньніцкая вобласьць","name:bg":"Виницка област","name:ca":"Província de Vínnytsia","name:crh":"Vinnıtsâ vilâyeti","name:cs":"Vinnycká oblast","name:de":"Oblast Winnyzja","name:en":"Vinnytsia Oblast","name:eo":"Vinica provinco","name:es":"Óblast de Vinnytsia","name:et":"Vinnõtsja oblast","name:eu":"Vinnytsiako oblasta","name:fa":"استان وینیتسیا","name:fi":"Vinnytsjan alue","name:fr":"Oblast de Vinnytsia","name:hr":"Vinička oblast","name:hu":"Vinnicjai terület","name:hy":"Վիննիցայի մարզ","name:id":"Oblast Vinnytsia","name:it":"Oblast' di Vinnycja","name:ja":"ヴィーンヌィツャ州","name:ka":"ვინიცის ოლქი","name:ko":"빈니차 주","name:lt":"Vinycios sritis","name:lv":"Vinnicas apgabals","name:mk":"Виничка област","name:mr":"व्हिनित्सिया ओब्लास्त","name:nl":"Oblast Vinnytsja","name:nn":"Vinnytsia oblast","name:no":"Vinnytsia oblast","name:pl":"Obwód winnicki","name:pnb":"وینیتسیا اوبلاست","name:pt":"Oblast de Vinnitsa","name:ro":"Regiunea Vinnița","name:ru":"Винницкая область","name:rue":"Віницька область","name:sco":"Vinnytsia Oblast","name:sh":"Vinička oblast","name:sk":"Vinnycká oblasť","name:sv":"Vinnytsja oblast","name:tr":"Vinnitsa Oblastı","name:uk":"Вінницька область","name:vi":"Vinnytsia (tỉnh)","name:war":"Vinnytsia Oblast","name:zh":"文尼察州","name:zh-min-nan":"Vinnycya séng","type":"boundary","wikipedia":"uk:Вінницька_область","flag":"http://upload.wikimedia.org/wikipedia/commons/0/03/Flag_of_Vinnytsia_Oblast.svg","name:he":"מחוז ויניצה","name:os":"Винницæйы облæст","name:gl":"Oblast de Vinnitsia"}},
{"type":"Polygon","arcs":[[-73,-62,77]],"id":"0700000000", "properties":{"@id":"relation/71064","admin_level":"4","boundary":"administrative","iso3166-2":"UA-07","id":"0700000000","name":"Волинська область","name:ar":"فولين أوبلاست","name:be":"Валынская вобласць","name:be-x-old":"Валынская вобласьць","name:bg":"Волинска област","name:ca":"Província de Volínia","name:crh":"Volın vilâyeti","name:cs":"Volyňská oblast","name:de":"Oblast Wolhynien","name:en":"Volyn Oblast","name:eo":"Volina provinco","name:es":"Óblast de Volinia","name:et":"Volõõnia oblast","name:eu":"Voliniako oblasta","name:fa":"استان ولین","name:fi":"Volynian alue","name:fr":"Oblast de Volhynie","name:hr":"Volinjska oblast","name:hu":"Volinyi terület","name:hy":"Վոլինի մարզ","name:id":"Oblast Volyn","name:it":"Oblast' di Volinia","name:ja":"ヴォルィーニ州","name:ka":"ვოლინის ოლქი","name:ko":"볼린 주","name:lt":"Voluinės sritis","name:lv":"Volīnijas apgabals","name:mk":"Волинска област","name:mr":"व्होलिन ओब्लास्त","name:ms":"Oblast Volyn","name:nl":"Oblast Wolynië","name:nn":"Volyn oblast","name:no":"Volyn oblast","name:pl":"Obwód wołyński","name:pnb":"ولین اوبلاست","name:pt":"Oblast de Volínia","name:ro":"Regiunea Volîn","name:ru":"Волынская область","name:rue":"Волиньска область","name:sco":"Volyn Oblast","name:sh":"Volinjska oblast","name:sk":"Volynská oblasť","name:sr":"Волињска област","name:sv":"Volyn oblast","name:szl":"Wołyński uobwůd","name:tr":"Volın Oblastı","name:uk":"Волинська область","name:vi":"Volyn (tỉnh)","name:war":"Volyn Oblast","name:xmf":"ვოლინიშ ოლქი","name:zh":"沃倫州","name:zh-min-nan":"Volyn séng","type":"boundary","wikipedia":"uk:Волинська_область","flag":"http://upload.wikimedia.org/wikipedia/commons/5/52/Volyn_flag.svg","name:cv":"Волынь облаçĕ","name:bs":"Volinjska oblast","name:yi":"וואהלינער גובערניע"}},
{"type":"Polygon","arcs":[[-60,-29,78]],"id":"2100000000", "properties":{"admin_level":"4","boundary":"administrative","iso3166-2":"UA-21","id":"2100000000","name":"Закарпатська область","name:ar":"زاكارباتيا أوبلاست","name:be":"Закарпацкая вобласць","name:be-x-old":"Закарпацкая вобласьць","name:bg":"Закарпатска област","name:ca":"Transcarpàcia","name:crh":"Zakarpattâ vilâyeti","name:cs":"Zakarpatská oblast","name:de":"Oblast Transkarpatien","name:en":"Zakarpattia Oblast","name:eo":"Transkarpata provinco","name:es":"Óblast de Zakarpatia","name:et":"Taga-Karpaatia","name:eu":"Transkarpatiako oblasta","name:fi":"Taka-Karpatian alue","name:fr":"Oblast de Transcarpatie","name:hr":"Zakarpatska oblast","name:hu":"Kárpátalja","name:hy":"Անդրկարպատյան մարզ","name:id":"Oblast Zakarpattia","name:it":"Oblast' di Transcarpazia","name:ja":"ザカルパッチャ州","name:ka":"ტრანსკარპატიის ოლქი","name:ko":"자카르파탸 주","name:lt":"Užkarpatės sritis","name:lv":"Aizkarpatu apgabals","name:mk":"Закарпатска област","name:mr":"झाकारपत्तिया ओब्लास्त","name:nl":"Oblast Transkarpatië","name:nn":"Zakarpattja oblast","name:no":"Zakarpattja oblast","name:pl":"Obwód zakarpacki","name:pnb":"زاکارپاتیا اوبلاست","name:pt":"Oblast da Transcarpátia","name:ro":"Regiunea Transcarpatia","name:ru":"Закарпатская область","name:rue":"Закарпатьска область","name:sco":"Zakarpattia Oblast","name:sk":"Zakarpatská oblasť","name:sr":"Закарпатска област","name:sv":"Zakarpatska oblast","name:szl":"Zakarpacki uobwůd","name:tr":"Zakarpatya Oblastı","name:uk":"Закарпатська область","name:war":"Zakarpattia Oblast","name:xmf":"ტრანსკარპატიაშ ოლქი","name:zh":"外喀爾巴阡州","name:zh-min-nan":"Zakarpattya séng","type":"boundary","wikipedia":"uk:Закарпатська_область","flag":"http://upload.wikimedia.org/wikipedia/commons/3/3c/Flag_of_Transcarpathian_Oblast.svg","name:he":"זקרפטיה","name:os":"Фæскарпаты облæст","name:bs":"Zakarpatska oblast","name:la":"Ruthenia Subcarpathanea","name:simple":"Zakarpattia Oblast","name:uz":"Zakarpatye viloyati"}},
{"type":"Polygon","arcs":[[-24,79,-36,80,-39,-18]],"id":"2300000000", "properties":{"@id":"relation/71980","admin_level":"4","boundary":"administrative","iso3166-2":"UA-23","id":"2300000000","name":"Запорізька область","name:ar":"زابوروجييه أوبلاست","name:be":"Запарожская вобласць","name:be-x-old":"Запароская вобласьць","name:bg":"Запорожка област","name:ca":"Província de Zaporíjjia","name:crh":"Zaporijjâ vilâyeti","name:cs":"Záporožská oblast","name:de":"Oblast Saporischschja","name:en":"Zaporizhia Oblast","name:eo":"Zaporiĵa provinco","name:es":"Óblast de Zaporiyia","name:et":"Zaporižžja oblast","name:eu":"Zaporizhiako oblasta","name:fi":"Zaporižžjan alue","name:fr":"Oblast de Zaporijia","name:ga":"Cúige Zaporizhia","name:hr":"Zaporiška oblast","name:hu":"Zaporizzsjai terület","name:hy":"Զապորոժիեի մարզ","name:id":"Oblast Zaporizhia","name:it":"Oblast' di Zaporižžja","name:ja":"ザポリージャ州","name:ka":"ზაპოროჟიეს ოლქი","name:ko":"자포리자 주","name:lt":"Zaporožės sritis","name:lv":"Zaporožjes apgabals","name:mk":"Запорошка област","name:mr":"झापोरिझिया ओब्लास्त","name:nl":"Oblast Zaporizja","name:nn":"Zaporizjzjia oblast","name:no":"Zaporizjzjia oblast","name:pl":"Obwód zaporoski","name:pnb":"زاپوریژینا اوبلاست","name:pt":"Oblast de Zaporíjia","name:ro":"Regiunea Zaporoje","name:ru":"Запорожская область","name:rue":"Запорізька область","name:sco":"Zaporizhia Oblast","name:sh":"Zaporiška oblast","name:sk":"Záporožská oblasť","name:sr":"Запорошка област","name:sv":"Zaporizjzja oblast","name:tr":"Zaporijya Oblastı","name:uk":"Запорізька область","name:vi":"Zaporizhia (tỉnh)","name:war":"Zaporizhia Oblast","name:zh":"扎波羅熱州","name:zh-min-nan":"Zaporizhzhya séng","type":"boundary","wikipedia":"uk:Запорізька_область","name:os":"Запорожьейы облæст","name:bs":"Zaporiška oblast"}},
{"type":"Polygon","arcs":[[-51,-77,-45,-71,81]],"id":"1800000000", "properties":{"admin_level":"4","boundary":"administrative","iso3166-2":"UA-18","id":"1800000000","name":"Житомирська область","name:ar":"زيتومير أوبلاست","name:be":"Жытомірская вобласць","name:be-x-old":"Жытомірская вобласьць","name:bg":"Житомирска област","name:ca":"Província de Jytómyr","name:crh":"Jıtomır vilâyeti","name:cs":"Žytomyrská oblast","name:de":"Oblast Schytomyr","name:en":"Zhytomyr Oblast","name:eo":"Ĵitomira provinco","name:es":"Óblast de Zhytomyr","name:et":"Žõtomõri oblast","name:eu":"Zhytomyrko oblasta","name:fa":"استان ژیتومیر","name:fi":"Žytomyrin alue","name:fr":"Oblast de Jytomyr","name:hr":"Žitomirska oblast","name:hy":"Ժիտոմիրի մարզ","name:id":"Oblast Zhytomyr","name:it":"Oblast' di Žytomyr","name:ja":"ジトームィル州","name:ka":"ჟიტომირის ოლქი","name:ko":"지토미르 주","name:lt":"Žytomyro sritis","name:lv":"Žitomiras apgabals","name:mk":"Житомирска област","name:mr":"झितोमिर ओब्लास्त","name:nl":"Oblast Zjytomyr","name:nn":"Zjytomyr oblast","name:no":"Zjytomyr oblast","name:pl":"Obwód żytomierski","name:pnb":"ژیتومیر اوبلاست","name:pt":"Oblast de Jitomir","name:ro":"Regiunea Jîtomîr","name:ru":"Житомирская область","name:rue":"Жытомирьска область","name:sco":"Zhytomyr Oblast","name:sh":"Žitomirska oblast","name:sk":"Žytomyrská oblasť","name:sr":"Житомирска област","name:sv":"Zjytomyr oblast","name:tr":"Jitomir Oblastı","name:uk":"Житомирська область","name:vi":"Zhytomyr (tỉnh)","name:war":"Zhytomyr Oblast","name:zh":"日托米爾州","name:zh-min-nan":"Zhytomyr séng","type":"boundary","wikipedia":"uk:Житомирська_область","flag":"http://upload.wikimedia.org/wikipedia/commons/6/69/Flag_of_Zhytomyr_Oblast.svg","name:cu":"Житомирьска область","name:cv":"Житомир облаçĕ","name:bs":"Žitomirska oblast","name:yi":"זשיטאמירער גובערניע"}}],"bbox":[22.1328277587891,44.3810424804688,40.1595153808594,52.3689270019531]}},
"arcs":[[[551769,733135],[542,76],[301,-118],[274,-432],[331,-814],[335,-1310],[740,-1460],[231,-343],[173,-421],[137,-516],[137,-909],[198,-634],[397,-638],[372,-267],[1136,-360],[609,-343],[198,-207],[112,-164],[989,-2063],[355,-310],[302,-34],[491,397],[447,489],[377,505],[310,313],[206,130],[224,0],[240,-168],[391,-466],[138,-440],[86,-641],[51,-1483],[-163,-626],[-227,-421],[-1884,-951],[-171,-225],[51,-818],[1161,-5658],[146,-504],[448,-512],[364,-306],[1290,-745],[310,-92],[308,8],[818,409],[284,19],[303,-168],[2494,-7232],[379,-875],[227,-283],[1316,-1154],[231,-412],[138,-596],[69,-1139],[-25,-772],[-70,-687],[-455,-2583],[-34,-504],[8,-707],[138,-2224],[-104,-653],[-164,-477],[-223,-230],[-224,-118],[-240,69],[-500,340],[-294,38],[-266,-126],[-225,-241],[-163,-355],[-103,-447],[146,-917],[345,-1268],[1972,-5170],[1048,-1891],[215,-256],[235,-179],[276,-80],[266,91],[500,367],[257,122],[284,0],[283,-149],[215,-244],[767,-1192],[403,-787],[227,-596],[137,-279],[172,-226],[215,-11],[241,107],[474,382],[266,57],[259,-126],[1816,-2090],[190,-481],[137,-691],[69,-1345],[0,-814],[-111,-3228],[76,-512],[139,-527],[394,-547],[318,-344],[6027,-3396],[249,-539],[181,-794],[163,-3615],[111,-630],[285,-890],[223,-504],[244,-398],[1454,-1501],[188,-394],[181,-477],[396,-2277],[34,-627],[-8,-791],[-129,-1406],[-164,-741],[-190,-504],[-179,-294],[-1204,-1047],[-215,-264],[-201,-298],[-173,-340],[-2192,-5425],[0,-596],[154,-779],[482,-1376],[542,-1214],[377,-589],[2162,-4210],[259,-718],[2316,-9047],[137,-959],[44,-2178],[-215,-5887]],[[591117,611017],[-628,-3526],[-140,-467],[-1231,-5226],[-42,-432],[34,-428],[370,-638],[645,-809],[183,-295],[173,-328],[145,-344],[121,-363],[413,-1543],[447,-2969],[86,-1379],[-25,-3351],[59,-852],[35,-309],[51,-256],[266,-1093],[86,-409],[947,-3954],[137,-336],[218,-256],[997,-336],[268,-199],[86,-370],[-8,-505],[-53,-504],[-198,-569],[-327,-581],[-2522,-3118],[-388,-618],[-282,-570],[-276,-382],[-395,-252],[-889,73],[-851,420],[-215,290],[-242,252],[-197,291],[-1430,1455],[-603,375],[-335,65],[-352,-142],[-371,-523],[-215,-493],[-154,-516],[-112,-473],[-304,-795],[-542,-967],[-1006,-1279],[-326,-199],[-414,-103],[-705,95],[-441,157],[-309,252],[-654,795],[-516,458],[-327,38],[-318,-141],[-361,-542],[-113,-493],[-76,-535],[16,-493],[-25,-470],[-35,-474],[-234,-397],[-362,-237],[-757,0],[-396,172],[-258,275],[-77,401],[-51,459],[-103,2326],[-207,1299],[-207,745],[-111,298],[-2137,4302],[-377,1078],[-95,401],[-17,458],[42,2988],[-17,466],[-94,409],[-232,172],[-327,-62],[-491,-580],[-733,-1070],[-293,-214],[-394,-118],[-654,19],[-895,233],[-630,325],[-251,256],[-154,324],[-69,436],[-26,451],[-86,420],[-179,298],[-500,504],[-172,287],[-43,416],[60,993],[-26,455],[-112,359],[-223,233],[-284,73],[-283,-195],[-811,-982],[-603,-305],[-696,-990],[-164,-420],[-42,-413],[42,-420],[87,-432],[59,-416],[-34,-386],[-181,-275],[-283,-111],[-818,279],[-621,370],[-327,69],[-345,-95],[-386,-531],[-232,-428],[-877,-2484],[-536,-1157],[-679,-1945],[-215,-370],[-198,-237],[-1981,-1853],[-379,-566],[-249,-504],[-232,-871],[-53,-435],[78,-360],[171,-298],[198,-286],[165,-317],[111,-386],[-8,-493],[-53,-512],[-67,-519],[-388,-2041],[-129,-473],[-284,-401],[-439,-283],[-946,-69],[-455,149],[-303,313],[-87,405],[-128,333],[-371,57],[-1564,-447],[-374,122],[-126,229],[-28,337],[-104,301],[-223,260],[-266,207],[-301,30],[-302,-172],[-980,-1505],[-301,-332],[-2488,-1234],[-757,-745],[-430,-596],[-312,-879],[-345,-631],[-688,-1012],[-326,-707],[-353,-485],[-456,-252],[-662,233],[-355,497],[-215,661],[-284,2112],[-129,642],[-164,676],[-197,550],[-241,478],[-258,432],[-1740,1746],[-4320,2349],[-439,138],[-1938,99],[-327,-191],[-395,-390],[-353,-1016],[-197,-825],[-345,-653],[-510,-317],[-3279,114],[-1703,902],[-456,88],[-498,-256],[-502,-848],[-215,-803],[-95,-875],[0,-1635],[146,-2334],[17,-2449],[-60,-768],[-223,-1429],[-250,-611],[-309,-550],[-1479,-1853],[-519,-959],[-181,-596],[-129,-672],[-77,-749],[-232,-1399],[-430,-1891],[-422,-630],[-722,-630],[-1731,-745],[-1170,-841],[-1241,-611],[-706,27],[-439,-153],[-524,-879],[-224,-199],[-283,214],[-181,348],[-370,1096],[-146,302],[-132,199],[-206,214],[-860,531],[-706,157],[-954,-130],[-313,34],[-1229,604],[-680,187],[-1946,-126],[-482,-233],[-2651,-2407],[-895,-428],[-2273,0],[-421,-119],[-370,20],[-327,80],[-250,214],[-628,802],[-1025,898],[-1660,745],[-1353,172],[-903,508],[-654,168],[-2772,-275],[-636,325],[-511,-27],[-1969,-741],[-662,-84],[-439,141],[-180,290],[-279,680],[-266,214],[-447,39],[-757,-130],[-421,118],[-345,176],[-257,237],[-296,156],[-370,58],[-799,-54],[-654,214],[-447,-7],[-576,-207],[-1878,-1604],[-1668,-2381],[-1276,-1398],[-473,-959],[-146,-611],[266,-753],[77,-401],[35,-401],[9,-401],[-26,-294],[-516,-3481],[-112,-485],[-413,-695],[-2092,-2766],[-542,-967],[-198,-672],[155,-298],[232,-256],[1161,-761],[241,-252],[164,-302],[77,-404],[16,-2472],[-51,-1005],[-154,-1024],[-362,-405],[-568,-355],[-4044,-696],[-301,81],[-207,244],[-166,290],[-109,371],[-304,688],[-206,290],[-258,199],[-1024,244],[-1292,-103],[-327,-214],[-318,-355],[-387,-848],[-172,-634],[-78,-600],[-77,-1039],[-60,-547],[-112,-500],[-121,-443],[-7195,-5662],[-293,-711],[-149,-260],[-266,-103],[-379,12],[-833,305],[-396,329],[-267,378],[-137,363],[-172,302],[-224,260],[-301,149],[-493,-127],[-576,-405],[-1565,-1875],[-1405,-2235],[-688,-386],[-1791,221]],[[440641,510026],[-835,1318],[-490,627],[-267,214],[-275,141],[-310,42],[-292,-61],[-570,-218],[-2675,-1726],[-422,-115],[-243,42],[-181,264],[-86,492],[35,814],[103,482],[137,328],[1001,1314],[181,314],[300,706],[173,661],[120,772],[103,317],[69,119],[232,-16],[112,35],[181,156],[352,531],[241,547],[95,302],[97,401],[57,512],[35,515],[-17,520],[-353,1715],[-800,2453],[-1015,1949],[-559,1383],[-475,1524],[-121,653],[-121,952],[-8,3610],[-52,478],[-155,416],[-369,340],[-2428,1494],[-1823,1902],[-396,573],[-326,658],[-104,534],[-63,669],[80,1223],[164,596],[232,389],[946,799],[215,252],[138,313],[8,428],[-232,424],[-258,287],[-301,206],[-344,348],[-361,473],[-465,1032],[-364,351],[-352,168],[-1488,-168],[-1964,386],[-292,176],[-276,1058],[-980,7767],[-252,1097],[-284,191],[-1324,550],[-224,252],[-172,325],[-155,466],[-155,584],[-163,998],[-17,622],[197,551],[225,317],[670,752],[130,451],[0,638],[-190,970],[-155,574],[-172,458],[-343,623],[-215,271],[-259,214],[-309,122],[-889,-7],[-267,126],[-198,252],[-395,592],[-215,260],[-1032,867],[-155,309],[-35,367],[190,432],[198,351],[197,512],[396,1785],[258,500],[293,283],[309,57],[232,283],[121,489],[-147,1410],[-51,240],[-26,96],[-206,573],[-172,313],[-224,252],[-283,176],[-336,99],[-1714,96],[-319,141],[-507,455],[-181,309],[-155,325],[-120,466],[-95,562],[-17,917],[104,790],[189,757],[636,1372],[250,351],[206,225],[1895,1655],[1041,653],[188,413],[95,607],[-77,1238],[-26,772],[52,661],[309,592],[278,332],[1033,783],[171,424],[86,577],[-189,1295],[-146,688],[-95,661],[9,512],[181,714],[386,833],[44,512],[-87,604],[-360,817],[-275,455],[-293,325],[-837,607],[-224,264],[-8,905],[1258,2201]],[[419622,606696],[2167,-959],[250,-351],[249,-432],[-109,-336],[-226,-207],[-259,-168],[-223,-279],[-129,-443],[69,-840],[240,-677],[396,-668],[1138,-1234],[912,-497],[3270,493],[1414,-92],[370,260],[172,390],[-121,1337],[9,458],[77,436],[146,367],[164,344],[800,1130],[370,635],[455,1062],[163,588],[276,1326],[141,416],[180,313],[662,547],[1195,1341],[560,221],[1843,61],[559,134],[370,268],[596,1371],[448,711],[343,214],[379,-46],[403,-168],[1655,-180],[318,-145],[533,-447],[266,-153],[491,-130],[232,214],[69,344],[-69,401],[-103,386],[-395,1039],[-104,306],[-43,229],[17,375],[224,458],[361,504],[792,673],[369,615],[588,1173],[301,114],[318,-57],[1196,-711],[206,-240],[26,-371],[-77,-401],[-620,-1467],[-258,-841],[-95,-454],[0,-459],[78,-386],[189,-298],[276,-210],[9726,-3056],[258,-164],[175,-199],[57,-336],[0,-447],[-23,-520],[86,-516],[206,-500],[559,-451],[482,-7],[293,259],[145,447],[1050,6831],[321,1383],[86,474],[23,489],[-17,974],[52,1020],[149,1017],[180,512],[266,492],[542,570],[405,187],[395,0],[318,-145],[284,-187],[250,-234],[432,-550],[181,-294],[284,-707],[137,-420],[181,-355],[267,-356],[223,-26],[155,30],[1826,978],[283,241],[620,852],[284,38],[258,-114],[1551,-1307],[266,42],[207,237],[318,741],[722,2143],[233,459],[223,72],[207,-145],[447,-588],[398,-206],[679,-130],[809,382],[499,95],[352,-69],[224,-244],[181,-310],[1094,-2865],[190,-359],[292,-325],[284,-34],[258,99],[1014,894],[1819,803],[205,233],[611,1073],[293,394],[507,466],[347,-69],[860,-588],[576,49],[327,252],[568,894],[536,489],[369,35],[259,-206],[137,-352],[121,-378],[232,-409],[335,-313],[757,-191],[404,527],[215,527],[17,550],[-40,1441],[23,500],[69,508],[103,443],[1327,3557],[232,478],[310,531],[992,1138],[275,409],[507,1039],[568,967],[1367,1895],[327,703],[327,481],[2368,2403],[180,329],[155,332],[232,650],[915,3320],[327,626],[507,719],[1723,1765],[319,481],[60,287],[51,447],[60,1512],[-17,482],[-34,462],[-69,417],[-163,343],[-250,233],[-647,245],[-267,202],[-173,302],[-94,405],[-34,466],[43,1464],[137,492],[224,455],[679,905],[184,432],[679,2797],[568,1635],[103,458],[52,497],[-26,462],[-86,398],[-224,760],[-34,413],[51,447],[120,427],[775,1895],[120,447],[490,4486],[9,477],[-95,401],[-172,317],[-215,264],[-197,302],[-138,332],[-17,455],[43,432],[77,416],[52,237],[645,1864],[86,440],[28,431],[-149,337],[-206,267],[-473,493],[-189,294],[-104,352],[52,401],[129,382],[551,928],[180,344],[525,1582],[415,832],[319,398],[326,244],[1956,329],[4277,4386],[550,267],[628,122],[2041,-15],[610,145],[975,524],[421,130],[276,-39],[309,-110],[206,-214],[147,-314],[77,-412],[43,-451],[69,-436],[94,-401],[121,-355],[146,-344],[198,-290],[224,-271],[189,-306],[112,-382],[60,-424],[60,-940],[77,-413],[130,-340],[407,-668],[292,-634],[180,-318],[285,-210],[154,39],[138,217],[94,424],[147,1101],[145,615],[285,680],[283,233],[284,-57],[223,-237],[215,-283],[296,-260],[404,-149],[722,50],[405,195],[309,267],[163,344],[138,420],[104,493],[137,1051],[69,829],[69,424],[180,561],[258,214],[304,39],[258,-188],[180,-309],[87,-401],[35,-463],[-70,-2540],[43,-439],[138,-356],[249,-248],[5232,-1437],[329,104],[181,129],[267,650],[542,1711],[602,1452],[980,1460],[167,351],[91,440],[35,469],[-70,1349],[64,420],[128,371],[1412,2712],[541,1689],[241,909],[138,1055],[25,1020],[-17,959],[-86,898],[-60,408],[-52,421],[43,389],[189,535],[241,298],[278,207],[2141,966],[465,355],[312,405],[75,447],[29,470],[-149,829],[-379,1582],[-120,863],[-95,914],[-26,985],[-34,463],[-69,416],[-412,1566],[-61,421],[215,626],[473,730],[1732,1918],[378,535],[267,859],[283,1154],[241,722],[232,80],[551,-321],[398,-99],[671,141],[370,233],[309,264],[1187,1780],[345,680],[303,784],[112,439],[34,470],[-17,462],[-77,417],[-129,366],[-319,658],[-192,305],[-292,615],[-95,279],[-60,245],[-43,366],[-17,447],[35,505],[68,500],[189,646],[276,672],[596,1070],[284,424],[274,298],[516,252],[310,65],[697,-111],[336,-160],[553,-420],[489,-497],[715,-409]],[[625059,996920],[-190,-589],[-425,-2116],[-154,-2010],[-147,-791],[-713,-1455],[-276,-860],[-112,-959],[-137,-2323],[-129,-917],[-565,-1253],[-1451,-2086],[-291,-1482],[315,-5945],[132,-1176],[249,-222],[2419,-1150],[259,-252],[1266,-1750],[1006,-2002],[628,-878],[164,-333],[129,-374],[95,-394],[137,-363],[198,-290],[303,-180],[1711,-156],[242,-168],[95,-363],[34,-447],[-69,-677],[-146,-806],[-371,-1299],[-308,-569],[-328,-328],[-1187,-463],[-1300,-214],[-714,92],[-310,122],[-215,272],[-120,355],[-104,401],[-132,332],[-171,233],[-250,0],[-249,-152],[-207,-466],[-120,-772],[26,-4096],[-51,-558],[-112,-588],[-293,-768],[-257,-424],[-251,-328],[-162,-272],[-44,-324],[381,-295],[833,-2116],[133,-1314],[-599,-1475],[-3106,-1479],[-1299,-233],[-814,-535],[-1972,-2349],[-640,-535],[-2489,260],[-1083,-447],[387,-1521],[0,-932],[-1396,-508],[-637,-1796],[-530,-1925],[-1071,-902],[-735,-993],[-926,-2407],[-564,-2950],[332,-2620],[303,-933],[643,-2918],[361,-956],[393,-802],[3025,-4267],[-29,-1395],[-875,-1688],[-112,-1334],[156,-1119],[274,-462],[318,-279],[285,-130],[162,-382],[87,-531],[240,-5028],[190,-569],[269,-386],[259,-260],[215,-287],[137,-355],[17,-367],[-78,-343],[-335,-272],[-940,-397],[-223,-439],[-139,-730],[86,-1631],[164,-803],[215,-561],[1104,-1403],[198,-313],[137,-367],[87,-351],[-156,-485],[-799,-1506],[-53,-57],[-154,-126],[-189,54],[-381,198],[-1634,1223],[-198,0],[-52,-283],[508,-2533],[42,-485],[-42,-527],[-266,-684],[-268,-382],[-274,-260],[-259,-195],[-157,-561],[-34,-921],[260,-1972],[266,-855],[276,-608],[405,-523],[51,-329],[-34,-271],[-198,-466],[-198,-371],[-138,-504],[-60,-653],[128,-1001],[53,-734],[8,-668],[-198,-784],[-232,-431],[-240,-317],[-528,-329],[-1187,-348],[-704,8],[-346,141],[-291,191],[-235,260],[-181,317],[-138,333],[-379,1551],[-95,302],[-93,183],[-189,244],[-293,165],[-327,84],[-310,-65],[-198,-287],[-188,-366],[-379,-1238],[-69,-329],[18,-302],[77,-408],[250,-826],[506,-1356],[215,-902],[173,-504],[257,-263],[302,-54],[636,27],[268,-122],[199,-272],[137,-347],[53,-528],[-25,-615],[-210,-1054],[-109,-718],[-28,-677],[240,-695],[244,-424],[695,-906],[139,-336],[26,-416],[-165,-501],[-179,-412],[-139,-505],[-42,-599],[301,-1544],[68,-527],[-34,-439],[-223,-478],[-258,-317],[-1569,-1135],[-146,-493],[-69,-741],[95,-1471],[-17,-752],[-171,-975],[-234,-382],[-257,-320],[-2849,-1296],[-232,-477],[-95,-772],[25,-1692],[258,-1040],[155,-756],[51,-562],[-162,-806],[-148,-519],[-1300,-3194],[-86,-413],[-17,-386],[278,-317],[2133,-924],[2118,-1429],[326,-115],[344,-46],[1136,451],[269,-38],[215,-222],[146,-324],[52,-447],[-69,-474],[-300,-562],[-785,-810],[-112,-336],[42,-435],[261,-440],[247,-328],[543,-512],[1162,-818],[2901,-944],[319,85],[232,229],[189,355],[1121,3446],[198,294],[291,23],[681,-275],[609,-397],[224,-325],[61,-497],[-447,-1505],[-835,-2223],[-377,-600],[-215,-264],[-872,-1429],[-104,-363],[-35,-458],[10,-527],[163,-550],[206,-379],[1129,-1394],[165,-428],[86,-695],[-173,-1311],[-34,-2808],[34,-451],[26,-989],[-87,-722],[-171,-921],[-474,-1066],[-369,-374],[-338,-210],[-198,-249],[-207,-416],[-179,-589],[-1282,-7194],[-103,-1291],[-26,-2338],[51,-1276],[120,-959],[190,-520],[525,-947],[704,-760],[396,-279],[335,-417],[173,-554],[0,-771],[-144,-829],[-484,-944],[-430,-550],[-405,-413],[-318,-584],[-240,-799],[-112,-1352],[-34,-1941],[-69,-512],[-146,-520],[-371,-550],[-601,-561],[-201,-337],[-86,-477],[52,-799],[171,-1046],[64,-428],[0,-550],[-103,-1552],[-511,-2918],[-1883,-7951]],[[606250,770835],[-2092,-5860],[-809,-1452],[-1361,-806],[-673,-642],[-326,-497],[-258,-596],[-379,-1513],[-240,-424],[-266,-290],[-975,-443],[-1256,-1112],[-369,-546],[-249,-535],[-327,-1379],[-301,-1066],[-280,-486],[-274,-324],[-567,-260],[-1935,-233],[-897,-355],[-4708,-3779],[-2015,57],[-293,176],[-111,336],[-112,401],[-301,241],[-534,38],[-2143,-649],[-5639,370],[-1281,570],[-156,183],[-112,214],[-240,669],[-183,836],[-70,421],[-91,427],[-71,421],[-190,779],[-155,329],[-188,252],[-293,141],[-422,96],[-773,0],[-414,-172],[-1653,-1761],[-327,-96],[-241,160],[-379,604],[-154,329],[-371,615],[-198,237],[-381,164],[-1427,-130],[-3435,-2342],[-232,-244],[-198,-268],[-360,-661],[-1096,-2678],[-611,-955],[-653,-692],[-439,-252],[-386,-23],[-279,180],[-430,535],[-257,214],[-3332,-46]],[[555082,747263],[-3347,2976],[-337,516],[-335,687],[129,348],[172,325],[405,573],[224,241],[198,328],[137,378],[0,593],[-163,332],[-250,244],[-662,111],[-628,-118],[-413,15],[-490,134],[-855,596],[-386,439],[-267,382],[-120,313],[-112,348],[-52,428],[-17,451],[17,558],[-17,619],[-129,821],[-171,443],[-190,298],[-1318,1620],[-207,680],[-34,569],[112,493],[318,776],[613,1199],[69,104],[104,114],[163,115],[172,26],[1160,-290],[86,-8],[35,16],[232,233],[146,290],[112,428],[61,466],[67,1704],[-145,1769],[-232,726],[-327,393],[-2350,-30],[-680,122],[-327,141],[-447,558],[-542,906],[-1955,3885],[-713,745],[-1603,2216],[-602,611],[-491,325],[-1246,-241],[-1130,-523],[-241,-187],[-197,-268],[-112,-367],[-43,-458],[-8,-474],[-35,-443],[-103,-390],[-336,-607],[-94,-363],[-17,-443],[43,-420],[25,-402],[-60,-359],[-163,-240],[-490,-356],[-233,-233],[-172,-351],[-149,-420],[-335,-719],[-180,-321],[-215,-271],[-276,-149],[-318,-61],[-2213,302],[-335,-35],[-293,-103],[-258,-183],[-215,-252],[-396,-600],[-361,-672],[-206,-279],[-266,-168],[-631,-127],[-285,-122],[-223,-229],[-207,-309],[-533,-1021],[-205,-282],[-267,-161],[-318,-46],[-734,77],[-310,-54],[-258,-172],[-430,-538],[-241,-207],[-275,-129],[-327,0],[-3374,1107],[-215,-7],[-267,-73],[-240,-172],[-227,-271],[-550,-970],[-585,-726],[-4354,1562],[-1130,176],[-731,-42],[-283,-294],[-362,-206],[-610,-169],[-379,176],[-309,226],[-528,561],[-456,195],[-610,54],[-362,133],[-301,199],[-206,283],[-181,305],[-163,333],[-129,355],[-86,416],[8,512],[78,1158],[-51,596],[-201,672],[-301,253],[-404,64],[-1093,-38],[-352,195],[-284,256],[-1603,2342],[-172,325],[-146,347],[-42,447],[33,512],[173,1009],[154,336],[207,134],[568,-23],[269,103],[215,237],[172,355],[146,401],[250,898],[94,497],[43,508],[0,474],[-155,1333],[-292,1681],[-190,757],[-240,748],[-330,669],[-782,1192],[-1273,1524],[-86,188],[-86,332],[35,1047],[-70,642],[-223,305],[-310,119],[-897,53],[-748,226],[-336,324],[-172,409],[27,447],[77,470],[111,466],[44,451],[-61,474],[-438,619],[-241,531],[-207,557],[-172,700],[-287,336],[-318,179],[-327,-3],[-257,-165],[-241,-210],[-654,-764],[-258,-183],[-585,-214],[-662,-77],[-3004,428],[-682,-49],[-533,-321],[-835,-1101],[-438,-126],[-648,65],[-2631,1039],[-287,-110],[-224,-253],[-447,-1184],[-215,-359],[-293,-275],[-498,-107],[-327,141],[-250,245],[-370,821],[-300,535],[-631,772],[-473,317],[-413,137],[-1600,-645],[-622,11],[-309,214],[-181,355],[18,455],[85,428],[130,424],[768,1941],[533,1723],[344,1410],[181,1027],[292,2625],[9,401],[-233,485],[-481,700],[-1809,2001],[-499,425],[-3004,1612],[-559,431],[-353,409],[-120,378],[-69,425],[-34,473],[0,508],[25,524],[61,531],[344,2097],[240,2224],[44,1035],[-26,485],[-35,463],[-138,867],[-85,413],[-121,393],[-137,371],[-284,531],[-1353,1834],[-559,427],[-430,153],[-353,-88],[-473,65],[-691,294],[-653,768],[-370,325],[-292,176],[-267,-61],[-241,-172],[-197,-302],[-276,-325],[-318,-248],[-605,-27],[-266,264],[-172,370],[-69,440],[-233,3767],[172,7671],[87,1089],[998,6934],[33,1020],[-57,944],[-137,867],[-639,2491],[-87,711],[60,554],[207,256],[287,118],[1075,-137],[300,91],[233,218],[146,325],[43,428],[-141,924]],[[467185,858981],[38,119],[72,2987],[151,252],[992,2465],[149,1834],[1695,1738],[1545,2292],[-327,3534],[728,420],[-57,654],[-390,741],[-281,672],[-544,3523],[-248,829],[-673,733],[-579,46],[-427,302],[-215,1486],[112,1582],[418,882],[625,291],[739,-199],[0,940],[-585,336],[-573,558],[-464,943],[-272,1502],[318,1020],[-241,928],[-573,837],[-676,714],[475,581],[275,589],[422,1394],[-920,627],[-1846,752],[-643,1185],[0,775],[287,298],[186,252],[232,214],[436,172],[0,776],[-475,405],[-1079,1306],[0,929],[1594,2059],[709,435],[-209,1219],[-161,482],[298,320],[453,948],[378,523],[-333,1727],[649,2644],[-316,1689],[694,298],[1720,80],[619,397],[310,1188],[80,1551],[169,1468],[616,924],[0,932],[-446,73],[-1108,779],[683,1085],[1238,1143],[986,1428],[-52,1945],[-406,1192],[-18,478],[242,374],[355,902],[1210,2212],[155,431],[303,382],[264,826],[355,825],[1141,848],[149,1066],[35,1169],[212,791],[447,214],[1652,-214],[481,340],[493,764],[751,1459],[0,852],[-298,520],[-149,776],[29,450],[1571,849],[790,680],[688,787],[614,924],[568,1081],[17,405],[-35,642],[104,772],[436,772],[452,500],[327,206],[310,-206],[378,-718],[1445,149],[493,1627],[-533,1666],[-1622,310],[186,626],[123,600],[161,615],[275,627],[-327,2116],[866,1318],[1381,623],[7600,615],[2135,-367],[1354,-1073],[2534,-3026],[1336,-715],[1301,787],[911,2094],[854,2506],[1119,2033],[4363,2502],[5092,38],[9712,-2620],[6346,466],[3412,435],[1823,-523],[1295,-1685],[301,-2052],[15,-2311],[238,-1926],[1017,-890],[935,252],[2958,2071],[2019,271],[3338,-1230],[1024,96],[7640,5024],[2462,2727],[1612,4826],[670,7538],[521,2223],[534,791],[682,550],[619,757],[315,1413],[-206,1066],[-1043,2606],[-276,1341],[780,4298],[2259,653],[4787,-2460],[2655,1134],[10928,-8027],[1674,39],[3286,1203],[1627,42],[934,-646],[1652,-1860],[1009,-153],[992,726],[5728,7098],[1005,688],[503,-57],[728,-558],[510,176],[429,649],[649,1750],[545,447],[1060,550],[714,959],[1431,2464],[900,906],[757,206],[5426,-1459],[3585,34],[955,-290],[1355,-1364]],[[235634,517790],[1301,2131],[1021,-550],[2672,1043],[1026,-959],[1454,-1944],[387,-997],[980,-3508],[717,-1642],[750,-1055],[932,-558],[1253,-164],[894,837],[-825,4263],[481,1815],[645,191],[404,-626],[264,-852],[236,-501],[581,-153],[1864,153],[1183,543],[-211,1264],[-930,1429],[-971,1039],[-2090,845],[-1043,844],[-103,1341],[1123,1444],[1224,-455],[2024,-2307],[822,-527],[866,-123],[683,753],[281,2067],[-238,772],[-1041,1738],[-238,951],[299,1181],[650,42],[648,-776],[298,-1299],[206,-2120],[540,-1379],[739,49],[822,2167],[95,1272],[-343,1879],[248,1043],[554,768],[581,149],[595,-309],[579,-608],[-364,-2575],[294,-2491],[749,-1883],[989,-741],[1425,401],[782,1031],[591,1414],[834,1505],[1138,783],[1209,-84],[2028,-699],[756,-1322],[341,-462],[235,218],[233,458],[326,253],[674,-119],[1118,-584],[2405,-421],[522,187],[370,570],[659,1715],[312,363],[1912,0],[594,-279],[1221,-1199],[682,-233],[614,68],[559,199],[444,504],[275,940],[69,1727],[-352,512],[-551,137],[-524,573],[-93,1624],[1133,336],[2213,-641],[542,-646],[453,-757],[510,-500],[731,118],[562,730],[757,2105],[645,661]],[[290545,531887],[2181,-1123],[1580,-2281],[1121,-3156],[800,-3774],[1195,-8130],[511,-1192],[17,-42]],[[297950,512189],[-4,0],[-1272,-2625],[-3366,-4287],[-928,-710],[-757,439],[-1577,2231],[-1066,413],[-2007,-1559],[-3000,-5677],[-302,-573],[-2105,-1643],[-1817,149],[-5934,3389],[-1152,1100],[-591,252],[-613,-321],[-52,-905],[155,-1062],[-23,-829],[40,-497],[184,-695],[68,-631],[-298,-309],[-671,206],[-608,-80],[-378,352],[-401,103],[-528,-841],[-2098,-550],[-1915,1750],[-1818,2346],[-1840,1222],[-602,-298],[-195,-779],[-154,-925],[-482,-756],[-382,19],[-914,550],[-306,-38],[-585,-1227],[37,-1123],[327,-1505],[292,-2407],[40,-2365],[-241,-1620],[-630,-867],[-1098,-130],[-1035,711],[-682,1348],[-591,1540],[-751,1280],[-1089,634],[-322,-1062],[-271,-1612],[-1832,-1746],[-608,-1502],[-361,-1963],[-41,-1032],[-1691,-1203],[-6994,-2373],[-924,-332],[-2620,-191],[-940,-375],[-1840,-1394],[-947,-447],[-1025,153],[-459,290],[-407,-4138],[74,-2838],[-585,-3958],[-900,-3893],[-854,-2663],[-671,-1181],[-1451,-1864],[-682,-1333],[-1226,-4268],[-534,-1268],[-2625,-1846],[-1287,-19],[-4063,-57],[-3526,-1616],[-2643,409],[-934,-275],[-1680,-1120],[-2918,-554],[-3653,-2254],[-27224,-4508],[-2374,-2518],[-5383,-13539],[-2311,-3404],[-11,-4],[-6,-19],[-3469,-2296],[-4163,-1131],[-750,-203]],[[155104,417242],[0,50],[-20,1517],[17,622],[207,2831],[85,401],[2600,8906],[207,1005],[8,496],[-8,505],[-52,485],[-60,451],[-95,412],[-441,1544],[-146,863],[-52,470],[0,2652],[-51,470],[-69,447],[-112,378],[-129,351],[-834,1586],[-146,347],[-121,367],[-456,2071],[-103,917],[-69,2040],[-232,2330],[9,505],[25,412],[155,1131],[198,932],[2506,7164],[275,1027],[189,2174],[61,493],[240,615],[395,657],[930,1032],[567,371],[1043,435],[241,191],[206,256],[2876,5116],[593,703],[482,351],[335,46],[293,130],[189,305],[51,589],[-77,447],[-223,806],[-95,409],[-52,454],[-43,489],[18,1063],[34,538],[68,497],[95,451],[250,546],[381,592],[808,955],[800,661],[620,352],[455,558],[5355,10433],[4272,5009],[2055,1417],[2256,1066],[2522,459],[1127,-103],[645,-245],[1130,-669],[542,-496],[490,-329],[309,-84],[319,4],[292,202],[266,363],[267,745],[215,1017],[364,3213],[301,11140],[-78,1353],[-1482,6055],[-575,3545],[-130,1487],[26,542],[94,661],[293,997],[258,596],[516,929],[674,951],[2090,2479]],[[194343,537946],[699,-832],[1242,-528],[2433,-347],[442,-680],[453,-2988],[619,-684],[611,359],[229,890],[140,1143],[365,1104],[1495,1555],[852,-1127],[671,-1998],[974,-1066],[1168,-2235],[209,-764],[-44,-1139],[23,-340],[2698,-1585],[900,-161],[900,237],[894,959],[754,2495],[657,898],[1370,-1005],[525,69],[275,668],[233,2044],[248,711],[872,535],[525,-722],[206,-1697],[-86,-2391],[0,852],[-508,-4130],[55,-1422],[642,-1753],[866,-1303],[1072,-818],[1007,149],[687,1586],[-874,1979],[-447,1307],[-195,1417],[0,1803],[143,566],[1563,-233],[705,-1613],[-69,-3553],[275,-3557],[1740,-1612],[3220,932],[988,-87],[683,-409],[1393,-1288],[1800,-1043],[1577,-179],[1416,875]],[[712539,172988],[3710,-11619],[15962,-37410],[8240,-9192],[2058,-290],[9828,4370],[1164,1273],[1517,2567],[227,1211],[63,1123],[243,841],[804,321],[293,412],[872,1899],[185,608],[176,2284],[501,2331],[731,1864],[894,856],[1354,-183],[131,-1238],[-434,-1926],[-292,-2242],[392,-1532],[948,-1238],[4190,-4004],[2184,-1177],[2015,673],[1633,3392],[750,3790],[198,566],[1526,1497],[1197,1895],[1083,619],[6379,-69],[853,718],[899,1177],[884,-412],[411,-1555],[-474,-2243],[713,61],[520,611],[482,734],[596,378],[1061,-347],[1761,-1857],[1133,-428],[3260,1196],[1111,-348],[1403,-2911],[948,-1356],[867,424],[1002,1612],[921,275],[862,-772],[817,-1543],[976,-4275],[401,-2938],[-415,-1341],[-1806,-784],[-672,-61],[-629,283],[-1647,1417],[-1295,318],[-1075,-382],[-731,-1322],[-271,-2495],[198,-886],[357,-509],[158,-565],[-369,-1070],[-471,-424],[-1263,-134],[-498,-298],[-726,-1665],[-623,-2568],[-447,-2705],[-474,-7362],[-32,-2708],[330,-2644],[1522,-2736],[726,-1864],[-108,-1895],[-736,-1131],[-4009,-2338],[-4957,-367],[-596,-271],[-550,-592],[-217,-722],[-316,-2140],[-217,-641],[-1092,-432],[-4916,1742],[-3156,3121],[0,-928],[-1733,1230],[-1246,-1987],[-940,-2899],[-835,-1471],[-4247,428],[-3819,-1127],[-1121,852],[-487,2796],[-334,1261],[-1652,3240],[-669,1016],[-3592,3637],[-4014,2506],[-2411,646],[-2397,-19],[-2284,-776],[-2031,-1562],[-2931,-3775],[-482,-1051],[-141,-1440],[-284,-1016],[-171,-978],[184,-1303],[325,-569],[1604,-1142],[0,-768],[-737,-551],[-1815,188],[-853,-493],[-658,-1433],[-87,-1624],[366,-3786],[-2654,3343],[-226,-500],[-574,-642],[-374,-569],[-1386,1329],[-953,-1039],[-1268,-4134],[-1002,-1413],[-2398,-902],[-975,-760],[-1363,-4069],[-1183,-5467],[-1530,-3901],[-2397,627],[-588,1329],[-509,1727],[-673,1502],[-1093,638],[-1859,156],[-579,-156],[-658,-520],[-420,-657],[-366,-695],[-452,-604],[-997,-302],[-1815,703],[-807,-875],[-894,-611],[-3857,1085],[-1999,-1192],[-3901,-4218],[-2085,-1513],[-4429,-1539],[-1842,-1288],[-1373,-2380],[-49,348],[0,313],[-59,176],[-239,-62],[-2199,-5027],[-298,-871],[-536,-1116],[-1891,-5314],[-2167,-9120],[-547,-1627],[-474,-245],[-1246,260],[-786,-27],[-596,123],[-243,-111],[-271,-443],[-19,-375],[19,-390],[-144,-496],[-1143,-3057],[-726,-947],[-2627,-886],[-688,-1399],[-514,-1902],[-740,-2071],[-610,-993],[-1882,-2109],[-767,-390],[-1273,-298],[-5986,-4584],[-1116,-245],[-1268,340],[-3486,2220],[-690,-38],[-1165,-654],[-609,-164],[-3684,153],[-1124,470],[-4194,3190],[-758,1150],[-308,2342],[-334,1153],[-1671,3485],[-645,875],[-997,-96],[-1183,-588],[-1192,-130],[-1002,1284],[-686,1192],[-5964,6785],[-406,1497],[-54,1437],[-14,61],[217,-382],[1688,604],[465,389],[1224,1498],[505,202],[1192,-141],[606,107],[450,462],[804,447],[2836,92],[1132,741],[-763,474],[-1810,565],[-493,677],[-81,1860],[488,1544],[668,1344],[474,1315],[231,2002],[-90,1360],[-552,2536],[-352,3443],[-293,1891],[-493,1589],[439,573],[194,440],[158,699],[379,2529],[483,2242],[750,1609],[2148,1200],[606,1551],[379,2177],[212,2445],[-14,2858],[-614,4898],[-163,2109],[-157,745],[-975,3137],[-190,1130],[-190,3221],[-880,5100],[-1390,2935],[-3792,3935],[-3088,4470],[-939,657],[-2294,-505],[-2081,-1283],[-1945,-1872],[-1273,-558],[-569,1192],[-514,1757],[-1197,978],[-2492,1146],[-845,1273],[-1945,3893],[-1377,1283],[-470,1070],[-632,1880],[-514,611],[-975,634],[-474,466],[-3698,5047],[-1996,2109],[-2292,1467],[-8271,1143],[-1201,-287],[-875,-989],[-1960,-3401],[-794,-733],[-3974,0],[-1181,630],[-1928,1609],[-1252,317],[-1498,6804],[-235,1750],[750,3335],[1666,2831],[6568,7954],[1084,489],[1281,176],[1035,512],[866,783],[791,1009],[504,936],[331,848],[446,626],[840,237],[561,-145],[1073,-642],[641,-149],[772,417],[104,978],[-185,1154],[-86,947],[118,1070],[207,687],[389,887],[1688,2751],[3806,4057],[12573,9238],[704,856],[271,1513],[-254,466],[-537,458],[-419,741],[81,1288],[474,703],[520,-520],[902,-1895],[1959,-1776],[1955,359],[4036,3985],[2004,1363],[298,818],[1685,2949],[829,543],[2330,2395],[844,551],[407,-264],[1007,-1177],[677,-260],[569,123],[1336,649],[1340,2640],[1125,1158],[641,420],[537,134],[582,-226],[623,-496],[496,-673],[195,-779],[271,-642],[623,-99],[1191,275],[82,1478],[-114,2965],[136,2288],[839,-596],[921,795],[1896,772],[976,924],[-1020,1406],[-1056,871],[-3169,1330],[-1400,-191],[-632,-420],[-379,-780],[-389,-366],[-672,794],[1029,2189],[466,1437],[-182,653],[-641,417],[-49,1035],[298,1238],[392,1069],[-72,902],[-705,4310],[-89,1406],[604,1314],[533,1467],[-271,1834],[-1284,3960]],[[637253,219741],[914,596],[-1267,10653],[1829,505],[952,-951],[1276,-2141],[743,-328],[2152,-2201],[933,714],[2381,1666],[2209,-417],[609,-267],[1181,-1131],[2305,-3661],[4190,-3305],[723,-1132],[2914,-2056],[1048,1073],[419,0],[514,-298],[1962,-1162],[1085,-2265],[572,-805],[1180,-1103],[381,-656],[3657,-1760],[4533,984],[914,-656],[3428,-6236],[114,-1165],[124,-895],[591,-1374],[1009,-1987],[1486,-2017],[1485,-523],[781,568],[743,1076],[1342,2972],[315,1075],[219,493],[361,299],[696,224],[657,-30],[885,-179],[1667,-1180],[1095,-1045],[1152,-1374],[819,-1345],[2038,-3288],[1590,-2451],[2657,-1017],[-181,-11286],[3638,-2052],[3037,-2443],[1429,-1334],[809,-930],[991,795]],[[712892,598738],[1913,-501],[731,268],[240,202],[302,0],[352,-195],[516,-622],[403,-321],[571,-80],[1264,378],[327,-15],[1397,-363],[1075,-39],[274,-126],[946,-649],[1612,-1708],[430,-642],[266,-550],[139,-833],[94,-393],[188,-352],[3616,-4313],[352,-730],[192,-611],[223,-459],[1514,-1547],[276,-401],[975,-1971],[748,-1166],[3279,-2731],[869,-1131],[1125,-1822],[337,-214],[432,-142],[723,58],[1136,320],[274,12],[2832,-661],[293,76],[249,172],[223,230],[314,49],[377,-134],[946,-1157],[259,-417],[266,-271],[369,-164],[1656,92],[369,-153],[396,-306],[515,-665],[396,-309],[525,19],[305,210],[497,485],[439,-11],[2316,-1016],[1119,-761],[592,-611],[594,-38],[347,118],[275,245],[215,244],[507,333],[302,57],[533,256],[240,195],[869,978],[950,821],[2642,1364],[679,669],[500,-229],[712,-734],[1509,-2090],[499,-1035],[232,-864],[-42,-496],[-19,-489],[78,-405],[371,-871],[997,-1677],[154,-310],[78,-348],[-78,-382],[-120,-401],[-645,-1551],[-181,-340],[-205,-283],[-1421,-1173],[-411,-542],[-193,-310],[-129,-355],[51,-325],[276,-225],[1852,160],[274,-122],[380,-317],[956,-1238],[440,-405],[1470,-680],[465,-401],[180,-672],[-17,-524],[232,-630],[511,-596],[1204,-1039],[516,-589],[327,-519],[318,-1127],[318,-470],[1490,-1578],[310,-665],[78,-527],[-129,-329],[-122,-244],[-291,-485],[-1119,-1116],[-188,-336],[-139,-424],[-123,-455],[-43,-473],[53,-402],[274,-393],[2092,-2178],[1328,-2120],[3968,-4906],[687,-1264],[129,-352],[69,-370],[-61,-432],[-111,-432],[-757,-2028],[-120,-428],[-68,-443],[42,-409],[146,-325],[887,-1081],[982,-1483],[144,-309],[62,-298],[-96,-329],[-144,-336],[-1481,-2590],[-139,-359],[-68,-367],[76,-332],[561,-902],[248,-153],[293,23],[459,566],[506,840],[207,264],[250,122],[336,-191],[265,-237],[422,-600],[223,-240],[396,-12],[490,317],[924,978],[180,524],[-43,408],[-464,512],[-189,291],[-53,370],[78,394],[913,2372],[4027,7221],[889,955],[343,126],[456,-4],[885,-496],[2463,-2052],[869,-1089],[284,-512],[352,-817],[182,-317],[402,-245],[640,-141],[2005,225],[550,336],[442,795],[1014,1074],[3228,622]],[[809499,531413],[180,-1184],[35,-405],[60,-508],[94,-390],[129,-328],[215,-233],[276,-58],[1955,562],[266,-38],[215,-199],[156,-313],[34,-394],[-43,-378],[-259,-351],[-480,-512],[-190,-310],[-586,-1734],[-266,-314],[-248,-244],[-219,-428],[-120,-722],[-25,-2380],[33,-669],[70,-367],[145,-210],[236,-19],[1745,294],[249,157],[207,267],[155,413],[120,504],[397,2751],[130,623],[251,814],[282,336],[293,191],[2426,328],[604,-152],[224,-237],[137,-329],[103,-382],[70,-409],[103,-1329],[86,-2740],[-61,-485],[-128,-477],[-380,-497],[-592,-481],[-760,-451],[-181,-279],[-85,-420],[129,-1196],[78,-417],[59,-263],[52,-317],[9,-375],[-112,-401],[-284,-359],[-534,-451],[-198,-347],[-154,-486],[-25,-3862],[162,-466],[456,-615],[61,-359],[-249,-554],[-251,-344],[-1281,-887],[-207,-321],[-137,-504],[17,-993],[53,-638],[248,-1716],[241,-3625],[-34,-623],[-335,-2720],[-29,-630],[46,-436],[86,-401],[129,-344],[189,-233],[258,-69],[248,115],[491,328],[567,176],[302,0],[276,-65],[223,-183],[132,-321],[85,-382],[57,-405],[107,-317],[215,-130],[1265,-298],[274,-214],[164,-329],[87,-405],[76,-1344],[95,-860],[155,-795],[129,-836],[484,-4852],[17,-379],[41,-397],[34,-436],[157,-1283],[8,-455],[-137,-626],[-286,-749],[-801,-1200],[-463,-504],[-397,-290],[-558,-188],[-232,-286],[-190,-420],[-120,-803],[-8,-573],[25,-519],[371,-3424],[137,-813],[567,-2316],[112,-844],[130,-1769],[0,-474],[-19,-477],[-50,-493],[-344,-760],[-569,-955],[-1378,-1750],[-679,-676],[-533,-294],[-310,122],[-1964,1505],[-2100,932],[-276,222],[-224,263],[-173,333],[-231,1192],[-155,336],[-189,290],[-241,249],[-3253,1558],[-302,27],[-292,-42],[-1895,-764],[-946,23],[-283,-76],[-259,-130],[-240,-180],[-244,-313],[-224,-405],[-206,-772],[-103,-1100],[-207,-7297],[34,-554],[259,-1689],[0,-1417],[249,-688],[284,-359],[1001,-233],[282,-172],[226,-264],[154,-336],[103,-374],[78,-401],[369,-1552],[371,-1081],[67,-355],[-8,-317],[-274,-260],[-603,-176],[-1857,-19],[-339,-103],[-335,-199],[-421,-466],[-363,-156],[-919,-58],[-223,-259],[-182,-394],[-132,-672],[-39,-551],[-11,-519],[11,-470],[94,-466],[206,-443],[508,-398],[782,-343],[327,-447],[198,-409],[371,-2896]],[[801218,433552],[-10217,-2319],[-234,176],[-179,278],[-302,665],[-189,294],[-232,218],[-276,111],[-295,30],[-360,-141],[-413,-283],[-603,-737],[-274,-611],[-346,-994],[-377,-324],[-584,-168],[-1216,-65],[-611,137],[-421,218],[-594,860],[-241,244],[-294,157],[-1257,175],[-284,123],[-240,214],[-104,363],[-42,439],[-17,447],[-139,1773],[-59,412],[-95,363],[-181,268],[-257,80],[-296,15],[-336,-149],[-352,-263],[-438,-700],[-241,-569],[-309,-978],[-182,-328],[-430,-222],[-2531,-401],[-463,103],[-173,275],[-137,332],[-241,241],[-536,359],[-120,302],[-61,405],[-34,428],[-146,336],[-508,493],[-128,344],[-61,424],[0,455],[69,393],[163,225],[413,-114],[249,-264],[404,-596],[252,-72],[293,141],[310,630],[163,585],[447,2116],[387,1353],[78,462],[0,432],[-61,401],[-103,390],[-68,405],[0,435],[51,447],[173,845],[0,305],[-36,119],[-129,23],[-1538,-172],[-253,198],[-155,203],[-75,240],[-132,276],[-188,233],[-242,172],[-274,106],[-224,161],[-69,371],[86,1409],[-8,466],[-146,1765],[-103,849],[-95,385],[-139,348],[-232,256],[-291,157],[-757,206],[-189,153],[-156,283],[-17,416],[87,439],[154,382],[164,344],[748,1257],[154,394],[120,420],[53,474],[-53,405],[-111,359],[-275,107],[-404,-180],[-1791,-1830],[-242,-130],[-336,-99],[-601,15],[-240,283],[-130,393],[17,967],[-26,439],[-291,1158],[-53,436],[-11,466],[45,515],[214,1628],[28,493],[-52,424],[-132,359],[-198,290],[-266,203],[-310,95],[-628,42],[-3296,-1226],[-3013,-1872],[-671,-138],[-421,111],[-828,2067],[-190,298],[-240,260],[-284,199],[-2704,817],[-266,214],[-215,279],[-706,1249],[-447,997],[-181,306],[-198,294],[-249,233],[-311,180],[-655,137],[-1556,-336],[-2316,-997],[-500,-374],[-893,-1097],[-1268,-1960],[-542,-554],[-877,-481],[-493,-161],[-396,0],[-171,77],[-809,653],[-8712,2350],[-3623,2731],[-1119,486],[-524,65],[-2995,-810],[-967,-352],[-506,-225],[-465,84],[-1522,1035],[-588,122],[-929,-42],[-1141,-366],[-374,-379],[-503,-378],[-960,-187],[-533,0],[-525,149],[-621,-348],[-869,-752],[-1815,-2342],[-1439,-1372],[-3169,-11],[-299,141],[-224,252],[-112,371],[-78,409],[-103,855],[-61,898],[-8,844],[17,669],[-26,374],[-145,279],[-259,111],[-308,50],[-310,-12],[-310,-240],[-296,-417],[-258,-1115],[-33,-657],[42,-562],[240,-1204],[293,-1058],[34,-260],[12,-179],[-86,-497],[-80,-351],[-69,-646],[-112,-3011],[-103,-397],[-199,-432],[-756,-741],[-274,-370],[-139,-745],[-17,-543],[86,-439],[164,-241],[266,-103],[603,-38],[282,-73],[199,-229],[98,-321],[34,-309],[17,-700],[23,-405],[51,-443],[98,-386],[120,-363],[173,-305],[207,-294],[541,-436],[2039,-814],[269,-214],[188,-290],[130,-371],[137,-821],[17,-462],[-34,-501],[-69,-538],[-163,-554],[-267,-508],[-596,-413],[-2434,-829],[-344,-298],[-1481,-1918],[-302,-611],[-215,-879],[-95,-642],[-61,-592],[9,-474],[19,-458],[76,-409],[120,-363],[371,-592],[4295,-3989],[337,-496],[93,-241],[33,-206],[-16,-382],[-70,-467],[-144,-515],[-492,-1425],[-190,-757],[-59,-596],[25,-466],[61,-416],[76,-405],[53,-424],[-9,-493],[-206,-1605],[-17,-451],[137,-336],[274,-214],[992,-431],[1334,-283],[283,-191],[198,-291],[53,-427],[8,-486],[-628,-5841],[-422,-1937],[-438,-3706],[-352,-2128],[-830,-3244],[-84,-424],[-27,-454],[77,-382],[183,-298],[1084,-1288],[345,-588],[137,-348],[87,-401],[16,-458],[-25,-486],[-354,-2678],[-76,-382],[-318,-1001],[-310,-577],[-181,-237],[-501,-141],[-3642,336],[-5698,1658],[-4733,3061],[-2772,626],[-602,-179],[-7646,-5548],[-7023,-2212],[-6413,-3354]],[[669611,387756],[-2565,-566],[-5507,856],[-8678,4222],[-1224,-88],[-7058,-2846],[-5441,-524],[-645,210],[-137,352],[-301,1299],[-103,340],[-154,405],[-327,496],[-405,92],[-1249,-195],[-354,176],[-206,317],[-85,401],[-215,1211],[-207,837],[0,413],[77,424],[113,454],[430,1169],[112,375],[17,390],[-104,458],[-215,489],[-421,649],[-352,230],[-346,91],[-3304,-1031],[-327,-210],[-174,-161],[-122,-282],[-34,-398],[25,-416],[95,-883],[17,-458],[-17,-459],[-103,-428],[-154,-328],[-207,-283],[-472,-351],[-5890,-1807],[-257,-142],[-215,-225],[-154,-336],[-95,-390],[-52,-394],[-34,-405],[-53,-133],[-145,-176],[-369,-329],[-354,-26],[-328,84],[-603,569],[-525,711],[-361,603],[-147,352],[-112,367],[-93,389],[-206,1230],[-190,776],[-542,458],[-905,497],[-4089,1330],[-480,481],[-810,1135],[-260,214],[-4226,1795]],[[607789,400833],[-4664,1104],[-416,245],[-195,225],[-115,409],[-25,569],[181,971],[166,515],[137,321],[680,1062],[319,715],[111,569],[17,772],[-120,1245],[-112,707],[-120,554],[-421,1521],[-889,2483],[-327,1135],[-61,405],[0,389],[224,413],[458,466],[336,241],[2090,894],[2419,336],[198,367],[43,687],[-310,1616],[-291,730],[-276,527],[-232,245],[-198,279],[-164,554],[-51,856],[25,6922],[78,856],[95,680],[129,436],[111,447],[78,542],[78,2865],[120,669],[163,466],[181,306],[162,347],[28,532],[-173,699],[-584,1180],[-379,336],[-361,149],[-288,-84],[-310,-11],[-316,57],[-268,184],[-154,466],[-18,748],[440,2331],[335,1203],[42,784],[-602,794]],[[604793,448864],[602,4199],[632,3221],[223,393],[403,451],[422,138],[636,668],[396,814],[500,1501],[403,841],[484,699],[792,898],[464,397],[379,199],[2084,-275],[1341,561],[372,382],[243,424],[187,952],[78,531],[61,1024],[-35,936],[-76,905],[-19,967],[122,1054],[274,1498],[293,2170],[206,412],[241,161],[206,-73],[121,-286],[103,-359],[447,-3374],[0,-359],[-87,-321],[-145,-344],[-129,-363],[-69,-420],[-9,-451],[17,-462],[139,-1318],[112,-420],[188,-333],[354,-187],[223,210],[166,359],[413,2006],[489,1780],[148,409],[2246,3756],[301,806],[190,787],[223,306],[266,19],[234,-230],[179,-301],[148,-344],[171,-317],[189,-260],[207,-210],[265,-100],[354,-11],[664,160],[362,253],[274,317],[474,932],[2222,3194],[164,351],[618,1807],[293,310],[326,114],[413,12],[430,107],[640,309],[275,466],[155,524],[567,5918],[17,500],[-42,432],[-139,348],[-240,240],[-637,344],[-240,214],[-120,290],[-46,195],[-17,96],[-69,1073],[-190,6530],[-318,2590],[-17,462],[0,493],[-43,462],[-86,375],[-232,229],[-259,164],[-198,229],[-85,371],[-86,1012],[51,753],[215,466],[354,535],[111,451],[-8,420],[-1170,4157],[-156,825],[-8,466],[69,944],[-8,347],[-207,100],[-482,65],[-132,76],[-51,54],[-69,214],[-75,309],[-62,493],[-41,611],[69,997],[154,531],[207,390],[1583,1578],[4779,2838],[129,-137],[137,-657],[242,-38],[411,294],[1497,2403],[269,309],[76,50],[166,168],[5876,4226],[433,481],[1995,3167],[387,355],[286,92],[310,34],[405,161],[472,290],[731,810],[319,581],[128,519],[-128,337],[-258,206],[-2161,776],[-302,202],[-162,329],[-87,397],[-44,443],[-94,397],[-121,348],[-223,233],[-3271,279],[-335,107],[-284,183],[-1216,1242],[-283,206],[-3099,814],[-275,191],[-215,264],[-164,317],[-249,1203],[-103,382],[-137,356],[-198,290],[-525,455],[-206,279],[-163,328],[-130,348],[-171,840],[-65,455],[53,760],[811,1888],[343,584],[336,344],[284,46],[276,-111],[188,-256],[122,-371],[154,-336],[223,-256],[335,-72],[356,72],[2158,2747],[363,180],[335,-23],[347,-103],[318,-168],[215,-276],[137,-355],[78,-401],[129,-848],[95,-386],[179,-309],[285,-191],[326,-85],[352,138],[336,344],[1086,2109],[199,279],[231,214],[302,57],[352,-57],[335,-146],[268,-214],[137,-355],[8,-466],[-154,-1601],[51,-454],[156,-287],[394,149],[279,546],[353,1028],[248,413],[224,15],[112,-332],[27,-447],[-9,-497],[17,-539],[42,-382],[302,-890],[17,-1192],[189,-229],[275,-199],[353,111],[215,317],[171,401],[132,459],[439,1990],[396,1123],[455,428],[319,619],[421,1005],[500,600],[240,584],[120,486],[43,515],[330,1593],[1418,3194]],[[653841,561442],[474,-718],[6224,-6541],[404,-160],[791,195],[398,-73],[330,-309],[653,-929],[342,-370],[938,-562],[2900,-726],[1698,-1352],[1745,-3263],[745,-156],[1571,1646],[1212,1674],[176,336],[163,355],[95,378],[-17,386],[-146,325],[-218,263],[-259,230],[-224,263],[-188,306],[-86,405],[-8,474],[8,470],[51,466],[129,405],[1130,1898],[610,478],[250,485],[104,443],[-112,1815],[-10,474],[-59,428],[-95,393],[-120,363],[-173,325],[-1610,2308],[-130,355],[-68,409],[-34,458],[0,474],[102,1551],[86,520],[103,477],[533,1765],[769,3442],[154,402],[234,485],[326,493],[618,748],[1024,524],[725,126],[388,252],[232,374],[44,440],[-78,359],[-241,183],[-551,27],[-336,103],[-67,54],[-36,84],[-80,210],[-33,332],[79,394],[137,386],[198,343],[1385,1716],[809,1242],[708,1520],[129,428],[69,497],[17,481],[-112,879],[9,451],[189,573],[292,141],[335,-19],[602,-367],[9951,6499],[1954,409],[4518,2028],[529,382],[352,371],[533,1054],[592,871],[414,424],[457,352],[318,126],[1395,-118],[413,213],[447,532],[335,164],[327,-23],[1561,-913],[223,-275],[137,-314],[-25,-382],[-147,-309],[-403,-543],[-148,-343],[-67,-405],[17,-409],[215,-355],[343,-234],[662,-57],[369,191],[285,287],[155,393],[129,436],[191,1066],[137,615],[197,619],[440,764],[354,313],[343,149],[336,-46],[645,-305],[575,-428],[1646,-1643]],[[937683,435153],[-8817,531],[-2568,-1628],[-1926,-3545],[-1399,-4894],[-982,-5720],[-452,-5264],[-590,-1998],[-1192,-176],[-1950,1180],[-872,-233],[-1043,-1222],[-2052,-3565],[-1038,-1348],[-1412,-959],[-11610,-2445],[-1879,-1979],[-1422,-3569],[-1054,-4374],[-781,-4371],[183,-8917],[-315,-3564],[-1364,-3859],[-1663,-3477],[-711,-2219],[-103,-1995],[682,-1295],[1072,-229],[2070,493],[1004,-115],[894,-599],[504,-1380],[-154,-2502],[-746,-1864],[-1151,-1204],[-1257,-947],[-1042,-1093],[-1057,-2869],[-360,-3744],[247,-3962],[845,-3442],[-11,-20],[-1119,-1703],[-2998,-6488],[-1896,-1417],[1238,4015],[-19,2033],[-1425,871],[-1820,2277],[-276,-214],[-307,-394],[-1435,-1333],[-496,-336],[-2140,1291],[-1419,501],[-645,-585],[-4956,1284],[-5982,-3286],[-2383,-137],[-7188,2032],[-1905,-1100],[-3521,-5716],[-5824,-12775],[-1454,-4401],[-916,-2041],[-1232,-863],[244,3163],[-1219,2430],[-1923,1559],[-1869,539],[-1048,-428],[-2546,-3068],[-6420,-3920],[-487,-137]],[[826825,312424],[-4,7],[-1561,4772],[-69,428],[-26,462],[95,608],[163,408],[172,386],[180,325],[1586,2269],[207,375],[326,328],[266,199],[302,-8],[267,-160],[523,-439],[268,-138],[269,-15],[240,137],[232,207],[818,997],[69,523],[-69,737],[-1153,3034],[8,111],[259,603],[397,696],[609,802],[173,317],[42,462],[-112,535],[-396,718],[-283,386],[-846,864],[-936,1490],[-181,217],[-207,65],[-181,-187],[-171,-309],[-301,-783],[-156,-325],[-188,-57],[-181,171],[-1939,2438],[-248,539],[-215,825],[-654,3710],[-430,1413],[-863,2258],[-274,527],[-207,279],[-1016,967],[-2375,1570],[-482,485],[-1361,2052],[-319,653],[-95,374],[-25,382],[196,444],[243,221],[303,100],[2923,366],[503,268],[215,214],[171,302],[95,416],[44,455],[-173,3152],[-103,878],[-146,684],[-834,2697],[-253,1059],[-52,1283],[147,550],[208,379],[466,382],[240,95],[241,-4],[189,-191],[190,-259],[207,-241],[274,-99],[558,-20],[251,-122],[198,-244],[171,-306],[232,-264],[648,-309],[1041,-214],[1170,76],[2023,1082],[224,233],[164,321],[103,447],[26,466],[-34,1367],[42,489],[103,459],[121,451],[492,1238],[120,382],[122,481],[205,1054],[242,944],[171,359],[181,310],[439,424],[232,111],[232,38],[172,-12],[266,-84],[268,-168],[240,-244],[190,-279],[355,-623],[154,-344],[259,-707],[103,-366],[112,-317],[146,-207],[198,50],[215,149],[447,420],[181,279],[146,317],[25,439],[-42,474],[-78,611],[-76,1001],[16,489],[43,505],[86,523],[232,948],[550,1711],[53,516],[-17,1104],[34,439],[103,447],[889,2411],[137,443],[34,417],[-95,359],[-430,168],[-948,-27],[-2340,577],[-269,-80],[-190,-252],[-179,-803],[-164,-317],[-198,-233],[-302,96],[-352,432],[-1083,2586],[-163,317],[-4366,5807],[-1429,2915],[-438,631],[-2402,2235],[-413,137],[-335,-53],[-1473,-1716],[-388,-577],[-215,-233],[-637,631],[-936,1306],[-2170,3691],[-933,1219],[-618,584],[-1737,-1092],[-533,-161],[-271,183],[-179,428],[-44,864],[44,661],[179,1127],[65,512],[-46,439],[-164,321],[-972,298],[-257,210],[-199,443],[-137,612],[-69,1104],[154,447],[232,263],[525,233],[474,344],[189,233],[43,287],[-104,340],[-360,271],[-1421,539],[-352,458],[-318,726],[-768,3137],[-1548,5161],[-156,822],[-101,1799],[-95,867],[-112,356],[-189,240],[-363,8],[-1447,-432],[-618,15],[-645,218],[-579,398],[-379,1455],[-42,5158]],[[809499,531413],[-809,2961],[-129,1410],[112,3450],[-8,2204],[-61,1055],[-889,5490],[-154,1379],[-25,1032],[137,531],[249,515],[260,283],[293,134],[628,4],[679,-218],[1673,-1334],[678,-290],[2635,-267],[276,99],[617,833],[578,963],[773,978],[261,221],[516,298],[568,176],[318,0],[679,-210],[5329,-4050],[129,-160],[164,-256],[240,-264],[310,-233],[525,-88],[284,233],[197,405],[69,493],[-5,466],[-149,336],[-242,249],[-1187,798],[-188,241],[-103,191],[-86,275],[-17,382],[8,394],[146,492],[653,1479],[327,428],[335,202],[293,-130],[613,-431],[371,-153],[541,0],[302,256],[198,401],[76,497],[61,596],[86,638],[224,882],[240,443],[266,295],[288,95],[318,34],[310,-80],[282,-179],[215,-272],[466,-997],[179,-317],[207,-298],[251,-252],[291,-168],[318,-84],[430,30],[1268,486],[369,336],[224,397],[16,420],[-179,2174],[34,554],[103,585],[301,729],[319,333],[440,145],[230,287],[166,366],[232,1120],[327,1180],[215,378],[2116,2239],[381,291],[1530,3],[645,302],[329,344],[182,447],[5,443],[-57,405],[-97,382],[-292,692],[-121,363],[-69,405],[27,485],[137,1009],[0,454],[-137,340],[-466,539],[-171,317],[-69,393],[61,447],[928,2339],[321,550],[293,374],[1324,787],[293,432],[171,508],[36,485],[76,642],[164,757],[405,1249],[294,581],[240,393],[12619,11534],[466,695],[154,547],[-112,344],[-743,1704],[-171,313],[-206,240],[-285,104],[-1203,-107],[-2101,393],[-645,249],[-293,191],[-207,252],[-78,305],[1768,4386],[315,466],[330,256],[5334,138],[7104,-2999],[2539,141],[938,256],[284,363],[163,474],[78,569],[33,439],[190,1185]],[[871734,607254],[637,-100],[516,-412],[647,-848],[353,-635],[310,-668],[180,-302],[259,-202],[318,-127],[1014,-187],[318,-233],[236,-313],[22,-741],[-178,-291],[-278,-191],[-1530,-114],[-232,-187],[-156,-363],[-120,-451],[-310,-1563],[9,-535],[164,-481],[481,-500],[2410,-1460],[1524,-1513],[283,-126],[293,-23],[257,111],[233,233],[1448,1948],[240,218],[266,107],[2282,-176],[276,-99],[207,-252],[-17,-642],[-388,-3236],[-51,-982],[9,-462],[25,-443],[25,-909],[-69,-512],[-103,-501],[-146,-424],[-171,-359],[-589,-948],[-159,-359],[91,-1020],[329,-1501],[1608,-5784],[10,-298],[0,-172],[-27,-203],[-68,-367],[-130,-370],[-215,-252],[-249,-145],[-894,-96],[-243,-122],[-92,-317],[-35,-421],[-17,-420],[-97,-363],[-233,-141],[-645,50],[-283,-96],[-207,-271],[-164,-375],[-137,-458],[-103,-481],[-26,-482],[104,-378],[326,-214],[310,-84],[378,-203],[387,-393],[534,-810],[355,-313],[361,-138],[6292,-626],[2159,-1017],[184,-1352],[645,-2904],[171,-1253],[78,-863],[0,-1861],[86,-489],[207,-439],[472,-470],[774,-355],[327,-42],[665,-249],[240,-336],[112,-493],[-25,-848],[-95,-588],[8,-688],[181,-821],[500,-1376],[223,-1329],[43,-867],[-95,-619],[-257,-933],[-310,-825],[-679,-1490],[-147,-435],[-97,-489],[-57,-474],[-17,-405],[-12,-642],[62,-351],[109,-321],[271,-84],[1092,374],[292,11],[249,-156],[146,-394],[-59,-760],[-131,-539],[-162,-489],[-886,-1772],[-1259,-1655],[-335,-584],[-87,-203],[-111,-359],[-104,-431],[-59,-470],[-8,-474],[145,-3129],[259,-1994],[17,-241],[-8,-374],[-122,-990],[-17,-543],[112,-573],[673,-2643],[121,-776],[-11,-684],[-93,-527],[-355,-1479],[-76,-511],[-17,-474],[120,-497],[249,-477],[579,-612],[706,-454],[851,-306],[283,-256],[198,-367],[52,-642],[9,-542],[-95,-951],[-78,-386],[-34,-111],[-147,-607],[-179,-1043],[-156,-1532],[-34,-959],[8,-929],[155,-554],[292,-580],[749,-852],[484,-325],[413,-145],[301,-19],[319,-130],[731,-703],[327,-96],[291,35],[235,202],[195,271],[364,673],[206,279],[319,-149],[396,-619],[602,-1658],[224,-898],[137,-707],[51,-409],[86,-393],[215,-459],[318,-516],[1182,-1436],[542,-1184],[765,-2323],[120,-596],[0,-264],[-42,-390],[-87,-427],[-128,-402],[-181,-340],[-198,-271],[-224,-202],[-223,-130],[-2531,-642],[-164,-84],[-146,-149],[-120,-294],[-9,-379],[17,-424],[163,-909],[345,-1444],[249,-1666],[173,-447],[308,-428],[718,-504],[868,-275],[5553,806],[293,-153],[248,-409],[319,-1008],[257,-1177],[173,-1287],[249,-1192],[863,-2976],[86,-383],[75,-416],[-36,-470],[-159,-1016],[-122,-1009],[-27,-481],[149,-508],[308,-516],[1178,-1135],[6974,-3996],[3209,-2827],[224,-439],[172,-589],[87,-1119],[-78,-657],[-137,-524],[-491,-1176],[-285,-875],[-120,-482],[-86,-508],[-51,-485],[285,-779],[533,-936],[1395,-1880],[697,-642],[534,-340],[3958,122],[5183,-1811],[232,-699],[137,-1138],[-154,-4153],[17,-1120],[249,-913],[240,-496],[268,-363],[484,-512],[75,-978],[28,-802],[-966,-6449],[-104,-1066],[-3,-42]],[[142800,639808],[4518,-10380],[868,-2503],[975,-4103],[275,-798],[344,-1269],[9,-557],[-86,-459],[-275,-772],[-103,-447],[-60,-489],[-9,-504],[60,-447],[86,-428],[112,-390],[163,-878],[258,-2358],[86,-1490],[60,-466],[147,-454],[257,-386],[1162,-642],[28,-27],[207,-531],[240,-886],[224,-1184],[138,-906],[43,-485],[17,-508],[-9,-527],[-34,-528],[-60,-508],[-104,-424],[-137,-401],[-173,-321],[-845,-1047],[-172,-321],[-146,-355],[-69,-439],[-8,-447],[60,-409],[395,-1631],[43,-478],[0,-512],[-25,-535],[-104,-1058],[-26,-543],[0,-515],[70,-455],[85,-420],[132,-367],[195,-344],[278,-252],[516,-57],[301,172],[258,256],[207,282],[455,505],[250,183],[284,95],[292,-57],[1061,-779],[1694,-440],[275,-320],[258,-482],[287,-921],[120,-649],[52,-623],[8,-1039],[43,-478],[77,-435],[112,-390],[130,-359],[77,-409],[8,-447],[-85,-428],[-147,-366],[-172,-317],[-206,-276],[-258,-156],[-296,-69],[-309,27],[-593,275],[-1583,1196],[-647,225],[-353,12],[-301,-69],[-266,-176],[-173,-306],[-86,-439],[-26,-462],[18,-474],[85,-420],[112,-378],[70,-96],[584,-661],[1818,-1081],[455,-550],[341,-860],[95,-737],[63,-803],[258,-1100],[785,-1964],[800,-939],[969,-130],[2302,718],[860,-233],[2919,-2640],[513,-879],[43,-1245],[-410,-2086],[40,-1269],[310,-1180],[1329,-3148],[723,-944],[447,768],[241,1555],[103,1417],[181,1032],[333,890],[458,879],[1227,1463],[653,336],[806,-91],[0,-933],[-562,-1505],[-496,-3144],[-250,-3393],[173,-2216],[1373,2186],[1307,-58],[3002,-2128],[-1176,-1711],[-3133,-1330],[-616,-2086],[668,-3239],[1453,783],[2804,4164],[860,206],[430,-416],[171,107],[87,1811],[-106,1574],[-136,1085],[267,630],[1112,214],[697,-286],[680,-543],[748,-344],[906,314],[120,554],[-94,867],[19,794],[488,352],[361,-149],[857,-642],[485,-141],[-465,-1773],[-295,-837],[-410,-737],[616,-1310],[1176,-1418],[1290,-1150],[963,-470],[1413,-252],[946,-699],[1654,-2392],[1539,-1329],[353,-455],[594,-1883],[-63,-741],[-333,-379],[-198,-810],[-54,-1184],[-43,-237],[155,-187],[527,-1032],[352,-1413],[-183,-974],[-318,-730],[-57,-692]],[[155104,417242],[-1789,-485],[-1044,1085],[-1296,3053],[-1869,5127],[-693,1459],[-808,1093],[-4484,2686],[-1869,1780],[-980,1719],[-252,1544],[-52,1639],[-373,1994],[-865,1635],[-1400,1708],[-2144,1925]],[[135186,445204],[3,23],[138,1509],[559,4359],[320,1448],[2833,6472],[103,646],[-46,497],[-1857,3992],[-3795,5738],[-356,822],[-195,638],[-295,1146],[-103,760],[-27,676],[44,539],[86,482],[103,443],[261,791],[292,718],[318,974],[155,821],[-17,539],[-95,451],[-1138,2800],[-1023,3068],[-172,417],[-250,458],[-3580,5032],[-1095,1253],[-585,875],[-473,917],[-370,424],[-387,233],[-1387,49],[-258,96],[-137,332],[-87,676],[-68,898],[-198,1532],[-207,719],[-223,511],[-654,749],[-370,585],[-206,237],[-226,118],[-213,-118],[-166,-298],[-336,-1280],[-137,-390],[-293,-710],[-352,-638],[-430,-467],[-249,-202],[-534,-306],[-1249,-321],[-1428,27],[-1697,485],[-379,291],[-421,493],[-679,1000],[-361,776],[-207,608],[-77,481],[-390,3782],[-87,1502],[18,1066],[338,3106],[86,473],[58,505],[46,512],[8,512],[-112,909],[-155,875],[-34,477],[-28,883],[28,745],[103,1089],[23,657],[-40,898],[-184,450],[-240,295],[-301,64],[-292,-64],[-267,-149],[-2712,-2721],[-1040,-676],[-2480,-623],[-1161,-1184],[-915,-1513],[-197,-279],[-448,-439],[-542,-310],[-370,-19],[-421,96],[-619,420],[-304,401],[-180,451],[-61,447],[0,501],[43,492],[130,948],[137,485],[86,401],[123,1016],[-42,707],[-133,810],[-378,1307],[-250,665],[-232,496],[-180,294],[-439,505],[-249,214],[-284,149],[-697,160],[-467,225],[-516,402],[-3082,3877],[-335,642],[-206,566],[-52,473],[-17,509],[25,527],[112,1119],[0,661],[-137,1047],[-215,508],[-284,321],[-611,267],[-705,142],[-690,-19],[-620,-180],[-842,-428],[-413,16],[-474,198],[-1025,1227],[-3444,6177],[-2144,1502],[-2270,985]],[[77664,543650],[2356,13796],[-34,1035],[-172,1384],[-86,427],[-112,394],[-267,730],[-558,1153],[-232,703],[-35,570],[52,504],[231,818],[1276,9153],[284,1085],[903,925],[1204,1582],[232,385],[992,1296],[335,959],[430,1539],[1454,6552],[138,466],[209,444],[318,538],[963,1211],[972,810],[559,302],[897,222],[5561,-1165],[2813,194],[398,249],[491,424],[1212,1524],[370,333],[301,76],[654,-141],[1989,-1307],[456,187],[656,466],[2495,2682],[579,252],[318,62],[679,-142],[2428,-1184],[335,-73],[645,73],[2609,1746],[619,145],[1393,-138],[1216,421],[568,340],[2350,2086],[2193,1226],[613,172],[345,31],[343,-46],[319,-103],[232,-180],[404,-99],[525,88],[1069,622],[550,596],[353,493],[155,420],[112,428],[34,478],[-26,474],[-120,401],[-1023,2005],[-440,940],[-659,-561],[-1043,145],[-1296,588],[-370,554],[-163,2995],[8,501],[95,542],[166,535],[276,722],[137,543],[43,493],[-86,397],[-145,325],[-202,286],[-481,432],[-293,118],[-318,-53],[-300,-248],[-1145,-1536],[-223,-233],[-261,-184],[-275,-103],[-301,54],[-241,210],[-198,313],[-146,355],[-94,474],[-18,573],[95,822],[189,447],[215,343],[1113,589],[627,160],[1213,27],[757,225],[656,531],[378,612],[533,1176],[1809,2690],[258,569],[52,466],[-17,478],[-130,351],[-197,295],[-1723,1543],[-197,290],[68,795],[327,1207],[1680,4016],[318,951],[60,508],[17,512],[-43,481],[-77,428],[-206,814],[-407,1097],[-78,408],[61,661],[217,814],[499,1452],[326,672],[310,443],[284,130],[336,0],[1972,-657],[619,12],[4200,1643],[679,-88],[630,-214],[577,-329],[490,-447],[1238,-1597],[224,-370],[244,-256],[215,-157],[275,-42],[508,199],[266,-69],[258,-161],[482,-462],[318,-164],[275,-88],[794,126]],[[881475,692057],[71,-749],[181,-1165],[889,-3064],[137,-344],[327,-665],[190,-309],[223,-275],[1092,-952],[103,-347],[-42,-398],[-259,-401],[-274,-218],[-319,-103],[-1224,-141],[-1102,-474],[-971,-741],[-292,-481],[-86,-287],[-52,-363],[121,-439],[104,-222],[2324,-2689],[103,-356],[-12,-382],[-228,-405],[-244,-282],[-731,-631],[-207,-305],[-181,-348],[-154,-420],[-129,-466],[-111,-531],[-251,-906],[-215,-122],[-162,-15],[-1336,481],[-293,-65],[-232,-214],[-198,-306],[-371,-699],[-670,-1562],[-120,-447],[-34,-539],[154,-657],[215,-329],[259,-34],[1496,924],[292,65],[293,-65],[260,-210],[173,-294],[129,-290],[103,-359],[25,-191],[26,-337],[-104,-3480],[27,-1528],[68,-573],[9,-409],[-43,-512],[-111,-562],[-302,-718],[-674,-1154],[-189,-588],[-498,-2224],[-259,-641],[-266,-417],[-464,-351],[-189,-210],[-78,-226],[-69,-386],[77,-676],[353,-1765],[103,-329],[371,-714],[137,-313],[34,-352],[-85,-363],[-301,-298],[-207,-290],[0,-627],[550,-2468],[61,-424],[17,-466],[-69,-512],[-293,-684],[-257,-378],[-1155,-1157],[-213,-340],[-166,-474],[-285,-1865],[-206,-2070],[-352,-1227],[-302,-615],[-299,-214],[-843,-271],[-251,-176],[-225,-244],[-672,-1536],[-120,-462],[-51,-482],[162,-691],[198,-443],[562,-1001],[138,-359],[189,-765],[137,-829],[78,-848],[-301,-6338],[44,-1517],[145,-936],[285,-187],[972,-210],[326,-153],[283,-214],[215,-283],[173,-317],[137,-355],[81,-393],[-29,-658],[-164,-886],[-824,-1914],[-723,-1280],[-1483,-1517],[-1341,-1814]],[[712892,598738],[250,802],[68,921],[-129,1467],[-223,1394],[-276,1326],[-205,757],[-1095,2827],[-78,416],[-25,566],[42,680],[210,1142],[360,1203],[491,1135],[2866,4577],[224,237],[267,145],[300,35],[310,-81],[267,-198],[207,-264],[299,-676],[182,-321],[648,-822],[584,-412],[354,-145],[5449,-650],[1168,291],[2980,2170],[877,1016],[1662,2789],[1446,3473],[1412,2781],[44,493],[-95,561],[-579,1295],[17,543],[202,634],[5,355],[-104,444],[-455,477],[-698,539],[-231,523],[-163,879],[-388,1146],[-155,768],[0,833],[86,604],[120,534],[131,455],[162,371],[223,233],[860,282],[520,310],[291,92],[327,-12],[3142,-1238],[310,16],[215,256],[318,787],[207,275],[276,130],[927,84],[253,149],[164,259],[68,218],[35,291],[-250,809],[-579,818],[-1187,1066],[-945,1467],[-1095,875],[-232,413],[-78,813],[154,352],[276,175],[2617,-19],[1162,321],[260,165],[215,236],[-128,1028],[-474,1704],[-2462,6904],[-198,813],[-156,830],[-25,408],[34,398],[173,286],[463,352],[173,233],[26,370],[-26,417],[-129,1314],[-120,401],[-223,302],[-430,164],[-1698,61],[-274,-126],[-207,-271],[-156,-413],[-215,-1008],[-145,-413],[-198,-229],[-295,-34],[-706,160],[-2798,1234],[-283,214],[-164,390],[-59,645],[-95,493],[-198,375],[-1531,389],[-318,260],[-252,394],[-110,817],[-63,1639],[-112,466],[-198,463],[-1125,1096],[-224,317],[-198,558],[-223,821],[-336,2006],[-61,600],[-42,1880],[171,3514],[-25,936],[-112,845],[-190,496],[-260,573],[-930,1334],[-352,317],[-318,153],[-327,46],[-293,-73],[-266,-145],[-690,-688],[-276,-137],[-302,-58],[-687,142],[-3452,2552],[-266,412],[-748,1494],[-404,428],[-364,279],[-2288,-19],[-707,168],[-318,179],[-276,237],[-456,524],[-533,936],[-223,282],[-268,226],[-1034,409],[-319,267],[-257,390],[-577,1543],[-215,279],[-274,520],[-276,749],[-327,3381],[-78,420],[-845,3423],[68,233],[562,1418],[516,1050],[2480,3557],[353,707],[147,1058],[112,1654],[-36,6896],[-498,1693]],[[708693,721704],[2064,1616],[301,412],[356,589],[228,1165],[485,1654],[284,325],[232,0],[164,-252],[154,-325],[378,-588],[723,-799],[602,-519],[510,-195],[293,157],[198,355],[103,451],[51,443],[-43,401],[-94,378],[17,585],[172,730],[757,1379],[464,515],[421,165],[803,-776],[387,-210],[241,172],[189,348],[121,477],[103,539],[198,661],[283,760],[619,1127],[422,436],[415,225],[723,-80],[705,-218],[1162,-848],[261,-252],[438,-187],[628,-84],[1986,554],[442,298],[181,309],[93,409],[0,416],[-51,440],[-189,787],[-68,397],[25,504],[163,550],[396,761],[266,294],[250,122],[1634,-577],[338,130],[241,206],[137,291],[8,279],[-120,305],[-162,298],[-27,478],[130,569],[696,986],[464,328],[404,77],[293,-176],[1370,-1169],[337,-191],[438,-99],[274,175],[190,329],[95,477],[25,478],[-17,1952],[17,547],[129,729],[223,340],[310,165],[335,0],[347,-107],[603,-398],[3760,-3442],[482,-225],[232,133],[43,302],[-102,329],[-405,745],[-111,340],[-36,481],[130,233],[146,80],[1766,-523],[1625,210],[877,615],[570,199],[422,57],[1764,-752],[1051,-199],[903,46],[474,156],[352,230],[206,286],[175,363],[155,436],[126,531],[81,458],[79,730]],[[752182,746518],[259,122],[745,1314],[608,1636],[911,1612],[471,298],[1066,72],[499,295],[618,951],[1102,2212],[774,863],[1002,524],[5242,867],[9649,-1135],[1519,-1188],[418,-2334],[1583,-1162],[5532,-12806],[1273,-921],[1324,104],[1314,829],[1215,1276],[1084,1551],[389,298],[677,26],[545,-259],[1140,-963],[1227,-417],[1525,-1589],[1773,-558],[498,-290],[848,-821],[139,-310],[-156,-519],[-120,-2782],[-126,-1234],[166,-1115],[826,-971],[1192,-657],[1295,-313],[1251,248],[1048,955],[476,1028],[889,2705],[523,1146],[711,959],[9208,7889],[3627,1930],[3664,382],[3973,-856],[8062,3392],[1645,1838],[3246,4780],[1638,962],[5573,1116],[1113,-867],[831,-3248],[752,-4065],[900,-3316],[4891,-3442],[1720,-2713],[130,-5238],[-555,-2972],[-161,-1337],[92,-1353],[379,-859],[1926,-2862],[5314,-11943],[1985,-2017],[4403,-2938],[2162,-2009],[1891,-2472],[1703,-3144],[1801,-4600],[56,-233],[850,-2285],[28,-1933],[253,-764],[1249,1169]],[[582829,210187],[7982,-1711],[3819,1245],[1644,-110],[1769,-2079],[2289,1620],[1322,195],[587,-1337],[561,-917],[2536,328],[687,-1589],[-967,-1635],[-23335,5990],[407,738],[257,42],[442,-780]],[[728472,235288],[3,-4],[152,-91],[662,-577]],[[729289,234616],[-887,-1613],[-2998,-9062],[-1373,-3052],[-1273,-2159],[-2257,-1222],[-1362,-1788],[-1902,-700],[-1313,-1570],[-2140,-1559],[-994,528],[181,1207],[1761,3167],[1932,1937],[-158,478],[-257,1234],[5796,2781],[2858,2361],[1522,4852],[1327,2311],[577,2140],[143,401]],[[555856,222203],[731,-829],[-1241,412],[-2334,1758],[-20229,6770],[-8700,5257],[-1738,2460],[-1499,3855],[-441,2029],[-497,3194],[-37,2307],[975,-611],[913,-5341],[884,-3691],[1310,-2598],[2229,-2047],[17869,-6843],[7241,-2770],[4564,-3312]],[[669611,387756],[1479,-5876],[2782,-14102],[543,-2097],[104,-539],[69,-496],[34,-1884],[78,-462],[164,-371],[352,-290],[310,-54],[291,69],[491,321],[636,722],[253,195],[731,122],[318,-133],[782,-661],[285,-138],[300,-53],[284,72],[232,176],[181,313],[240,929],[158,397],[318,684],[112,439],[52,482],[87,489],[120,416],[206,275],[481,336],[3762,585],[206,-65],[188,-134],[164,-260],[104,-347],[-87,-508],[-145,-298],[-181,-199],[-818,-546],[-196,-256],[-165,-356],[-103,-485],[-78,-531],[-67,-1035],[0,-478],[59,-519],[164,-474],[361,-562],[834,-943],[129,-367],[86,-531],[-8,-986],[-104,-535],[-128,-325],[-285,-389],[-120,-333],[-69,-462],[-9,-451],[36,-443],[455,-3427],[26,-439],[0,-447],[-190,-2606],[-8,-489],[35,-932],[68,-898],[223,-1688],[70,-891],[95,-481],[189,-458],[476,-447],[757,-413],[282,-310],[198,-531],[894,-5921],[78,-4241],[95,-867],[129,-428],[215,-367],[467,-336],[757,-260],[60,-50],[171,-233],[165,-428],[154,-630],[172,-1196],[154,-1837],[78,-413],[181,-382],[361,-317],[1371,-447],[275,-195],[240,-233],[637,-833],[499,-451],[2687,-1367],[231,-249],[199,-458],[198,-680],[604,-4008],[146,-447],[206,-428],[413,-474],[335,-152],[637,-115],[284,-157],[241,-233],[198,-275],[216,-626],[197,-906],[261,-1929],[8,-978],[-130,-600],[-215,-225],[-1465,-978],[-524,-222],[-232,-191],[-163,-290],[-95,-409],[-52,-466],[-43,-2873],[-77,-432],[-112,-363],[-373,-764],[-137,-367],[-128,-455],[-310,-1520],[-139,-405],[-171,-329],[-215,-229],[-482,-332],[-414,-497],[-326,-714],[-129,-424],[-162,-367],[-190,-264],[-257,-137],[-280,-96],[-1513,-53],[-274,-92],[-242,-157],[-215,-259],[-163,-302],[-129,-367],[-35,-436],[0,-435],[103,-1345],[112,-470],[232,-409],[560,-336],[344,31],[301,130],[224,156],[326,-156],[940,-1139],[413,-309],[388,-199],[1290,-279],[335,-313],[274,-524],[296,-1092],[258,-1207],[103,-845],[25,-451],[-34,-466],[-94,-447],[-154,-386],[-546,-920],[-301,-757],[-103,-443],[-51,-455],[17,-458],[69,-409],[104,-382],[232,-718],[1344,-3324],[111,-447],[87,-443],[103,-386],[171,-371],[268,-278],[516,-157],[1903,118],[2608,-370],[293,-222],[188,-397],[9,-776],[-112,-493],[-179,-378],[-190,-256],[-173,-294],[-84,-382],[-19,-451],[19,-1283],[17,-176],[16,-96],[249,-214],[732,-99],[2592,397],[309,-65],[43,-38],[1220,-1753],[757,-692],[486,-168],[841,-894],[310,-218],[293,-99],[1576,-54],[335,-531],[329,-1050],[1374,-9009],[53,-657],[-44,-546],[-308,-1468],[-78,-504],[-36,-485],[36,-913],[318,-2518],[25,-485],[9,-2243],[536,-764],[1983,-607]],[[719611,239613],[-1664,-3003],[-2457,-2415],[-5254,-2047],[-529,-46],[-690,382],[-334,772],[-46,924],[-135,504],[-623,-489],[-388,-1130],[-64,-1422],[-179,-1207],[-2403,-1765],[-208,-558],[-970,-2124],[-298,-1200],[-54,-1302],[108,-998],[325,-2047],[285,-8008],[262,-1819],[532,-1986],[1987,-15206],[505,-1662],[650,-1478],[547,-1551],[2947,-12405],[1076,-3339]],[[637253,219741],[-386,1113],[-938,1318],[-1387,-798],[-1205,-1620],[-962,-1864],[-67,-1834],[1476,-1525],[0,-928],[-1476,-172],[-1422,-707],[-547,-1555],[1137,-2693],[-550,61],[-1156,795],[-3421,15],[-474,600],[-1720,3694],[-1472,2033],[-1481,458],[-1124,-2529],[-276,634],[-244,161],[-279,-8],[-339,141],[921,1433],[601,1696],[-113,1414],[-1233,588],[-4374,-932],[401,1658],[195,1582],[542,8726],[-1287,-2197],[-940,-3454],[-1105,-3197],[-1766,-1406],[-428,-153],[-699,-604],[-561,-23],[-528,336],[-1192,1376],[-3236,2567],[501,-3614],[-791,-1670],[-5832,-1562],[-767,4],[-425,183],[-496,501],[-362,91],[-1273,-133],[-478,133],[-3038,1620],[-1306,168],[-829,-332],[-2069,-1624],[-6978,-1964],[-579,-355],[-569,-623],[-916,-1535],[-406,-482],[-2235,-542],[-11146,5077],[-1219,1364],[-709,-122],[-293,206],[-108,489],[-176,1605],[-95,550],[-217,940],[-238,1734],[-303,741],[1051,1498],[325,776],[140,1222],[-1665,-1165],[-1450,-275],[-1430,458],[-2484,1410],[-772,214],[-736,607],[-2081,4375],[-1538,2074],[-1780,-1069],[-2753,2277],[-4587,5547],[-95,-1421],[217,-1693],[108,-1417],[-420,-588],[-3502,183],[-1003,558],[-844,917],[-745,1291],[-285,1941],[700,1700],[1102,1310],[939,719],[1146,198],[3061,-1054],[4199,1241],[501,531],[2903,4218],[667,233],[750,-34],[371,401],[-461,1528],[-2537,5379],[-894,577],[-2059,-321],[-2438,612],[-5234,3396]],[[537173,263143],[11,12],[6,7],[1950,4856]],[[539140,268018],[559,-336],[4731,0],[4790,-1624],[3201,818],[1137,-50],[6095,-2128],[3029,-3072],[2297,-821],[2411,317],[2144,1437],[1517,2567],[-1034,2308],[1517,3239],[3883,5127],[1057,1078],[2563,462],[966,990],[854,1425],[866,978],[799,1203],[651,2063],[-1314,-978],[-1512,-1689],[-1508,-1230],[-1314,405],[-7471,-6609],[-4063,-848],[-3689,3186],[-861,2143],[-308,336],[-632,-370],[-929,-1719],[-506,-390],[-623,-138],[-1084,-592],[-569,-126],[-1308,-2567],[-791,1257],[-785,4580],[-935,1001],[-3413,1078],[-929,707],[-769,1333],[-889,2208],[-726,2461],[-298,2116],[-208,2365],[-323,1154]],[[545416,293073],[6,42],[81,573],[2789,-103],[851,443],[430,730],[974,1046],[430,245],[379,115],[318,-58],[293,-137],[914,-875],[705,-375],[602,12],[1754,795],[941,630],[395,531],[371,607],[154,352],[541,1627],[545,2346],[156,558],[224,562],[447,710],[335,325],[343,214],[740,202],[611,-38],[3227,-1799],[1431,-207],[438,149],[293,298],[129,413],[636,3060],[215,596],[430,741],[417,371],[1857,783],[1190,168],[291,-80],[251,-187],[179,-298],[234,-734],[94,-386],[361,-290],[559,-187],[1947,233],[430,180],[292,340],[154,248],[138,344],[103,454],[69,558],[26,600],[0,1857],[94,557],[232,184],[268,4],[252,-184],[146,-305],[189,-291],[266,-195],[474,-76],[215,-279],[413,-256],[567,-221],[2179,122],[472,-145],[182,-294],[206,-264],[266,-214],[1259,-627],[241,-248],[198,-286],[154,-325],[379,-1070],[154,-336],[173,-317],[188,-260],[206,-187],[164,-65],[605,-23],[2961,611],[2727,-187],[347,126],[224,222],[206,256],[4329,2372],[963,779],[515,627],[-104,310],[-223,84],[-559,-65],[-293,65],[-506,431],[-362,191],[-2995,-435],[-1298,183],[-425,199],[-224,168],[-206,241],[-181,298],[-68,424],[25,447],[276,592],[249,233],[5406,1402],[577,336],[1207,2117],[713,668],[2256,948],[584,454],[276,486],[-42,412],[-130,348],[-163,306],[-198,206],[-232,95],[-1964,0],[-284,96],[-207,229],[-154,310],[-103,389],[-69,417],[-68,909],[-27,1425],[95,569],[206,619],[586,848],[327,272],[198,84],[76,-84],[242,-428],[291,-665],[335,-627],[354,-485],[1482,-1505],[61,214],[8,332],[0,413],[68,378],[69,252],[156,382],[989,1765],[475,1112],[120,409],[87,428],[-17,412],[-112,356],[-2541,3706],[-3193,2995],[-284,118],[-293,16],[-853,-157],[-276,69],[-188,248],[-112,348],[-61,1119],[-78,627],[-76,370],[-35,386],[-17,428],[78,439],[111,417],[992,2067],[1427,4703],[508,2101],[275,695],[259,142],[215,-111],[595,-1188],[161,-111],[1275,-50],[809,210],[405,268],[303,321],[1625,2957],[327,336],[318,126],[276,-111],[699,-653],[310,-161],[438,-15],[241,268],[129,443],[69,512],[112,546],[309,970],[26,321],[-95,512],[-1187,3240],[-318,1112],[-86,401],[-63,435],[-22,451],[0,486],[85,1050],[276,1521],[550,2361],[154,1008],[35,451],[9,348],[-44,703],[-102,848],[-78,413],[-1181,4126],[-171,317],[-225,218],[-266,95],[-1874,23],[-330,126],[-276,187],[-224,245],[-206,279],[-154,336],[-129,363],[-95,382],[-78,374],[-33,356],[94,427],[197,608],[878,1788],[183,604],[125,1119],[139,699],[200,195],[164,-111],[146,-305],[558,-1911],[302,-1620],[103,-389],[181,-287],[283,-156],[318,-73],[1062,134],[499,237],[232,328],[103,447],[-8,451],[-61,428],[-198,772],[-120,355],[-95,390],[-59,435],[-19,466],[27,504],[146,1047],[103,1051],[17,508],[-17,443],[-42,394],[-61,294],[-163,565],[-122,329],[-283,1031],[-60,264],[-9,107],[-25,244],[-12,375],[71,474],[234,840],[94,428],[26,466],[-53,401],[-111,348],[-329,562],[-826,1069],[-181,310],[-129,347],[-69,424],[-34,440],[-34,944],[34,1474],[103,1085]],[[280663,771187],[783,-642],[284,-436],[751,-1505],[809,-860],[343,-485],[310,-1161],[232,-711],[267,-592],[473,-466],[387,-256],[1095,-386],[292,-187],[207,-229],[-35,-428],[-155,-306],[-223,-275],[-1256,-978],[-442,-504],[-403,-573],[-181,-325],[-164,-359],[-137,-401],[-120,-444],[-1084,-5811],[-43,-515],[9,-489],[128,-466],[242,-428],[490,-455],[430,-199],[1533,-393],[524,-436],[198,-393],[164,-504],[215,-1448],[206,-577],[302,-524],[618,-775],[2343,-2014],[1825,-2040],[517,-451],[180,-305],[78,-363],[-155,-489],[-344,-734],[-61,-397],[95,-363],[198,-287],[370,-110],[585,217],[301,-114],[301,-359],[310,-967],[294,-588],[525,-478],[1101,-474],[258,-225],[224,-252],[163,-409],[121,-523],[43,-1571],[111,-523],[353,-279],[266,-122],[2480,-359],[309,84],[227,248],[172,321],[126,401],[339,1360],[163,348],[198,294],[163,355],[267,830],[154,374],[233,225],[318,65],[344,-65],[301,-317],[189,-561],[95,-1139],[8,-745],[-189,-2942],[0,-519],[104,-562],[180,-569],[399,-776],[902,-1455],[637,-1337],[121,-489],[85,-581],[-8,-990],[-147,-512],[-223,-343],[-517,-371],[-223,-260],[-129,-367],[0,-489],[137,-492],[689,-906],[232,-374],[86,-386],[-86,-562],[-731,-1314],[-327,-860],[-206,-798],[-77,-436],[-35,-382],[-17,-324],[69,-459],[188,-447],[422,-523],[1058,-627],[250,-225],[197,-432],[146,-600],[87,-1119],[-60,-1429],[-70,-535],[-112,-435],[-188,-291],[-930,-263],[-266,-176],[-206,-268],[-190,-317],[-335,-684],[-206,-271],[-232,-225],[-279,-149],[-300,-96],[-345,-23],[-2772,604],[-215,-61],[35,-482],[137,-680],[1560,-4156],[206,-791],[77,-432],[35,-420],[-43,-374],[-190,-218],[-283,-119],[-992,-133],[-275,-138],[-172,-329],[-86,-485],[-172,-2758],[198,-531],[370,-524],[2049,-1092],[283,-279],[233,-363],[172,-669],[25,-424],[-50,-485],[-87,-432],[-60,-447],[17,-431],[78,-409],[284,-711],[1525,-2888],[584,-1394],[181,-830],[112,-894],[95,-412],[128,-363],[155,-336],[352,-623],[11502,-4871]],[[318151,673394],[-998,-1868],[-759,-344],[-1050,-27],[-223,-141],[-87,-230],[225,-336],[1023,-970],[123,-386],[-11,-485],[-319,-806],[-490,-868],[-413,-550],[-240,-214],[-284,-141],[-344,0],[-1344,413],[-302,-20],[-215,-221],[-163,-348],[-533,-1623],[-112,-459],[-52,-504],[104,-707],[188,-401],[250,-317],[1402,-971],[484,-473],[422,-543],[369,-604],[267,-714],[103,-397],[69,-428],[0,-482],[-129,-725],[-223,-898],[-1672,-5047],[-533,-1009],[-129,-370],[-35,-432],[147,-512],[180,-382],[588,-898],[164,-348],[34,-534],[-129,-719],[-527,-1119],[-387,-359],[-345,-42],[-490,451],[-292,107],[-310,0],[-301,-88],[-240,-184],[-209,-588],[-144,-879],[-81,-1830],[104,-840],[175,-573],[1573,-1773],[207,-283],[112,-324],[-34,-363],[-258,-375],[-723,-772],[-181,-309],[-128,-466],[-61,-546],[86,-849],[172,-462],[223,-355],[275,-199],[328,-145],[361,-84],[3408,-50],[232,-221],[164,-325],[140,-371],[213,-775],[347,-1696],[8,-425],[-103,-412],[-327,-279],[-1628,-944],[-146,-160],[-103,-287],[-52,-473],[86,-799],[137,-493],[293,-775],[94,-432],[87,-1440],[60,-432],[120,-363],[190,-241],[257,-179],[940,-348],[232,-222],[173,-309],[103,-397],[17,-508],[-26,-581],[-60,-688],[-17,-558],[17,-512],[189,-813],[155,-333],[688,-1264],[266,-707],[103,-386],[-16,-520],[-172,-611],[-482,-913],[-267,-699],[-206,-699],[-77,-971],[25,-630],[69,-535],[103,-393],[147,-356],[653,-1295],[130,-367],[120,-385],[77,-425],[51,-439],[60,-970],[-33,-1070],[17,-489],[43,-466],[146,-856],[197,-795],[60,-427],[-68,-478],[-232,-466],[-585,-455],[-438,-153],[-1732,-210],[-1290,-840],[-482,-600],[-1060,-2078],[-301,-360],[-267,-137],[-301,-54],[-653,188],[-594,336],[-516,428],[-1104,1295],[-593,344],[-1024,256],[-300,156],[-527,451],[-912,1028],[-843,573],[-1336,439],[-378,-290],[-413,-665],[-1110,-3213],[-189,-294],[-241,-214],[-300,-65],[-2411,562],[-1351,-46],[-312,-355],[-309,-700],[-422,-1639],[-267,-787],[-171,-729],[-87,-550],[0,-914],[-86,-618],[-335,-612],[-895,-580],[-206,-260],[-155,-363],[-123,-478],[-224,-1314],[-120,-543],[-146,-431],[-181,-336],[-198,-279],[-447,-478],[-568,-844],[-188,-218],[-207,-176],[-206,-393],[-167,-566],[-246,-1623],[-270,-539],[-111,-493],[-27,-630],[182,-1143],[180,-611],[189,-470],[321,-661],[112,-378],[25,-470],[-94,-531],[-313,-615],[-275,-336],[-515,-459],[-172,-317],[-95,-489],[9,-611],[154,-806],[138,-520],[510,-1566],[413,-2094],[267,-1734],[60,-952],[180,-6716],[267,-1746],[387,-1616],[249,-745],[147,-332],[137,-371],[86,-390],[-52,-439],[-301,-501],[-317,-84],[-620,92],[-232,-214],[-138,-451],[26,-1173],[129,-1253],[120,-641],[35,-600],[-138,-2892],[-335,-3099],[-1267,-6766]],[[235634,517790],[-851,2876],[-430,1708],[-190,986],[95,508],[232,157],[275,91],[233,214],[137,527],[-146,314],[-748,699],[-508,756],[-275,298],[-1121,910],[-335,374],[-464,661],[-112,546],[8,505],[120,424],[422,1096],[95,359],[43,375],[0,554],[-43,794],[-164,180],[-163,-111],[-335,-665],[-267,-168],[-327,69],[-481,504],[-130,520],[-8,550],[78,527],[34,604],[-147,351],[-292,153],[-335,42],[-442,172],[-473,355],[-662,929],[-267,638],[-103,630],[35,524],[68,508],[284,1390],[69,505],[34,523],[-34,2457],[17,485],[77,462],[250,929],[78,657],[-121,577],[-241,511],[-722,1208],[-172,538],[-9,524],[120,390],[310,680],[129,363],[69,863],[86,367],[233,175],[635,157],[258,206],[138,436],[-68,344],[-224,252],[-1118,730],[-215,248],[-189,290],[-792,1769],[-112,650],[-45,573],[235,3946],[215,1635],[25,707],[-103,401],[-232,211],[-249,-62],[-588,-240],[-352,38],[-138,294],[-26,447],[78,459],[103,427],[129,398],[120,546],[86,684],[26,1123],[-94,631],[-172,546],[-465,1077],[-17,485],[120,360],[507,420],[224,279],[69,665],[-103,660],[-275,1074],[34,504],[189,272],[654,294],[355,787],[26,168],[-181,741],[-550,1601],[-372,1306],[-104,787],[0,654],[121,409],[146,370],[346,657],[594,841],[215,389],[181,539],[172,951],[8,616],[-60,523],[-95,393],[-837,2789],[-108,646],[-46,615],[80,1085],[74,501],[356,1394],[94,638],[-60,462],[-120,398],[-605,993],[-207,527],[-266,944],[-60,684],[17,611],[327,1933],[34,1315],[-8,936],[60,634],[111,485],[167,344],[189,298],[215,263],[490,390],[818,451],[197,393],[129,623],[-17,1234],[17,764],[69,623],[344,989],[181,906],[-18,562],[-94,466],[-628,1341],[-172,447],[-181,542],[-232,906],[-52,626],[44,673],[266,1516],[17,612],[-68,729],[-387,2373],[-60,1123],[0,1379],[-52,676],[-130,489],[-180,318],[-1387,1486],[-198,477],[-198,696],[-507,3289],[-482,2239],[-984,3171],[-308,1379],[-95,795],[-9,622],[43,283],[69,378],[768,2778],[86,244],[120,310],[172,275],[215,260],[1497,1169],[198,286],[175,329],[108,439],[201,1525],[233,3251],[137,997],[103,451],[120,409],[164,355],[181,309],[627,795],[224,424],[189,596],[190,1123],[25,680],[-69,547],[-154,340],[-190,302],[-1530,1814],[-227,409],[-224,516],[-283,913],[-87,657],[0,596],[87,466],[266,802],[155,363],[192,325],[628,795],[163,756],[138,1120],[77,2464],[-9,1173],[-60,836],[-77,424],[-241,765],[-146,347],[-172,310],[-1327,1566],[-207,432],[-197,546],[-224,974],[-34,677],[51,569],[129,626],[121,803],[120,1429],[0,809],[-60,627],[-95,401],[-146,355],[-172,310],[-206,286],[-766,795],[-275,439],[-312,875],[-75,615],[17,570],[387,1505],[138,837],[9,607],[-44,512],[-240,1272],[-519,2021],[-43,528],[8,401],[104,370],[137,348],[184,317],[206,267],[465,447],[3132,1555],[233,390],[154,577],[95,1062],[-163,497],[-275,279],[-722,114],[-362,195],[-321,325],[-327,569],[-60,478],[103,351],[207,264],[1000,775],[207,295],[154,355],[147,508],[215,1501],[-70,524],[-163,386],[-697,760],[-206,332],[-189,394],[-167,531],[10,474],[137,351],[244,203],[2046,217],[602,222],[275,309],[253,474],[206,997],[9,615],[-86,508],[-140,344],[-178,321],[-416,573],[-508,444],[-1937,836],[-258,180],[-172,302],[86,248],[201,241],[1186,874]],[[227458,722498],[2729,1815],[1170,1097],[940,1669],[2279,5181],[370,615],[854,1123],[353,290],[516,302],[748,123],[473,-39],[726,-267],[360,-50],[1325,180],[404,241],[439,401],[983,1440],[344,627],[627,1394],[182,309],[2023,2094],[499,650],[327,538],[387,1253],[447,1147],[352,611],[2566,2701],[318,432],[147,374],[95,397],[51,398],[9,290],[-44,852],[27,462],[102,409],[2420,2816],[516,894],[275,741],[43,477],[172,570],[301,546],[588,795],[241,634],[146,619],[43,1050],[51,505],[181,428],[319,225],[653,-103],[1267,-841],[335,-65],[310,104],[267,252],[163,542],[42,524],[-25,515],[-103,917],[-26,486],[26,504],[86,466],[129,378],[206,443],[87,161],[3846,2380],[1052,1364],[336,118],[421,-26],[1118,-642],[1112,-936],[680,-233],[404,65],[421,198],[550,573],[302,447],[361,684],[897,1139],[464,458],[1067,699],[1182,528],[257,183],[233,241],[171,340],[267,1478],[240,856],[173,340],[224,302],[335,172],[889,68],[386,-233],[310,-412],[241,-971],[77,-691],[17,-646],[-25,-558],[0,-511],[344,-505],[343,-317],[2669,-905]],[[555082,747263],[-1375,-5517],[-854,-1845],[-224,-344],[-86,-378],[103,-493],[154,-371],[122,-393],[46,-401],[-168,-700],[-125,-408],[-1456,-3099]],[[419622,606696],[-528,1746],[-602,393],[-842,-175],[-757,23],[-336,244],[-188,302],[-112,665],[-379,1161],[-1018,2239],[-757,2453],[-232,515],[-223,333],[-267,153],[-1568,370],[-542,252],[-842,642],[-336,524],[-155,546],[-34,997],[-138,688],[-217,833],[-877,2422],[-27,302],[9,840],[35,466],[25,172],[52,283],[60,202],[129,321],[155,310],[189,305],[2755,2690],[207,279],[145,382],[95,455],[52,1123],[-9,1650],[-189,887],[-1281,3889],[-173,730],[0,454],[87,420],[171,310],[207,206],[335,184],[233,217],[180,222],[155,264],[86,305],[69,1532],[-18,932],[-103,551],[-180,401],[-2231,1654],[-318,348],[-318,504],[-447,959],[-207,623],[-128,557],[-95,1414],[17,1032],[61,534],[68,478],[95,424],[576,1681],[138,516],[103,573],[60,863],[-78,516],[-145,416],[-414,474],[-386,256],[-2721,596]],[[405753,659724],[155,1826],[180,310],[293,382],[846,588],[232,451],[163,588],[69,680],[51,1005],[-17,654],[-68,511],[-173,279],[-283,84],[-301,-15],[-1259,-336],[-696,-27],[-740,184],[-52,256],[60,286],[397,722],[300,699],[422,1188],[154,677],[155,855],[215,1636],[17,844],[-43,649],[-292,868],[-163,596],[-164,1085],[86,531],[163,409],[430,496],[267,138],[293,11],[682,-95],[335,198],[302,417],[378,867],[300,317],[242,122],[481,-122],[284,38],[266,130],[2016,2220],[1800,1223],[379,412],[662,936],[231,226],[827,431],[260,187],[213,245],[269,409],[895,1776],[352,1219],[301,615],[249,355],[1508,1131],[379,440],[1238,1986],[318,814],[172,695],[-51,428],[-104,398],[-3185,7648],[-129,459],[-103,512],[0,794],[181,524],[336,565],[137,386],[43,306],[-757,4630],[-95,1135],[9,863],[103,520],[155,355],[163,157],[138,88],[1861,668],[343,371],[362,542],[490,1265],[-17,546],[-146,631],[-232,676],[0,1677],[-95,833],[-130,600],[-223,267],[-774,665],[-223,271],[-198,290],[-155,333],[-112,401],[-80,405],[-17,435],[34,1613],[38,535],[0,519],[-72,1433],[295,4932],[-86,1139],[-192,699],[-637,321],[-275,210],[-197,294],[-164,317],[-481,1310],[-663,2316],[-137,366],[-181,306],[-241,248],[-338,134],[-361,65],[-663,-65],[-275,317],[-258,680],[-163,1972],[-722,2620],[-362,3469],[-200,581],[-143,321],[-141,359],[-155,336],[-128,356],[-680,1287],[-439,550],[-266,203],[-319,126],[-2359,-126],[-301,-107],[-2136,-1295],[-292,-111],[-336,88],[-343,317],[-362,955],[-25,550],[146,371],[1247,198],[292,119],[250,264],[172,404],[172,512],[-40,402],[-201,275],[-843,737],[-241,439],[-34,432],[103,378],[215,210],[284,16],[992,-321],[310,30],[249,188],[198,290],[163,363],[129,424],[499,2445],[60,615],[9,363],[-27,157],[-60,237],[-111,298],[-172,313],[-594,516],[-301,428],[-232,913],[17,592],[198,317],[645,118],[258,176],[181,302],[111,351],[551,2350],[258,1429],[-43,496],[-155,390],[-963,997],[-250,340],[-223,417],[-241,665],[0,515],[78,478],[533,1692],[525,1402],[1559,3397],[525,1700],[163,363],[197,298],[1730,1417],[269,409],[266,573],[344,1154],[86,711],[-8,580],[-769,4279],[-188,1765],[-165,848],[-102,394],[-155,351],[-405,573],[-601,360],[-732,160],[-2057,-413],[-233,100],[-275,313],[-77,459],[0,531],[1058,8779],[-35,844],[-103,581],[-155,290],[-1342,2190],[-3082,6892],[-189,302],[-249,187],[-309,65],[-330,286],[-310,596],[-249,1693],[42,779],[242,386],[1748,38],[353,-107],[284,-195],[447,-538],[206,-298],[241,-142],[261,27],[224,783],[17,936],[-172,2846],[-18,875],[35,776],[57,604],[104,542],[295,795],[731,1639],[223,813],[43,581],[-34,524],[-86,408],[-120,371],[-138,355],[-379,612],[-223,275],[-554,470],[-1333,615],[-283,198],[-207,291],[-112,386],[-154,871],[-104,435],[-102,363],[-130,348],[-335,645],[-1732,2235],[-1015,933],[-593,321],[-286,72],[-250,-130],[-189,-282],[-1109,-2682],[-164,-283],[-163,-92],[-129,206],[-121,325],[-206,814],[-275,1773],[-596,6456],[-1041,5421],[69,528],[258,217],[679,77],[593,221],[1044,757],[1737,1845],[709,982],[696,1375],[550,1674],[138,974],[112,1440],[146,4616],[-26,974],[-68,374],[-87,187],[-138,115],[-188,-69],[-439,-435],[-241,-134],[-257,76],[-207,298],[-138,298],[-310,948],[-40,214]],[[400541,875826],[1465,1815],[1279,573],[2422,-1406],[1104,19],[809,2028],[813,3053],[551,1479],[751,542],[1445,233],[1284,749],[831,1398],[786,1647],[1146,1463],[1096,657],[1278,283],[1215,-245],[958,-936],[917,-2258],[488,-1906],[699,-1372],[5034,-1192],[997,367],[562,871],[935,2419],[702,703],[571,-77],[888,-844],[694,53],[3365,2503],[1273,527],[7763,294],[1591,-615],[1557,-1627],[2076,-4020],[782,-1169],[2801,-1937],[711,-939],[332,-856],[158,-829],[60,-990],[-6,-1299],[-97,-985],[-464,-2614],[-155,-126],[412,-1329],[1697,-3091],[740,-951],[848,-470],[1652,15],[808,-286],[814,-1093],[1236,-2640],[868,-386],[774,134],[746,-283],[705,-661],[622,-974],[422,-1184],[612,206],[221,714]],[[604793,448864],[-886,990],[-198,378],[-51,436],[70,1528],[-19,420],[-67,340],[-70,191],[-120,279],[-1034,1849],[-259,692],[-112,374],[-87,401],[-84,883],[-87,412],[-103,367],[-198,222],[-301,-31],[-1162,-1211],[-360,-73],[-1378,398],[-620,42],[-706,-317],[-326,-356],[-232,-401],[-115,-424],[-51,-481],[-24,-485],[75,-910],[201,-1245],[5,-84],[-5,-134],[-46,-290],[-110,-325],[-191,-252],[-207,-161],[-1728,-557],[-215,-264],[-129,-409],[-215,-978],[-120,-439],[-159,-356],[-262,-129],[-373,53],[-619,447],[-319,393],[-223,394],[-396,1062],[-154,340],[-215,210],[-310,65],[-1087,-668],[-2291,-646],[-706,-585],[-438,-485],[-188,-294],[-164,-332],[-154,-382],[-131,-432],[-101,-493],[-61,-512],[-17,-497],[34,-447],[78,-408],[128,-359],[190,-283],[266,-184],[946,-259],[210,-195],[75,-378],[10,-952],[-27,-489],[-75,-420],[-201,-264],[-249,-141],[-1497,-260],[-550,-214],[-215,-240],[-156,-333],[-103,-409],[-12,-427],[53,-417],[106,-382],[386,-1066],[70,-420],[17,-481],[-78,-1051],[0,-485],[95,-398],[172,-305],[198,-287],[163,-298],[17,-382],[-112,-325],[-223,-175],[-1146,-317],[-199,-253],[-94,-435],[-51,-978],[8,-482],[-69,-1967],[-61,-405],[-146,-325],[-248,-134],[-9598,-2315],[-568,138],[-3632,2013],[-259,229],[-320,146],[-353,65],[-559,-256],[-662,-444],[-249,-87],[-284,87],[-972,1548],[-1481,1417],[-620,325],[-938,195],[-2006,-447],[-491,-344],[-223,-233],[-190,-298],[-171,-344],[-1207,-3014],[-714,-2197],[-628,-1425],[-378,-577],[-215,-237],[-501,-317],[-594,-145],[-481,153],[-594,309],[-1079,905],[-455,558],[-266,535],[-206,757],[-483,1455],[-154,329],[-190,298],[-240,290],[-1290,1051],[-596,886],[-448,279],[-1995,386],[-604,-134],[-370,-306],[-86,-485],[-69,-473],[-95,-425],[-206,-221],[-267,-96],[-4838,-91],[-318,91],[-302,233],[-249,673],[-61,577],[10,607],[51,543],[26,523],[-9,474],[-60,439],[-120,352],[-439,1031],[-94,394],[-43,428],[51,473],[112,428],[137,401],[963,2151],[130,417],[103,439],[26,474],[-17,462],[-52,428],[-103,390],[-121,363],[-1196,2177],[-154,337],[-121,359],[-94,385],[-61,428],[-25,470],[-52,443],[-223,749],[-293,646],[-252,225],[-361,107],[-1393,-454],[-293,84],[-645,966],[-708,1364],[-1771,4547],[-43,80],[-732,2055],[-79,363],[0,336],[174,226],[2202,1520],[662,688],[201,283],[154,363],[112,481],[69,520],[44,531],[-18,489],[-43,431],[-86,409],[-215,757],[-361,2067],[-124,370],[-309,260],[-465,95],[-2175,-615],[-347,54],[-370,172],[-507,561],[-388,253],[-463,137],[-637,-172],[-545,329],[-327,286],[-722,1299],[-250,203],[-343,57],[-929,-569],[-295,-279],[-178,-298],[-115,-420],[-43,-478],[43,-1368],[-60,-405],[-181,-252],[-241,-183],[-860,-260],[-283,19],[-267,153],[-206,485],[-224,291],[-292,64],[-467,-500],[-190,-516],[-103,-558],[-34,-1520],[-43,-497],[-86,-454],[-181,-302],[-258,-145],[-318,19],[-318,168],[-292,481],[-61,459],[17,359],[86,271],[276,669],[103,462],[77,523],[155,2617],[-60,929],[-86,401],[-147,325],[-197,229],[-241,118],[-3065,-386],[-713,-321],[-459,-309],[-206,-267],[-267,-134],[-344,72],[-439,405],[-232,390],[-155,420],[-85,413],[-164,313],[-258,145],[-872,-573],[-954,-982],[-413,-91],[-5192,1142],[-524,371],[-181,206],[-112,168],[-128,268],[-121,328],[-86,409],[-17,466],[43,1979],[-34,348],[-69,210],[-276,256],[-1264,561],[-372,344],[-215,417],[-43,447],[-138,3327],[-60,428],[-112,363],[-335,271],[-490,195],[-981,176],[-888,451],[-4011,538],[-1153,-233],[-1929,-993],[-731,-711],[-421,-691],[-146,-1081],[-112,-463],[-132,-416],[-172,-336],[-404,-302],[-1737,-848],[-465,-520],[-318,-485],[-166,-374],[-198,-279],[-232,-199],[-362,-65],[-438,77],[-731,412],[-276,466],[-128,512],[-26,466],[-51,451],[-104,378],[-163,329],[-210,271],[-257,214],[-336,73],[-379,-123],[-515,-519],[-250,-428],[-146,-393],[-370,-1590],[-224,-298],[-343,-53],[-579,344],[-241,420],[-121,493],[-51,439],[-86,386],[-473,260],[-740,164],[-1688,-23],[-1617,455],[-628,-119],[-2574,-1303],[-731,-573],[-464,-485],[-124,-340],[-215,-1031],[-103,-340],[-146,-325],[-353,-180],[-550,-7],[-2153,680],[-2434,1329],[-441,130],[-502,15],[-470,172],[-8557,0],[-330,-462],[-370,-2227],[-246,-726],[-453,-210],[-1622,141]],[[452675,470045],[-11627,1001],[-1978,1436],[-1113,2453],[-805,3072],[-915,2712],[-714,-408],[-149,-103],[-742,-700],[-464,-217],[-319,76],[-292,321],[-731,1051],[-344,133],[-275,-84],[-189,-282],[-310,-719],[-1293,-3572],[-224,-325],[-310,-301],[-309,3],[-249,146],[-224,271],[-682,1241],[-143,344],[-252,409],[-955,1104],[-310,249],[-301,114],[-241,-84],[-894,-523],[-1396,-382]],[[423925,478481],[-87,1008],[112,432],[181,539],[301,684],[155,489],[34,481],[-51,401],[-112,371],[-60,370],[34,367],[146,730],[0,46],[-8,53],[-35,115],[-120,248],[-224,210],[-283,172],[-1360,504],[-260,210],[-224,256],[-128,321],[-44,375],[78,378],[146,413],[1069,2284],[327,955],[448,1834],[68,531],[69,1070],[17,1024],[-17,458],[-34,401],[-10,363],[27,291],[95,393],[205,474],[293,558],[1749,2548],[1212,2269],[284,757],[654,1413],[364,635],[1015,1299],[335,156],[447,31],[826,-279],[252,-447],[77,-504],[-60,-512],[-35,-512],[52,-443],[121,-356],[301,-684],[94,-397],[353,-2128],[103,-382],[121,-359],[155,-321],[404,218],[601,787],[1207,2323],[774,2093],[233,394],[361,290],[1895,417],[723,725],[1350,2705]],[[591117,611017],[13840,-9994],[5759,-6476],[405,-577],[352,-627],[1017,-2414],[215,-757],[78,-366],[95,-318],[609,-1482],[260,-405],[413,-481],[5156,-757],[241,-202],[206,-1093],[240,-451],[439,-290],[1346,-573],[266,-562],[42,-439],[-68,-420],[-189,-252],[-249,-165],[-855,-256],[-190,-214],[-51,-363],[60,-859],[8,-455],[-51,-466],[-128,-405],[-156,-298],[-163,-206],[-507,-493],[-112,-225],[78,-260],[171,-264],[843,-966],[223,-371],[950,-1918],[120,-351],[129,-310],[223,-378],[930,-959],[293,-416],[187,-375],[87,-218],[172,-164],[241,-38],[450,397],[207,470],[171,504],[164,363],[533,12],[799,-336],[1741,-1150],[611,-715],[343,-611],[422,-493],[2411,-1436],[567,-673],[301,-573],[129,-351],[318,-138],[628,206],[356,287],[267,344],[584,1616],[344,176],[516,-61],[2015,-1487],[448,-512],[567,-894],[154,-359],[456,-1474],[159,-822],[17,-447],[51,-409],[120,-271],[259,0],[360,485],[173,505],[112,584],[257,2147],[120,485],[148,394],[343,302],[542,179],[1070,119],[489,279],[327,355],[146,394],[1735,466],[1605,-2388],[971,-432],[1905,-46],[928,-279],[888,-710],[430,-684],[1092,-2564]],[[881475,692057],[2419,2265],[699,337],[620,-188],[1004,-970],[589,-187],[2616,2678],[286,5448],[-402,5796],[546,3725],[882,332],[3550,-466],[1518,420],[1038,-241],[785,-1375],[1670,-7190],[658,-1440],[1124,-707],[2431,-394],[980,-561],[1296,-1303],[2017,-1093],[4031,1062],[2736,-737],[521,321],[493,485],[1353,673],[139,324],[-17,-309],[469,-2464],[155,-2002],[298,-1093],[349,-562],[3360,-3553],[5790,-2456],[1893,-2583],[1342,-3079],[1490,-2140],[5263,486],[935,401],[1066,1318],[1749,3824],[957,1597],[2145,1154],[1400,-1769],[96,-122],[3068,-11691],[1266,-2579],[1612,-1559],[2092,-718],[2196,692],[2150,1551],[2087,661],[2013,-1994],[1066,-684],[3239,-520],[716,-1337],[620,-2827],[877,-5353],[1417,-4321],[1686,-1707],[1960,-795],[2247,-1586],[2878,-4057],[1135,-776],[1509,-91],[1703,512],[1662,966],[1404,1215],[3291,4955],[1336,711],[1090,-46],[5424,-2166],[166,-264],[677,-1081],[-259,-2594],[-853,-1723],[-2145,-1834],[-980,-1368],[-1079,-4095],[334,-3951],[1168,-3713],[2185,-5055],[2590,-4489],[637,-2005],[-130,-2220],[-804,-4248],[-56,-4524],[-425,-1188],[-1319,-1081],[-1072,-1299],[-1840,-4317],[-1073,-1784],[-3262,-3340],[-1526,-2166],[-1175,-3003],[-269,-1761],[-149,-3568],[-259,-1276],[-635,-654],[-883,-103],[-1629,420],[-1691,20],[-4581,-2388],[-2809,271],[-951,-1009],[-396,-6280],[751,-1571],[1123,-1100],[1009,-1475],[746,-2258],[441,-1707],[631,-1246],[1307,-871],[4415,-1501],[1920,431],[648,-187],[579,-741],[1055,-2032],[706,-436],[1215,947],[981,1922],[1049,1521],[1410,-279],[1084,-2052],[-58,-2437],[-780,-2472],[-1060,-2109],[-2460,-2938],[-2236,-374],[-6145,3621],[-1273,-91],[-1211,-898],[-1112,-1864],[-452,-1372],[-373,-1421],[-453,-1127],[-1382,-841],[-470,-1027],[-3388,-16887],[-562,-3106],[2138,187],[1101,661],[6605,-1242],[1450,-1287],[1095,-2174],[425,-3259],[62,-917],[127,-714],[132,-520],[56,-374],[-228,-1055],[-522,-263],[-516,57],[-252,-95],[144,-1949],[533,-1008],[579,-703],[1742,-5750],[591,-3202],[425,-1707],[533,-1074],[-1256,-1868],[-964,-1857],[-3783,-4783],[3824,-3649],[1129,206],[2895,1594],[1194,-413],[795,-2109],[-142,-2441],[-723,-2289],[-951,-1677],[-2655,-3052],[-1049,-1842],[-2810,-7912],[-659,-2476],[-120,-2903],[848,-3897],[-75,-1162],[-149,-175],[-372,149],[-3039,-871],[-591,-612],[-458,-1176],[115,-646],[452,-711],[562,-1371],[785,-2736],[99,-1245],[-121,-1960],[-194,-993],[-591,-1914],[-156,-1093],[29,-894],[252,-1716],[46,-794],[-406,-3572],[-918,-3137],[-1398,-2124],[-1836,-558],[-5556,2247],[-1696,179],[-3365,-1020],[-1634,420],[-1268,646],[-2390,-1016],[-1240,-69],[-1002,711],[-1857,1910],[-1131,309],[-8106,-1123],[-2236,-940],[-1095,-122],[-1141,443],[-2986,3106],[-163,12]],[[162572,740340],[360,-1276],[766,-508],[1130,-149],[670,95],[568,272],[1465,1276],[584,237],[336,19],[344,-69],[610,-302],[267,-210],[233,-241],[232,-546],[217,-818],[224,-1715],[26,-936],[-43,-726],[-132,-409],[-138,-378],[-353,-661],[-1582,-2315],[-154,-359],[25,-569],[206,-753],[1059,-1864],[240,-596],[18,-669],[-430,-3053],[-60,-2147],[33,-1024],[44,-489],[430,-3167],[508,-966],[5191,-6717],[3976,-3530]],[[179442,705077],[11,-867],[104,-608],[40,-202],[132,-409],[326,-611],[207,-279],[1187,-1204],[188,-290],[147,-363],[206,-806],[137,-355],[674,-1292],[130,-355],[103,-409],[69,-431],[16,-474],[-103,-443],[-244,-371],[-541,-233],[-782,-65],[-327,-233],[-258,-481],[-267,-978],[-52,-650],[44,-523],[240,-760],[95,-405],[86,-428],[42,-466],[-17,-486],[-77,-428],[-129,-389],[-155,-367],[-309,-455],[-456,-485],[-957,-730],[-577,-244],[-825,-119],[-302,-160],[-1077,-986],[-327,-225],[-1204,-485],[-1981,-1601],[-292,-145],[-4097,-1139],[-524,-355],[-597,-241],[-2614,-489],[-321,-195],[-258,-405],[-197,-882],[-362,-2193],[-35,-512],[18,-497],[77,-447],[370,-1165],[932,-2044],[137,-420],[78,-375],[69,-424],[8,-496],[-52,-489],[-77,-466],[-249,-501],[-370,-516],[-1224,-1062],[-327,-179],[-490,-88],[-680,57],[-300,157],[-192,294],[-144,336],[-155,279],[-261,50],[-283,-291],[-302,-523],[-1238,-3469],[-215,-890],[-86,-455],[-344,-1287],[-1551,-4310],[-335,-393],[-9598,-7977],[-524,-207],[-448,-46],[-329,138],[-714,65],[-301,-344],[-241,-661],[-309,-4050],[-207,-1551],[-705,-2315]],[[77664,543650],[-1344,849],[-560,95],[-2927,-562],[-1117,119],[-1577,493],[-637,340],[-430,344],[-171,313],[-112,393],[-87,367],[-51,504],[26,661],[-86,577],[-198,596],[-499,799],[-344,164],[-278,-84],[-189,-298],[-860,-1727],[-266,-313],[-439,-275],[-301,-38],[-17,38],[-86,156],[-69,180],[-69,237],[-69,386],[-34,454],[-18,1414],[-51,374],[-155,638],[-206,73],[-210,-96],[-550,-798],[-515,-206],[-775,-88],[-2549,374],[-558,237],[-447,485],[-405,550],[-355,619],[-1075,2908],[-1264,4840],[-459,1039],[-550,837],[-396,363],[-404,153],[-1565,-375],[-2239,-1115],[-508,-378],[-387,-138],[-481,-72],[-872,72],[-430,203],[-335,259],[-172,306],[-292,703],[-103,401],[-87,436],[-180,611],[-327,711],[-1955,2475],[-1410,2449],[-287,711],[-190,756],[-154,1406],[-18,497],[27,1035],[33,512],[173,917],[519,1635],[-64,1009],[-1006,1826],[-1005,913]],[[40616,579899],[-70,268],[-900,2296],[-241,1176],[69,1700],[505,2453],[-6,1062],[-671,1269],[-2488,2063],[-1021,1119],[-1622,3164],[-1800,1875],[212,77],[68,53],[-871,906],[-734,-1364],[-258,-252],[-338,664],[298,1521],[877,2709],[786,4431],[934,3813],[213,1819],[-752,11473],[-246,1994],[-310,959],[-1198,1861],[-723,1684],[-155,692],[-205,1421],[-345,5326],[-372,1830],[-1067,4477],[1382,4833],[4208,8298],[958,4000],[401,1082],[619,783],[1193,348],[608,382],[934,1383],[3417,9058],[539,963],[487,473],[981,532],[481,702],[258,894],[453,2522],[293,1035],[2322,3481],[6014,12856],[2207,3553],[2029,2315],[1670,3752],[12675,19969],[2506,2816],[3022,3358],[6,0],[5,4],[6,0],[1605,1876],[4375,6873],[768,1616],[37,176],[696,3324],[608,1837],[752,1070],[957,703],[1915,875],[10051,179],[2917,1746],[1216,4123],[252,1352],[92,1624],[-86,2414],[155,1506],[3572,2689],[1049,1612],[694,1437],[68,279],[-287,347],[-395,1659],[-562,5952],[1285,3186],[-15,54]],[[109578,782339],[398,894],[585,550],[705,263],[769,69],[680,-535],[341,-2349],[510,-535],[788,-413],[453,-993],[356,-1158],[504,-936],[628,-473],[1032,-459],[614,-775],[0,932],[954,275],[559,443],[619,233],[1336,245],[266,168],[225,252],[197,298],[301,749],[180,317],[190,256],[224,145],[206,19],[269,-65],[499,-382],[663,-711],[1005,-1505],[285,-810],[77,-642],[-69,-431],[17,-447],[120,-367],[1603,-2300],[309,-210],[370,-138],[611,50],[954,519],[304,43],[602,-218],[250,-168],[293,-310],[1654,-2689],[283,-726],[95,-421],[52,-458],[0,-485],[-52,-443],[-112,-467],[-175,-393],[-161,-294],[-407,-573],[-490,-413],[-2763,-989],[-258,-184],[-224,-252],[-163,-309],[-78,-382],[52,-386],[129,-359],[172,-318],[2333,-2716],[276,-477],[85,-390],[52,-432],[-25,-485],[-121,-959],[-26,-470],[60,-420],[242,-336],[369,-230],[785,62],[396,210],[292,332],[147,367],[95,435],[17,482],[-9,997],[34,489],[112,401],[206,264],[310,11],[327,-218],[335,-596],[190,-489],[258,-852],[295,-309],[412,-222],[1772,-118],[344,-92],[284,-248],[198,-535],[63,-523],[-17,-493],[40,-440],[415,-573],[2297,-2021],[568,-817],[286,-726],[-77,-1013],[51,-454],[112,-378],[198,-287],[240,-233],[594,-222],[2729,-401],[817,107],[559,191],[459,466],[507,379],[568,290],[1272,367],[3495,-848],[699,168],[353,343],[-94,1456],[43,447],[137,344],[533,-187],[757,-547],[1550,-1524],[1153,-802],[1680,466],[241,0],[292,-73],[284,-198],[267,-306],[266,-447],[173,-417],[120,-431],[103,-1391],[-120,-3576]],[[537173,263143],[-2476,1605],[-1282,516],[-1228,114],[-872,-680],[-816,-1417],[-316,-692],[-208,-963],[-82,-1192],[82,-3942],[-1273,5287],[-434,780],[-794,466],[-6492,10281],[-894,2930],[1774,-2197],[1463,-2464],[826,-642],[9697,1131],[1878,-879],[3201,-3033],[212,-134],[1,0]],[[545416,293073],[-192,691],[-623,1773],[-550,2139],[-226,5196],[1029,3890],[1494,3618],[1152,4397],[279,2476],[-44,1910],[-596,1238],[-2768,787],[-564,1020],[185,1646],[1648,3844],[443,1337],[-331,875],[-1511,325],[-2416,-665],[-1056,176],[-881,1417],[1553,5268],[199,3042],[-804,3239],[-785,1093],[-691,286],[-564,551],[-425,1906],[-176,2373],[-13,1344],[-217,978],[-767,1296],[-3277,2391],[-506,1536],[262,2510],[-64,917],[-578,409],[-216,-470],[-777,-2235],[-180,-703],[347,-1421],[867,-1422],[1070,-1085],[2465,-978],[560,-1482],[-36,-7289],[244,-696],[1372,-512],[379,-580],[280,-589],[289,-267],[690,-963],[-433,-2101],[-786,-2067],[-419,-856],[-407,-5666],[1752,-1199],[2501,527],[1833,-497],[-1630,-2857],[-745,-1972],[-271,-2090],[461,-2173],[994,-444],[1218,657],[1147,1105],[253,-2709],[-524,-3714],[-1016,-3278],[-1214,-1406],[-1364,-672],[-1174,-1834],[-704,-2712],[27,-3332],[2086,-4355],[217,-871],[-407,-5540],[163,-2128],[284,-978],[59,-806],[-506,-1643],[-406,-749],[-1219,-1314],[-650,-500],[-2424,-764],[-2397,561],[-5404,3217],[-3309,-451],[-957,-802],[-469,-1704],[-547,-1536],[-1223,-306],[-461,398],[-776,1142],[-506,245],[-1178,-142],[-618,92],[-443,443],[-226,1773],[551,2124],[3065,8038],[781,2690],[-22,1222],[682,933],[2554,5902],[-667,1620],[-461,-745],[-361,-1811],[-407,-1543],[-406,-535],[-1070,-718],[-447,-459],[-325,-642],[-1070,-2605],[-67,-466],[-190,-359],[-623,-283],[-704,691],[-776,1020],[-822,3095],[-596,1559],[-854,558],[623,-3133],[105,-795],[112,-1818],[339,-742],[487,-416],[1743,-2204],[208,-917],[-420,-1597],[-1034,-2560],[-81,-428],[-863,-1070],[-1891,-4706],[-686,-1066],[-1084,-386],[-2464,-2094],[-809,-1008],[-762,611],[-1562,340],[-709,752],[-411,-936],[-1047,1127],[-3811,1567]],[[502319,281409],[-2,23],[-860,6919],[0,2361],[146,573],[163,898],[-17,745],[-86,783],[-241,1180],[-387,9999],[-146,1115],[-1018,1303],[-756,680],[-190,279],[-180,401],[-611,2224],[-404,1016],[-370,607],[-2342,2503],[-352,882],[-491,1574],[-456,2690],[-80,1165],[121,569],[200,100],[2815,313],[258,168],[198,252],[559,1540],[163,332],[250,184],[283,34],[284,-46],[241,-179],[379,-497],[240,-88],[253,69],[524,260],[3383,332],[284,103],[240,264],[302,1119],[155,390],[206,260],[1172,806],[178,263],[89,210],[327,1544],[300,1899],[250,821],[292,627],[293,382],[352,821],[95,749],[26,844],[-26,1295],[585,2121],[-43,886],[-104,535],[-223,332],[-267,126],[-928,107],[-319,134],[-206,371],[-172,588],[-172,993],[-167,589],[-154,466],[-144,325],[-587,825],[-223,451],[-233,588],[-249,1165],[-190,589],[-240,363],[-560,0],[-527,-272],[-705,-557],[-258,-142],[-258,-42],[-249,99],[-198,207],[-594,806],[-507,424],[-1335,535],[-293,214],[-241,325],[-215,469],[-69,509],[-17,527],[60,1047],[120,997],[155,351],[207,229],[258,157],[550,218],[494,340],[206,244],[765,1246],[164,561],[188,868],[-128,1104],[-112,707],[-430,1448],[-103,252],[-103,187],[-138,191],[-215,80],[-4417,-1494],[-1695,-1180],[-295,38],[-292,264],[-611,1539],[-249,352],[-164,84],[-2239,126],[-3047,821],[-723,1807],[-928,3183],[-2601,12034],[-266,2109],[680,2728],[361,1987],[137,1108],[70,1329],[-18,910],[43,733],[43,76],[424,348],[180,283],[104,424],[69,466],[34,1226],[-223,2644],[-267,718],[-794,1483],[-602,1704],[-370,737],[-370,374],[-1912,111],[-258,272],[-8,347],[111,382],[121,707],[60,1012],[-155,2174],[-189,875],[-267,409],[-3107,-1093],[-224,-233],[-146,-393],[-95,-505],[-275,-2120],[-267,-852],[-171,-321],[-193,-233],[-240,15],[-267,256],[-266,432],[-318,955],[-224,2266],[-232,519],[-301,295],[-1999,34],[-352,115],[-361,233],[-705,863],[-327,214],[-301,23],[-258,-149],[-545,-909],[-843,-990],[-482,-351],[-266,-92],[-292,103],[-258,229],[-249,440],[-225,298],[-257,187],[-278,0],[-2537,-692],[-252,149],[-198,272],[-542,905],[-232,279],[-1308,1012],[-550,669],[-209,569],[-155,512],[-189,1169],[-378,1574],[-87,550],[-26,455],[43,516],[95,451],[396,1215],[129,481],[63,596],[-46,844],[-146,485],[-181,409],[-696,837],[-749,1138],[-146,581],[-42,550],[94,459],[163,363],[585,859],[155,310],[111,336],[52,256],[0,558],[-267,1929],[-266,550],[-301,336],[-1456,887],[-594,531],[-885,1322],[-224,592],[-129,474],[-95,584],[-69,359],[-1344,13483],[-129,588],[-164,455],[-1075,1883],[-567,1299],[-215,359],[-198,272],[-240,240],[-1371,585],[-361,344],[-155,374],[-68,348],[-35,1154],[35,485],[51,458],[439,1074],[51,435],[17,432],[-25,443],[34,1639],[-26,718],[-189,428],[-696,661],[-43,367],[85,351],[396,551],[224,233],[1903,1264],[843,-153],[223,142],[353,645],[207,245],[292,80],[318,-57],[301,-157],[292,-84],[270,100],[189,340],[78,511],[-18,681],[-249,374],[-734,604],[-181,401],[-60,561],[-68,2220]],[[425737,154393],[-4244,-2873],[2790,2415],[1120,1406],[442,1222],[298,1177],[713,458],[858,184],[754,367],[889,1146],[1603,2781],[948,1272],[8708,12742],[2790,2384],[-12089,-18155],[-5580,-6526]],[[502319,281409],[-62,27],[-1517,-19],[-2849,-1406],[-2975,-627],[-2302,-1177],[-1201,-259],[-497,-486],[-1287,-1753],[-487,91],[-628,451],[-727,-428],[-3277,-3568],[-691,-298],[-2329,829],[-551,27],[-659,-917],[-1652,-3576],[-335,-1066],[190,-1662],[940,-3117],[379,-2560],[211,4],[420,-615],[263,-742],[-290,-359],[-144,-260],[-199,-622],[-180,-707],[-487,-3786],[-127,-524],[-2284,-4737],[-930,-1329],[-2989,366],[-488,-794],[258,-696],[1268,-1337],[397,-1039],[14,-1375],[-244,-1189],[-1602,-5001],[-3883,-8672],[-1200,-3584],[-786,-1742],[-872,-733],[-482,-1020],[-1102,-4933],[-515,-1742],[-6816,-10330],[-6095,-12826],[-3132,-4963],[-3689,-4515],[140,1650],[-316,7034],[-434,275],[-505,-856],[-429,-1181],[-266,-1451],[-195,-3332],[-95,-821],[-207,-825],[-23,-661],[-103,-451],[-439,-161],[-130,260],[-330,474],[-329,198],[-159,-534],[-464,-409],[-2583,3282],[-1327,924],[-1232,-1016],[-447,-2476],[-122,-3071],[-298,-2839],[-546,1448],[-592,1116],[0,932],[375,1322],[-226,714],[-487,-294],[-420,-1742],[-54,-2124],[257,-1689],[433,-1291],[506,-948],[-384,-3423],[-275,1192],[-429,856],[-1192,1375],[-135,478],[59,569],[-36,466],[-470,187],[-334,-263],[-162,-593],[-109,-584],[-154,-260],[-1286,-53],[-1504,-436],[-1182,-1268],[-370,-2522],[415,-1650],[731,-810],[1476,-883],[845,-1348],[374,-944],[-271,-428],[-975,-630],[-880,-1208],[-948,-710],[-1138,836],[-162,-794],[-126,-287],[27,-374],[261,-1024],[-830,-734],[-1562,-871],[-677,-1039],[72,3286],[-614,3362],[-1038,2628],[-1256,1055],[149,924],[-338,5922],[365,2025],[358,955],[89,749],[-441,1391],[-304,733],[-157,237],[-199,176],[-1147,1536],[-325,588],[-257,1085],[-257,-115],[-258,-619],[-122,-978],[181,-867],[781,-1631],[176,-573],[-217,-978],[-1020,-2216],[-315,-1498],[-64,-1918],[145,-997],[298,-844],[379,-1452],[-1905,-2331],[-335,-4882],[122,-5991],[-537,-5681],[1404,-1119],[781,-428],[1074,-164],[1021,347],[794,871],[1436,2277],[-695,-1390],[-1824,-4550],[-732,-967],[-577,-535],[-352,-1177],[-276,-1176],[-325,-535],[-871,-474],[31,-1108],[853,-2972],[474,-940],[619,-642],[614,153],[208,1108],[-100,1521],[122,1276],[908,366],[0,-2915],[162,-531],[344,73],[279,424],[-35,462],[468,-218],[434,138],[361,-481],[253,-2071],[361,1895],[262,2101],[434,948],[839,-1536],[402,-2029],[67,-2426],[-447,-1700],[-1114,172],[785,-1395],[461,-2342],[207,-2720],[127,-5364],[-73,-1069],[-189,-1070],[-474,-1712],[-95,-1035],[-637,-3014],[-112,-1299],[54,-1055],[58,-199],[-95,-106],[-1069,-1697],[-908,-825],[-993,-397],[-855,286],[0,4],[285,913],[126,932],[-83,906],[-318,787],[722,3603],[-286,4874],[-935,4287],[-1226,1838],[-655,569],[-2588,3706],[-7714,4439],[-4266,692],[-544,271],[-608,504],[-602,214],[-516,-561],[-321,-654],[-430,-653],[-488,-539],[-481,-290],[-1164,-31],[-900,272],[-912,-58],[-1192,-1043],[-837,-1157],[-470,-898],[-207,-894],[-281,-363],[-1341,-138],[-459,-347],[-797,-1318],[-954,-688],[-2262,-1035],[-2850,-3744],[-751,-604],[-1230,-69],[-487,-229],[-398,-478],[-336,-1073],[-169,-2415],[-252,-867],[-1273,-749],[-1101,1036],[-911,1558],[-709,795],[-1261,363],[-1459,1658],[-860,470],[-1474,-581],[-62,-1792],[85,-1883],[-1588,-1280],[-103,-959],[161,-1131],[260,-924],[391,-550],[1573,-1154],[-624,-1150],[-706,-485],[-1737,-77],[-2070,-443],[-7378,2648],[-4598,3855],[-4937,2024],[-1938,1773],[-940,401],[-1279,1314],[-1077,3118],[-1643,6762],[289,2491],[-1083,2346],[-1623,1452],[-1248,-214],[-122,-19],[-745,1448],[114,886],[384,1570],[482,1471],[0,4],[6,23],[2948,3518],[4,4],[3962,-485],[4157,-1731],[3555,-229],[1169,848],[247,1483],[-356,4256],[-115,233],[15,286],[305,925],[48,141],[323,474],[1468,1096],[-766,1685],[-240,1727],[-103,1746],[-310,1761],[-711,1158],[-866,806],[-493,902],[385,1440],[1290,3037],[613,1039],[957,1009],[1606,818],[343,1001],[-227,1364],[-162,966],[891,2342],[3713,573],[1450,1353],[195,1199],[-74,1299],[-141,1131],[20,718],[419,570],[1614,569],[1063,959],[705,1100],[376,1616],[77,2518],[-229,2097],[-772,4333],[44,2089],[613,1827],[964,993],[9671,4004],[1382,1031],[115,2457],[-986,5467],[-132,3079],[424,1979],[1909,3385],[1256,3358],[659,2961],[-307,2724],[-1427,2109],[-1849,2736],[-9,7],[-948,1987],[-35,1708],[390,1799],[327,2250],[-52,1972],[-974,5922],[-448,4584],[345,3523],[1129,2754],[4134,4348],[1974,1154],[1055,619],[4871,4309],[1126,-8],[66,0],[887,-1761],[364,-2686],[45,-10594],[-109,-1474],[-352,-1204],[-496,-1165],[-384,-1200],[17,-1306],[940,-1257],[1233,1169],[2012,3492],[677,382],[378,-191],[281,191],[378,1604],[35,1131],[-264,2533],[178,1521],[975,2548],[780,-409],[1301,-4328],[992,-2281],[699,30],[2414,5796],[1032,1780],[1103,959],[50,42],[1290,-332],[309,-772],[97,-814],[-108,-863],[-298,-871],[-310,-997],[-109,-971],[97,-943],[322,-890],[842,-543],[1743,-523],[774,-451],[788,-1108],[765,-2743],[752,-1582],[865,-825],[946,-153],[912,531],[746,1192],[412,2040],[-275,3068],[355,787],[1571,31],[1119,676],[607,1845],[17,3519],[711,-1926],[2919,-4344],[1152,-2846],[264,-1047],[91,-1138],[-31,-2422],[112,-860],[1106,-1914],[1090,260],[2046,2846],[992,871],[894,310],[6580,-589],[2433,657],[1445,2216],[1353,3874],[-739,734],[-901,256],[-837,-233],[-550,-757],[-943,1750],[-2549,3156],[424,1081],[-682,2181],[-364,768],[-438,539],[-315,19],[-677,-688],[-361,-179],[-196,263],[-275,1200],[-103,313],[-2448,1613],[-785,1505],[-172,2789],[957,156],[1222,371],[641,2697],[-126,1185],[-691,2567],[-203,1291],[34,1655],[196,1188],[269,1119],[229,1463],[456,7787],[-83,2307],[-247,955],[-610,1803],[-215,914],[-75,1150],[11,2685],[-137,837],[-596,527],[-540,-382],[-509,-535],[-494,65],[-263,688],[-442,2269],[-260,868],[-1586,2055],[-1577,309],[-1633,-244],[-1755,420],[-1015,1150],[-1295,3286],[-907,1406],[-848,485],[-1817,233],[-901,500],[-475,642],[-871,1563],[-505,420],[-1405,-206],[-315,114],[-488,1391],[63,1639],[45,302],[242,1658],[416,4665],[605,1379],[668,1173],[421,1704],[-51,1906],[-402,1704],[-636,1330],[-734,779],[-1044,-157],[-645,-1417],[-484,-1608],[-603,-765],[-481,765],[-1696,4909],[-121,405],[-46,386],[40,386],[127,355],[1542,241],[1203,538],[803,1486],[322,3080],[-568,6556],[200,2716],[1371,1116],[636,2166],[-52,2900],[-510,2899],[-748,2163],[-926,1272],[-1049,588],[-1104,115],[-1120,-195],[-568,-1945],[-253,-1914],[-384,-1746],[-969,-1425],[-894,-431],[-889,133],[-837,623],[-757,1035],[-551,1433],[-183,474],[-171,1780],[-23,1807],[-287,1983],[-726,1643],[-856,585],[-872,278],[-769,684],[-449,1337],[-250,1490],[-378,1341],[-1703,1739],[-1003,2624],[-792,661],[-914,-630],[-525,-1349],[-573,-741],[-1009,1188],[-458,1330],[-866,3774],[-157,482],[-362,1119],[-3,16],[-6,3],[-6,16],[-719,5024],[725,3289],[1425,2900],[1436,3809],[573,4722],[-51,4424],[304,3912],[1648,3221],[662,1597],[-215,1352],[-708,1005],[-1915,1051],[-533,813],[-6,1376],[499,2193],[677,1410],[1026,1677],[851,1776],[181,1708],[-556,611],[-2184,1009],[-780,921],[-442,1826],[-487,4290],[-436,1941],[-648,1605],[-682,978],[-774,458],[-961,65],[-1757,-1303],[-2431,-4844],[-2018,-588],[-1691,1054],[-791,921],[-1181,1375],[-1789,2957],[-1136,2972]],[[373293,453116],[1,0],[980,1265],[4685,3160],[1186,1215],[637,1402],[730,1222],[413,520],[941,798],[636,761],[154,328],[78,439],[0,447],[-26,478],[-412,3064],[-70,890],[70,428],[145,348],[242,252],[1602,1005],[438,156],[397,19],[593,-286],[309,-325],[241,-340],[172,-317],[1035,-1360],[739,-684],[207,-267],[490,-955],[465,-486],[2918,-1742],[1015,-852],[304,-65],[5111,214],[5337,3370],[834,50],[258,-272],[224,-302],[2153,-2021],[731,-298],[4169,-412],[3115,470],[525,294],[275,69],[267,-58],[515,-374],[267,-11],[267,244],[932,4172],[86,772],[-35,592],[-120,370],[-138,348],[-1147,2235],[-266,718],[-86,402],[43,515],[249,539],[628,588],[554,-118],[335,-187],[585,68],[455,184],[3194,2686]],[[551769,733135],[-550,179]],[[606250,770835],[2030,-1734],[5319,-906],[664,119],[188,313],[155,405],[129,439],[103,478],[347,565],[610,554],[1515,669],[775,126],[552,-80],[241,-249],[179,-301],[310,-390],[447,-428],[1505,-906],[382,-324],[16913,-4978],[4200,-2854],[553,-122],[413,87],[542,982],[1564,520],[2274,149],[868,397],[495,424],[-44,428],[-175,317],[-1720,1532],[-44,69],[-59,160],[-17,295],[95,363],[162,313],[215,256],[2858,1876],[1869,710],[500,-68],[326,-222],[645,-1330],[740,-1230],[1827,-2059],[4251,-2808],[404,-38],[274,156],[99,421],[-17,431],[-65,436],[-17,428],[70,447],[217,370],[301,325],[482,317],[464,-72],[1128,-528],[318,149],[191,317],[58,470],[0,100],[-110,859],[76,409],[234,363],[1195,413],[345,214],[361,401],[499,412],[1172,295],[507,378],[319,474],[120,492],[190,486],[326,19],[1852,-978],[241,-260],[128,-363],[17,-451],[-188,-2563],[51,-6270],[78,-886],[154,-822],[224,-760],[1307,-2636],[1887,-3110],[2419,-3007],[361,-630],[310,-672],[223,-765],[86,-408],[34,-443],[-34,-467],[-94,-454],[-456,-1249],[-232,-967],[-61,-512],[-8,-489],[164,-3240],[85,-859],[147,-467],[224,-496],[430,-646],[318,-149],[240,172],[146,401],[215,432],[313,348],[628,172],[378,-107],[276,-249],[154,-328],[111,-375],[61,-401],[51,-913],[61,-474],[129,-435],[558,-741],[156,-390],[34,-451],[164,-607],[320,-688],[2047,-2090],[172,-244],[95,-184],[112,-282],[190,-730],[67,-417],[46,-447],[7,-470],[-36,-504],[-84,-504],[-104,-424],[-147,-314],[-103,-194],[-163,-241],[-206,-187],[-259,-157],[-1238,-218],[-215,-225],[-137,-436],[-181,-1577],[41,-604],[123,-642],[456,-840],[189,-566],[76,-523],[-34,-539],[-16,-523],[154,-631],[215,-114],[223,95],[784,1035],[318,306],[1035,493],[876,225],[5408,-1207],[1977,96],[257,168],[215,271],[190,325],[157,393],[120,463],[104,492],[147,1047],[120,527],[224,432],[438,306],[318,-58],[327,-286],[877,-1009],[389,-233],[319,-7],[999,733],[1332,1624],[1508,321],[5209,-1704]],[[306952,889988],[-1,0],[-1832,-431],[-1319,-929],[-593,-252],[-507,-378],[-198,-252],[-190,-753],[-163,-1116],[-215,-2429],[61,-1074],[145,-707],[817,-1157],[318,-677],[121,-385],[86,-417],[35,-477],[-78,-486],[-146,-389],[-353,-92],[-292,107],[-275,218],[-2205,2724],[-172,328],[-155,363],[-103,424],[-223,784],[-292,695],[-182,313],[-197,294],[-249,195],[-310,57],[-249,-122],[-184,-233],[-178,-986],[-570,-5532],[-17,-1608],[112,-1028],[879,-1111],[155,-325],[130,-371],[0,-607],[-104,-718],[-326,-1150],[-184,-493],[-190,-421],[-558,-867],[-224,-240],[-266,-184],[-3099,-1001],[-207,-256],[-95,-389],[87,-554],[1782,-5269],[87,-321],[43,-248],[60,-841],[0,-508],[-78,-707],[-180,-844],[-459,-1371],[-310,-638],[-300,-440],[-1247,-1050],[-207,-279],[-181,-325],[-154,-371],[-708,-3098],[-241,-772],[-241,-527],[-215,-275],[-180,-310],[-465,-936],[-137,-366],[-113,-677],[-85,-913],[-138,-2758],[-137,-928],[-345,-948],[-249,-542],[-235,-421],[-610,-840],[-190,-317],[-215,-577],[-628,-2281],[-300,-665],[-284,-443],[-1293,-951],[-2159,-707],[-266,-176],[-241,-225],[-189,-302],[-184,-512],[-550,-2529],[-44,-80],[-335,-497],[-51,-233],[-35,-394],[344,-1146],[585,-1509],[112,-546],[77,-692],[81,-1173],[160,-596],[201,-424],[421,-565],[138,-405],[17,-481],[-215,-730],[-258,-344],[-568,-401],[-106,-374],[175,-661],[178,-447],[717,-1345],[258,-741],[17,-894],[-86,-1307],[-808,-6048],[-52,-680],[5,-848],[115,-1360],[104,-749],[111,-584],[112,-386],[542,-1467],[1109,-2400],[138,-370],[223,-791],[173,-841],[60,-431],[-86,-913],[-207,-1242],[-1272,-4806],[-456,-1135],[-1113,-1906],[-206,-577],[-525,-2350],[-378,-1291],[-94,-222],[-61,-443],[9,-592],[240,-1066],[259,-542],[292,-371],[1069,-837],[224,-271],[180,-313],[120,-447],[-446,-1930],[-1956,-3304]],[[227458,722498],[-154,3764],[-172,500],[-345,634],[-407,321],[-482,680],[-145,615],[-35,596],[69,509],[86,485],[244,848],[281,783],[174,355],[413,707],[181,482],[172,771],[-51,577],[-155,524],[-302,542],[-258,99],[-215,-149],[-561,-920],[-439,-497],[-1634,-982],[-292,-80],[-353,15],[-390,130],[-3554,2483],[-654,279],[-335,69],[-345,-11],[-300,-100],[-276,-153],[-1482,-1222],[-542,50],[-757,240],[-1584,875],[-740,214],[-525,19],[-1327,-1467],[-5146,-8137],[-430,-509],[-760,-576],[-6446,-757],[-947,-317],[-498,-409],[-843,-1234],[-321,-374],[-550,-459],[-370,-26],[-250,194],[-378,776],[-352,359],[-259,-38],[-249,-161],[-1207,-1726],[-309,-306],[-465,-329],[-353,4],[-223,218],[-284,355],[-378,367],[-1405,523],[-1196,799],[-1379,573],[-645,84],[-421,-172],[-146,-370],[-111,-440],[-327,-1971],[-78,-1032],[52,-451],[86,-408],[163,-333],[189,-294],[663,-791],[172,-321],[94,-366],[0,-425],[-396,-1134],[-85,-470],[-215,-566],[-336,-592],[-1611,-1409],[-172,-337],[-86,-454],[-52,-489],[18,-482],[77,-955],[0,-527],[-60,-1139],[-86,-546],[-121,-569],[-180,-35],[-396,581],[-344,325],[-713,225],[-362,-152],[-209,-390],[-57,-524],[-132,-1887]],[[162572,740340],[3279,4554],[1178,2025],[648,1314],[438,516],[508,306],[507,179],[740,485],[330,745],[143,635],[0,576],[-86,405],[-160,340],[-270,184],[-997,302],[-267,210],[-198,271],[-1422,3561],[-516,982],[-834,1108],[-920,993],[-224,306],[-180,382],[-124,527],[89,397],[215,203],[318,42],[1015,-237],[336,23],[283,130],[241,229],[207,275],[191,313],[405,864],[868,2311],[78,287],[-95,340],[-146,275],[-395,573],[-1637,1818],[-232,371],[-207,634],[17,462],[146,489],[215,470],[344,623],[284,355],[304,153],[276,-4],[2596,-1008],[4212,-646],[430,145],[446,283],[602,779],[267,619],[155,608],[26,538],[0,520],[-18,504],[-51,459],[-86,431],[-198,822],[-688,1876],[-77,519],[60,791],[190,413],[283,217],[3976,-806],[378,27],[451,290],[120,390],[-43,378],[-206,287],[-1276,1112],[-206,366],[-61,531],[112,872],[413,836],[163,642],[43,493],[-310,1268],[-33,489],[60,615],[215,119],[197,-119],[812,-1165],[696,-665],[1179,-664],[1378,-466],[464,57],[543,214],[1654,1486],[1909,1047],[2135,1650],[1187,1288],[1130,844],[2926,19],[715,-191],[275,-202],[833,-1173],[1079,-1884],[126,-351],[37,-405],[-37,-394],[-18,-389],[132,-298],[250,-214],[2184,-554],[313,-157],[275,-206],[455,-520],[1145,-1776],[455,-520],[335,-195],[397,-107],[570,38],[309,253],[207,385],[498,4214],[112,440],[173,458],[215,474],[352,627],[386,936],[95,443],[60,470],[-8,989],[-43,482],[-26,492],[-215,2373],[137,4898],[-8,420],[35,439],[95,505],[300,905],[270,455],[292,317],[267,168],[2480,2869],[438,363],[292,119],[319,45],[318,-26],[1075,-352],[510,19],[292,222],[207,290],[327,780],[60,321],[-60,317],[-129,236],[-318,367],[-1328,898],[-232,252],[-69,512],[190,814],[705,1559],[1370,1872],[275,466],[95,466],[51,512],[26,497],[9,511],[-77,436],[-130,332],[-275,402],[-215,458],[-267,378],[-879,963],[-207,286],[-138,425],[-25,550],[223,924],[232,485],[304,298],[3959,807],[439,194],[464,356],[748,802],[249,596],[87,550],[-104,921],[-94,1524],[-61,401],[-103,402],[-155,332],[-180,309],[-155,348],[-77,439],[-103,978],[-78,440],[-103,405],[-860,2139],[-949,1525],[-447,531],[-240,214],[-276,149],[-628,-46],[-550,-195],[-163,-122],[-568,-661],[-252,-161],[-292,-38],[-1402,875],[-258,237],[-172,325],[0,626],[232,3496],[85,756],[267,283],[3925,1139],[430,458],[656,856],[499,1291],[224,871],[77,749],[51,1326],[-8,550],[-77,458],[-113,405],[-163,340],[-2832,4004],[-4243,2969],[-217,290],[-172,313],[-284,719],[-1075,1887],[-1603,1838],[-189,286],[-181,321],[-120,378],[-60,459],[-60,982],[-60,420],[-103,332],[-122,206],[-171,176],[-1101,718],[-519,447],[-195,291],[-175,336],[-249,757],[-77,424],[60,947],[180,1345],[525,2774],[46,1069],[-104,401],[-223,-194],[-854,-1082],[-241,-229],[-266,-176],[-328,-87],[-730,30],[-356,107],[-298,176],[-243,237],[-182,317],[-137,378],[-86,413],[-120,389],[-198,226],[-258,49],[-258,-130],[-223,-294],[-190,-416],[-344,-1120],[-172,-393],[-404,-581],[-235,-237],[-284,-145],[-310,-53],[-309,57],[-1169,672],[-706,115],[-716,-38],[-645,-195],[-551,-321],[-748,-634],[-190,-317],[-154,-363],[-138,-405],[-312,-1379],[-146,-382],[-198,-291],[-241,-156],[-284,26],[-241,119],[-223,221],[-190,291],[-180,317],[-284,718],[-111,390],[-61,451],[-34,573],[413,4634],[17,542],[-112,1460],[-18,1031],[70,1636],[232,2128],[68,1104],[-8,519],[-43,474],[-52,451],[-610,3431],[-112,1046],[-35,596],[52,1968],[112,699],[146,516],[327,718],[396,615],[962,1196],[314,630],[447,1299],[137,784],[9,615],[-112,401],[-155,355],[-218,283],[-240,229],[-990,420],[-267,218],[-154,344],[-86,432],[-43,481],[-86,405],[-146,252],[-241,-11],[-594,-218],[-352,-23],[-708,176],[-275,198],[-232,253],[-164,336],[-120,386],[-78,439],[-43,478],[-17,1612],[-138,2426],[87,2177],[214,2564],[155,1203],[147,841],[464,1223],[2720,5459],[1956,2422],[395,608],[723,1493],[567,1540],[163,672],[95,604],[-17,489],[-69,439],[-94,417],[-121,382],[-198,814],[-138,718],[-94,898],[-9,894],[70,596],[145,481],[173,321],[215,283],[232,248],[794,669],[198,313],[-130,206],[-300,103],[-5046,501],[-680,600],[-235,2204]],[[189417,943727],[7549,-179],[4684,1314],[11828,-3133],[3853,168],[1673,-523],[3584,-4482],[1662,-1020],[12894,-764],[666,-470],[12,-890],[-167,-1138],[126,-1219],[682,-1337],[780,-581],[12212,-527],[10486,-6514],[3664,-852],[5590,2754],[4902,-263],[2282,-711],[1484,-1211],[351,-1960],[-150,-2667],[-23,-3346],[442,-2457],[808,-1081],[1113,-180],[1347,245],[1640,-565],[-167,-2171],[-819,-2693],[-316,-2117],[746,-985],[1209,183],[2208,1001],[3291,-783],[1143,126],[1218,841],[1543,2387],[1026,772],[1944,-69],[7,-4],[6001,-3404],[3119,-137],[877,-699],[694,-2613],[-436,-3149],[-1840,-6303],[113,-333]],[[625059,996920],[171,-176],[868,-577],[999,103],[802,764],[750,936],[843,631],[1050,-2102],[-356,-4737],[947,-1956],[1198,164],[3801,5253],[4867,3133],[2531,646],[2517,-115],[1393,-684],[620,-1192],[452,-1704],[872,-2196],[1090,-1471],[2328,-2044],[1043,-2014],[1381,-4252],[740,-1390],[3560,-3355],[941,-1429],[935,-2021],[533,-1467],[315,-1207],[144,-1177],[17,-1409],[-958,-2816],[0,-680],[189,-2155],[137,-4126],[315,-2403],[672,-2178],[1152,-2644],[184,-2154],[-430,-1842],[-24,-1096],[2770,-27],[1124,-1173],[2052,-3748],[333,-439],[733,-707],[322,-485],[142,-592],[202,-1731],[-24,-306],[655,-351],[1048,718],[654,4],[992,-921],[1840,-2926],[1083,-1104],[1322,-1865],[811,-1142],[1497,-5005],[81,-5161],[-2099,-3489],[-1078,-382],[-3256,77],[-9443,-3183],[-2155,-1769],[-533,-2941],[618,-1242],[1962,-775],[778,-726],[248,-929],[240,-2575],[230,-1157],[406,-982],[2333,-3752],[723,-1773],[459,-2158],[125,-2739],[-120,-1315],[-486,-2216],[-161,-1207],[63,-1280],[212,-1096],[144,-1101],[-144,-1276],[-459,-703],[-1209,-393],[-281,-749],[217,-1024],[562,-1066],[1095,-1486],[821,-764],[935,-531],[944,-275],[884,4],[1100,894],[476,-4230],[-1393,-4179],[-2201,-3397],[-3216,-3151],[3990,-2423],[1324,-393],[987,653],[2075,2441],[1932,715],[2063,-466],[3962,-2021],[1835,-929],[3589,891],[1674,-337],[781,-1157],[338,-1712],[257,-1937],[534,-1876],[814,-1123],[968,-497],[4060,-370],[3853,1253],[4552,2720],[2580,2231],[872,130],[1026,-722],[1060,-932],[1073,306],[1106,703],[1147,271],[1072,-589],[699,-1245],[435,-1815],[1365,-11499],[1102,-4111],[1605,-2235],[1880,-214],[3760,1234],[1910,-183],[1095,-520],[997,-821],[483,-1380],[-464,-2170],[-785,-1043],[-3022,-909],[228,-1391],[0,-2559],[0,-856],[144,-1246],[488,-840],[1307,-424],[665,-642],[699,-1658],[70,-1467],[-144,-1540],[57,-1922],[395,-1589],[1136,-2220],[482,-1539],[108,-1773],[-127,-1509],[94,-1295],[778,-1104],[1394,-1185],[619,-848],[505,-1222],[475,-3511],[-183,-3114],[92,-2747],[1302,-2376],[-4290,-2774],[-853,-1475],[86,-1600],[2636,-15191],[1176,-3060],[1869,-1142],[1209,-325],[1153,-600],[1004,-1184],[767,-2105],[425,-2957],[86,-2231],[349,-1922],[1222,-1998],[1067,-1101],[1117,-840],[1141,-485],[1170,-115],[1054,497]],[[373293,453116],[-354,929],[-912,1299],[-373,817],[-98,757],[-177,3274],[-889,3240],[-131,859],[-46,852],[-136,906],[-369,1001],[-1554,1585],[-2007,528],[-3852,84],[-5103,3209],[-1777,122],[-1236,-856],[-1010,-4535],[-2,-7],[-71,-493],[-312,-2136],[-24,-2132],[-206,-1165],[-579,-72],[-1121,1192],[-662,1039],[-1577,4943],[923,1559],[69,1899],[-533,1692],[-871,917],[-1274,-263],[-725,-1494],[-587,-1899],[-854,-1475],[-1164,-340],[-620,1047],[-103,1742],[367,1746],[871,1536],[798,799],[616,1146],[370,2579],[-104,2380],[-579,997],[-952,187],[-2557,-451],[-940,-924],[-877,-1146],[-1187,-1043],[-1296,-436],[-945,451],[-585,1413],[-201,2423],[-401,2063],[-912,-210],[-1720,-2205],[-860,-355],[-1238,88],[-809,936],[1090,4905],[-304,2250],[-912,1609],[-1135,821],[-2927,550],[-2003,375],[-2254,1322],[-1215,2884],[-436,589],[-627,1409],[-1139,2564],[-831,1341],[-3584,4000],[-1857,1303],[-6921,-92],[-1117,821],[-115,3294],[-1210,240],[-1439,-1463],[-659,-248],[-2290,0]],[[318151,673394],[4925,898],[3804,-860],[1814,294],[4702,1953],[5337,233],[559,278],[1015,730],[438,-7],[589,-191],[2631,-1769],[482,-115],[631,-15],[1152,225],[903,485],[111,172],[304,543],[1041,2666],[189,302],[594,149],[4890,-57],[524,-191],[1420,-1192],[327,-436],[155,-324],[200,-275],[258,-168],[1179,374],[833,485],[981,814],[252,130],[284,11],[4208,-947],[542,49],[146,157],[138,199],[154,298],[130,397],[475,1769],[662,1952],[164,352],[198,294],[713,695],[1342,776],[485,420],[430,558],[163,370],[137,405],[233,906],[189,951],[232,344],[396,103],[3537,-691],[327,-169],[252,-267],[95,-504],[-60,-451],[-95,-455],[87,-577],[292,-703],[937,-1283],[276,-669],[137,-523],[-147,-676],[-51,-444],[17,-447],[69,-428],[86,-412],[69,-436],[25,-485],[-42,-1039],[17,-447],[51,-352],[52,-236],[931,-2912],[456,-1008],[164,-313],[180,-253],[1583,-1734],[137,-512],[-17,-413],[-2669,-4955],[-301,-749],[-112,-439],[-68,-424],[8,-359],[52,-222],[249,-328],[1044,-1131],[241,-585],[120,-565],[51,-451],[70,-420],[94,-394],[748,-1723],[86,-367],[0,-382],[-103,-374],[-155,-363],[-542,-951],[-154,-340],[-69,-390],[69,-359],[146,-329],[232,-309],[335,-325],[508,-348],[1164,-389],[2098,244],[3970,-913],[5906,600],[1109,-283],[301,0],[241,210],[112,635],[52,1123],[60,508],[85,489],[422,428],[673,382],[2392,390],[928,-84],[493,221],[559,493],[1797,2487],[172,340],[190,317],[587,417],[1385,-54]],[[109578,782339],[-1407,4863],[-436,2636],[339,2850],[-1491,528],[-1514,1356],[-780,1914],[723,2193],[0,779],[-1548,271],[-1313,872],[-820,1593],[-103,2391],[682,2151],[1273,1383],[1530,291],[1468,-1185],[1130,719],[1840,19],[1685,512],[683,2173],[-716,1567],[-4622,3641],[-3749,4943],[-831,1968],[-304,1643],[-58,1123],[-155,1032],[-613,1329],[-677,661],[-705,409],[-407,512],[236,982],[0,775],[-655,5242],[-481,1673],[-1456,3209],[-821,2480],[207,1150],[918,676],[-619,1521],[-2638,3820],[-2821,2533],[-1249,2159],[-3074,9532],[-945,871],[-1073,30],[-872,638],[-360,2663],[298,1670],[762,1837],[987,1479],[1014,562],[-344,1692],[69,1284],[396,875],[642,424],[-454,1501],[-2258,4699],[-86,780],[866,2502],[-786,757],[-1003,527],[-872,848],[-372,1754],[-103,775],[510,-539],[482,352],[252,1918],[-132,1207],[-1508,6021],[-321,1001],[57,1001],[671,1647],[567,833],[683,534],[5395,1979],[1301,-45],[3917,-1655],[1387,-183],[2196,-1242],[1553,-2666],[1577,-2086],[2218,512],[8291,10487],[6290,6063],[1565,3087],[1318,8168],[854,2434],[2018,4206],[1205,1746],[1175,615],[13811,1517],[3401,-1154],[1152,-73],[15583,3523],[4988,3664],[2517,1154],[2511,99],[9357,-3538],[10841,-256]],[[135186,445204],[-452,405],[-1085,413],[-3136,-80],[-3164,1169],[-1072,-58],[-1273,-1050],[-2167,-2854],[-2735,-138],[-3709,-2850],[-1205,73],[-3279,1918],[-80,-100],[-975,302],[-2019,2931],[-1100,779],[-2758,1138],[-911,994],[-1749,137],[-5584,-3488],[-1187,-27],[-378,1934],[-2878,4045],[-912,692],[-3859,-302],[-1290,271],[-2282,1169],[-3571,623],[-1027,524],[-2086,-573],[-620,-276],[-596,-764],[-241,-832],[-281,-711],[-321,-588],[-168,-203],[-216,-260],[-1152,-103],[-3595,2720],[-86,50],[-80,15],[-80,-15],[-81,-50],[-442,-240],[-412,-73],[-413,80],[-401,245],[-1250,2219],[-2649,3420],[-2282,4134],[-957,1065],[-3864,2025],[-1257,279],[-1135,-825],[-1089,-2544],[-1243,-5846],[-746,-2135],[-2374,-2847],[-883,-206],[-900,413],[-871,813],[-854,906],[-986,695],[-843,-103],[-465,-1482],[471,-2537],[-465,-1696],[-997,-1028],[-1124,-531],[-2041,2510],[-465,1520],[946,1781],[104,1960],[366,1153],[201,1299],[-379,2365],[-579,1723],[-739,1425],[-1640,2319],[-1989,1701],[-196,592],[-905,878],[-952,-393],[-940,-917],[-1021,-508],[-3996,0],[-728,-615],[-143,23],[-298,512],[-946,2964],[-786,3970],[-728,2586],[-4122,8191],[-224,168],[-229,69],[-235,-46],[-1073,-806],[-860,-118],[-877,279],[-1089,672],[-235,54],[-224,-54],[-223,-160],[-436,-524],[-430,-187],[-401,168],[-362,546],[-2717,6335],[-597,2544],[-51,1727],[126,1440],[0,1231],[-412,1054],[-385,103],[-1530,-137],[11,1994],[825,3786],[-1983,1482],[-1892,360],[-1817,-1082],[-551,-901],[-54,-12],[-4,0],[-97,-23],[-1313,344],[52,9017],[613,2040],[195,1967],[-648,5070],[115,2537],[832,2036],[3623,4390],[344,913],[579,1994],[418,883],[682,699],[1480,703],[670,653],[889,1761],[677,2335],[355,2659],[-68,2686],[171,1673],[424,821],[523,615],[481,1036],[385,1436],[126,848],[-121,4245],[-109,1020],[40,978],[368,1528],[104,226],[423,898],[1330,1677],[522,1119],[108,764],[-6,1616],[70,615],[688,2224],[1204,5253],[974,1139],[2133,466],[860,1088],[-23,2113],[258,2888],[401,2858],[424,2063],[1170,1670],[1113,-512],[2081,-3408],[1364,-1383],[1193,-214],[1187,168],[2006,-221],[1250,565],[602,-107],[562,-787],[1026,-2136],[614,-290],[992,-772],[1226,-1643],[1124,-718],[648,2002],[-108,405]],[[826825,312424],[-496,-138],[-615,-535],[-1823,-2353],[-615,-528],[-1940,-1100],[-2917,-4439],[-1806,-443],[487,-2950],[-739,-2812],[-1084,-2827],[-555,-3033],[-406,-3393],[-1030,-3370],[-1354,-2032],[-1414,596],[0,932],[412,0],[1132,-772],[1035,3485],[663,4473],[14,2220],[-455,558],[-2010,3713],[-845,734],[-1815,1009],[-780,901],[-934,-871],[-976,92],[-1535,779],[-938,-412],[-614,-910],[-452,-909],[-434,-413],[-3657,0],[-2297,-2150],[-2785,-856],[-1792,-1364],[-1612,-1941],[-3752,-6159],[-1061,-2857],[-334,-3634],[-414,0],[17,1853],[-198,421],[-542,-482],[-550,-336],[-65,-787],[-54,-241],[-279,1143],[144,519],[64,803],[-10,603],[-632,673],[-127,183],[-487,1486],[-288,581],[-371,500],[-1137,795],[-984,-54],[-2069,-741],[-4017,933],[-7571,-2232],[-1327,54],[-4130,-3675],[-3107,-2766],[-1620,-2109],[-4474,-8157],[-1810,-2602],[-6555,-5165],[-1056,-1158],[-872,-1539],[-1680,-3718],[-856,-1303],[-1942,-2124],[-826,-1268],[-5304,-13677],[-276,-512],[-2,0]],[[728472,235288],[1474,4111],[2021,3240],[796,2070],[217,3164],[-953,-1628],[-962,-1303],[-1097,-152],[-1341,1833],[-501,2793],[330,3309],[1111,4707],[-411,420],[-899,107],[-578,244],[-406,428],[-713,1070],[-872,890],[-717,1712],[-569,2250],[-171,2273],[-1202,-2414],[406,-2480],[1002,-2288],[552,-1823],[171,-1620],[312,-928],[167,-1043],[-235,-1926],[-442,-1390],[-1869,-3041],[-3296,-7924],[-184,-336],[-2,0]],[[306952,889988],[231,-672],[745,-1165],[904,-997],[788,-482],[880,184],[579,783],[2594,4943],[290,799],[255,1666],[-49,1367],[-140,1349],[-29,1593],[350,2525],[722,2106],[1037,1367],[1273,302],[1187,-913],[3355,-5139],[1037,-779],[1020,-371],[5419,-22],[1072,554],[1336,1696],[1800,4856],[1084,2342],[1186,1513],[1245,848],[1129,-103],[817,-1319],[209,-1253],[-28,-1066],[54,-1127],[467,-1417],[662,-940],[1597,-1413],[688,-1066],[361,-1315],[597,-3453],[315,-1001],[723,-401],[707,527],[1437,1964],[2763,2636],[1436,695],[1505,42],[4977,-1490],[1433,-821],[488,-1704],[137,-2549],[872,-7003],[355,-1753],[538,-1330],[918,-626],[797,508],[734,672],[710,-103],[397,-1547],[395,-2334],[585,-1296],[998,1594],[269,1849],[-120,4771],[155,2109],[1089,3450],[1553,2671],[1778,1960],[1760,1333],[1622,497],[3423,46],[1456,779],[1061,1620],[1313,3958],[1107,1520],[1089,554],[1135,77],[2230,-772],[1336,-1177],[691,-1543],[1167,-4547],[1852,-3950],[647,-2052],[219,-3277],[-523,-3244],[374,-1421],[922,-967],[1135,-1876],[626,-2418],[470,-2736],[688,-2257],[1273,-1017],[1143,566],[705,871]]],"bbox":[22.132827758789062,44.38104248046875,40.159515380859375,52.368927001953125],"transform":{"scale":[0.00001802670564877596,0.000007987892509376885],"translate":[22.132827758789062,44.38104248046875]}}
